,日付,番号,Unnamed: 2,線路,車種,Unnamed: 5,Unnamed: 6,始発駅,終着駅,会社,乗車駅,会社.1,到着駅,Unnamed: 13,発時,Unnamed: 15,着時,Unnamed: 17,時間,席别,会社.2,Unnamed: 21,Unnamed: 22,車両,会社.3,速度,station_name_x,lon_x_x,lat_x_x,company_name_r_x,station_name_y,lon_x_y,lat_x_y,company_name_r_y
0,2015.08.16,2036M,ＪＲ,成田線総武線横須賀線,特急,成田エクスプレス,36.0,成田空港（第１旅客ターミナル）,大船,JR東日本,成田空港（第１旅客ターミナル）,JR東日本,品川,85.99999999999999,16:19:00,,17:26:00,,01:07:00,指定席,JR東日本,E259,,クハE258-14,JR東日本,77.0149253731344,成田空港（第１旅客ターミナル）,140.384644,35.763983,JR東日本,品川,139.738999,35.62876,JR東日本
1,2015.08.17,1034N,私鉄,京急本線京急空港線,快特,,,成田空港（第１旅客ターミナル）,羽田空港国内線ターミナル,京急,品川,京急,羽田空港国内線ターミナル,14.5,12:12:00,,12:28:00,,00:16:00,自由席,京浜急行電鉄,,,,京浜急行電鉄,54.37499999999965,品川,139.73809,35.628284,京急,羽田空港国内線ターミナル,139.785962,35.549809,京急
2,2015.08.17,1202,モノレール,東京モノレール羽田空港線,普通,,,羽田空港第２ビル,浜松町,東京モノレール,羽田空港第１ビル,東京モノレール,新整備場,0.8,12:36:00,,12:37:00,,00:01:00,自由席,東京モノレール,,,,東京モノレール,48.00000000000017,羽田空港第１ビル,139.784653,35.549163,東京モノレール,新整備場,139.786777,35.542773,東京モノレール
3,2015.08.17,1504H,モノレール,東京モノレール羽田空港線,普通,,,羽田空港第２ビル,浜松町,東京モノレール,新整備場,東京モノレール,羽田空港国際線ビル,2.2,15:07:00,,15:10:00,,00:03:00,自由席,東京モノレール,,,,東京モノレール,44.00000000000016,新整備場,139.786777,35.542773,東京モノレール,羽田空港国際線ビル,139.768206,35.544169,東京モノレール
4,2015.08.17,G1522,モノレール,東京モノレール羽田空港線,空港快速,,,羽田空港第２ビル,浜松町,東京モノレール,羽田空港国際線ビル,東京モノレール,浜松町,14.0,15:14:00,,15:32:00,,00:18:00,自由席,東京モノレール,,,10016,東京モノレール,46.66666666666642,羽田空港国際線ビル,139.768206,35.544169,東京モノレール,浜松町,139.756747,35.655666,東京モノレール
5,2015.08.17,1510G,ＪＲ,山手線,普通,,,大崎,内回り,JR東日本,浜松町,JR東日本,上野,6.7,15:28:00,,15:42:00,,00:14:00,自由席,JR東日本,E231,500.0,,JR東日本,28.71428571428582,浜松町,139.757135,35.65539099999999,JR東日本,上野,139.777043,35.71379,JR東日本
6,2015.08.17,1600G,ＪＲ,山手線,普通,,,大崎,内回り,JR東日本,上野,JR東日本,池袋,8.7,16:38:00,,16:54:00,,00:16:00,自由席,JR東日本,E231,500.0,,JR東日本,32.625000000000114,上野,139.777043,35.71379,JR東日本,池袋,139.711086,35.730256,JR東日本
7,2015.08.17,1714G1814G,ＪＲ,山手線,普通,,,大崎,内回り,JR東日本,池袋,JR東日本,品川,15.4,18:31:00,,19:00:00,,00:29:00,自由席,JR東日本,E231,500.0,,JR東日本,31.86206896551718,池袋,139.711086,35.730256,JR東日本,品川,139.738999,35.62876,JR東日本
8,2015.08.18,1124G,ＪＲ,山手線,普通,,,大崎,内回り,JR東日本,品川,JR東日本,秋葉原,8.8,10:53:00,,11:08:00,,00:15:00,自由席,JR東日本,E231,500.0,クハE231-534,JR東日本,35.200000000000124,品川,139.738999,35.62876,JR東日本,秋葉原,139.773288,35.698619,JR東日本
9,2015.08.18,2037G,ＪＲ,山手線,普通,,,大崎,外回り,JR東日本,秋葉原,JR東日本,品川,8.8,21:07:00,,21:23:00,,00:16:00,自由席,JR東日本,E231,500.0,,JR東日本,33.00000000000012,秋葉原,139.773288,35.698619,JR東日本,品川,139.738999,35.62876,JR東日本
10,2015.08.19,505A,ＪＲ,東海道新幹線,新幹線,ひかり,505.0,東京,新大阪,JR東日本,品川,JR東日本,新横浜,22.0,08:40:00,,08:52:00,,00:12:00,自由席,JR東海,N700A,,783-2056,JR東海,109.99999999999966,品川,139.738999,35.62876,JR東日本,新横浜,139.617348,35.506824,JR東日本
11,2015.08.19,208A,ＪＲ,東海道新幹線,新幹線,のぞみ,208.0,新大阪,東京,JR東日本,新横浜,JR東日本,品川,22.0,09:14:00,,09:26:00,,00:12:00,自由席,JR東海,N700A,,783-2051,JR東海,109.99999999999966,新横浜,139.617348,35.506824,JR東日本,品川,139.738999,35.62876,JR東日本
12,2015.08.19,940A,ＪＲ,京浜東北線,快速,,,大船,大宮,JR東日本,品川,JR東日本,秋葉原,8.8,10:45:00,,10:59:00,,00:14:00,自由席,JR東日本,E233,1000.0,,JR東日本,37.71428571428585,品川,139.738999,35.62876,JR東日本,秋葉原,139.773288,35.698619,JR東日本
13,2015.08.19,1203B,ＪＲ,京浜東北線,快速,,,大宮,大船,JR東日本,秋葉原,JR東日本,品川,8.8,13:25:00,,13:37:00,,00:12:00,自由席,JR東日本,E233,1000.0,,JR東日本,44.00000000000016,秋葉原,139.773288,35.698619,JR東日本,品川,139.738999,35.62876,JR東日本
14,2015.08.19,2037M,ＪＲ,横須賀線総武線成田線,特急,成田エクスプレス,37.0,大船,成田空港（第１旅客ターミナル）,JR東日本,品川,JR東日本,成田空港（第１旅客ターミナル）,86.0,15:20:00,,16:31:00,,01:11:00,指定席,JR東日本,E259,,モハE259-504,JR東日本,72.67605633802826,品川,139.738999,35.62876,JR東日本,成田空港（第１旅客ターミナル）,140.384644,35.763983,JR東日本
15,2016.03.13,2022M,ＪＲ,成田線総武線横須賀線,特急,成田エクスプレス,22.0,成田空港（第１旅客ターミナル）,大船,JR東日本,成田空港（第１旅客ターミナル）,JR東日本,品川,86.0,12:45:00,,13:53:00,,01:08:00,指定席,JR東日本,E259,,モハE258-507,JR東日本,75.88235294117656,成田空港（第１旅客ターミナル）,140.384644,35.763983,JR東日本,品川,139.738999,35.62876,JR東日本
16,2016.03.13,1428G,ＪＲ,山手線,普通,,,大崎,内回り,JR東日本,品川,JR東日本,秋葉原,8.8,14:49:00,,15:04:00,,00:15:00,自由席,JR東日本,E231,500.0,,JR東日本,35.200000000000124,品川,139.738999,35.62876,JR東日本,秋葉原,139.773288,35.698619,JR東日本
17,2016.03.13,1522G,ＪＲ,山手線,普通,,,大崎,内回り,JR東日本,秋葉原,JR東日本,上野,1.6,15:34:00,,15:38:00,,00:04:00,自由席,JR東日本,E231,500.0,,JR東日本,24.000000000000085,秋葉原,139.773288,35.698619,JR東日本,上野,139.777043,35.71379,JR東日本
18,2016.03.13,1525B,ＪＲ,京浜東北線,普通,,,大宮,桜木町,JR東日本,上野,JR東日本,秋葉原,1.6,16:16:00,,16:20:00,,00:04:00,自由席,JR東日本,E233,1000.0,,JR東日本,24.000000000000085,上野,139.777043,35.71379,JR東日本,秋葉原,139.773288,35.698619,JR東日本
19,2016.03.13,1971G,ＪＲ,山手線,普通,,,大崎,外回り,JR東日本,秋葉原,JR東日本,品川,8.8,20:31:00,,20:47:00,,00:16:00,自由席,JR東日本,E231,500.0,,JR東日本,32.999999999999794,秋葉原,139.773288,35.698619,JR東日本,品川,139.738999,35.62876,JR東日本
20,2016.03.14,1114G,ＪＲ,山手線,普通,,,大崎,内回り,JR東日本,品川,JR東日本,有楽町,6.0,11:32:00,,11:41:00,,00:09:00,自由席,JR東日本,E231,500.0,,JR東日本,40.00000000000014,品川,139.738999,35.62876,JR東日本,有楽町,139.763806,35.675441,JR東日本
21,2016.03.14,B1138S,地下鉄,東京メトロ日比谷線,普通,,,中目黒,北千住,東京メトロ,日比谷,東京メトロ,築地,1.4,11:57:00,,12:02:00,,00:05:00,自由席,東京地下鉄,,,,東京地下鉄,16.79999999999979,日比谷,139.76017,35.67459,東京メトロ,築地,139.772603,35.668115,東京メトロ
22,2016.03.14,A1333T,地下鉄,東京メトロ日比谷線,普通,,,北千住,中目黒,東京メトロ,築地,東京メトロ,銀座,1.0,14:02:00,,14:05:00,,00:03:00,自由席,東京地下鉄,,,,東京地下鉄,20.00000000000007,築地,139.772603,35.668115,東京メトロ,銀座,139.763965,35.671989,東京メトロ
23,2016.03.14,A1453,地下鉄,東京メトロ銀座線,普通,,,浅草,渋谷,東京メトロ,銀座,東京メトロ,新橋,0.9,14:41:00,,14:43:00,,00:02:00,自由席,東京地下鉄,,,,東京地下鉄,27.000000000000096,銀座,139.763965,35.671989,東京メトロ,新橋,139.758432,35.667434,東京メトロ
24,2016.03.14,1190M,ＪＲ,東海道線,普通,,,土浦,品川,JR東日本,新橋,JR東日本,品川,4.9,14:53:00,,14:59:00,,00:06:00,自由席,JR東日本,E531,,クハE531-1,JR東日本,49.00000000000018,新橋,139.758587,35.666195,JR東日本,品川,139.738999,35.62876,JR東日本
25,2016.03.14,479A,ＪＲ,東海道新幹線,新幹線,ひかり,479.0,東京,岡山,JR東日本,品川,JR西日本,京都,506.8,16:10:00,,18:47:00,,02:37:00,指定席,JR西日本,700,3000.0,727-3403,JR東海,193.68152866242028,品川,139.738999,35.62876,JR東日本,京都,135.757748,34.985465,JR西日本
26,2016.03.15,190,地下鉄,京都市営地下鉄東西線,普通,,,太秦天神川,六地蔵,京都市交通局,二条城前,京都市交通局,京都市役所前,1.7,13:28:00,,13:32:00,,00:04:00,自由席,京都市交通局,,,,京都市交通局,25.50000000000009,二条城前,135.750473,35.011892,京都市交通局,京都市役所前,135.768829,35.011003,京都市交通局
27,2016.03.15,475A,ＪＲ,東海道新幹線山陽新幹線,新幹線,ひかり,475.0,東京,岡山,JR西日本,京都,JR西日本,姫路,130.7,16:49:00,,17:42:00,,00:53:00,指定席,JR東海,N700A,2000.0,785-2656,JR東海JR西日本,147.96226415094347,京都,135.757748,34.985465,JR西日本,姫路,134.690769,34.827659,JR西日本
28,2016.03.15,569A,ＪＲ,山陽新幹線,新幹線,さくら,569.0,新大阪,鹿児島中央,JR西日本,姫路,JR西日本,広島,249.9,17:50:00,,18:52:00,,01:02:00,指定席,JR西日本,N700,7000.0,787-7013,JR西日本,241.83870967741896,姫路,134.690769,34.827659,JR西日本,広島,132.475593,34.397446,JR西日本
29,2016.03.15,173,路面電車,広島電鉄１号線,普通,,,広島駅,広島港・宇品,広電,広島駅,広電,袋町,2.6,19:12:00,,19:27:00,,00:15:00,自由席,広島電鉄,,,,広島電鉄,10.399999999999926,広島駅,132.475403,34.396296,広電,袋町,132.456214,34.391187,広電
30,2016.03.16,102,路面電車,広島電鉄１号線,普通,,,広島港・宇品,広島駅,広電,袋町,広電,広島駅,2.6,13:08:00,,13:28:00,,00:20:00,自由席,広島電鉄,,,5108B,広島電鉄,7.799999999999965,袋町,132.456214,34.391187,広電,広島駅,132.475403,34.396296,広電
31,2016.03.16,741A,ＪＲ,山陽新幹線,新幹線,こだま,741.0,新大阪,博多,JR西日本,広島,JR西日本,博多,280.7,14:02:00,,16:07:00,,02:05:00,指定席,JR西日本,500,,528-7002,JR西日本,134.73599999999996,広島,132.475593,34.397446,JR西日本,博多,130.420622,33.590002,JR西日本
32,2016.03.16,5417A,ＪＲ,九州新幹線,新幹線,さくら,417.0,博多,鹿児島中央,JR西日本,博多,JR九州,熊本,118.4,17:08:00,,17:48:00,,00:40:00,指定席,JR西日本,800,,826-106,JR西日本,177.59999999999994,博多,130.420622,33.590002,JR西日本,熊本,130.688499,32.789207,JR九州
33,2016.03.16,357,路面電車,熊本市電Ａ系統,普通,,,田崎橋,健軍町,熊本市交通局,熊本駅前,熊本市交通局,熊本城・市役所前,2.8,18:00:00,,18:16:00,,00:16:00,自由席,熊本市交通局,,,0803,熊本市交通局,10.500000000000037,熊本駅前,130.690398,32.790377,熊本市交通局,熊本城・市役所前,130.707028,32.802967,熊本市交通局
34,2016.03.16,404,路面電車,熊本市電Ａ系統,普通,,,健軍町,田崎橋,熊本市交通局,熊本城・市役所前,熊本市交通局,熊本駅前,2.8,20:26:00,,20:43:00,,00:17:00,自由席,熊本市交通局,,,,熊本市交通局,9.882352941176505,熊本城・市役所前,130.707028,32.802967,熊本市交通局,熊本駅前,130.690398,32.790377,熊本市交通局
35,2016.03.16,458A,ＪＲ,九州新幹線,新幹線,さくら,458.0,鹿児島中央,広島,JR九州,熊本,JR西日本,博多,118.4,21:05:00,,21:43:00,,00:38:00,指定席,JR西日本,N700,7000.0,,JR西日本,186.9473684210533,熊本,130.688499,32.789207,JR九州,博多,130.420622,33.590002,JR西日本
36,2016.03.17,2023M,ＪＲ,鹿児島本線長崎本線,特急,かもめ,23.0,博多,長崎,JR九州,博多,JR九州,長崎,153.9,12:55:00,,14:50:00,,01:55:00,自由席,JR九州,885,,モハ885-403,JR九州,80.295652173913,博多,130.420622,33.590002,JR九州,長崎,129.870515,32.753085,JR九州
37,2016.03.17,3143,路面電車,長崎電気２系統,普通,,,赤迫,蛍茶屋,長崎電気軌道,長崎駅前,長崎電気軌道,市民会館,0.9,15:12:00,,15:18:00,,00:06:00,自由席,長崎電気軌道,,,301,長崎電気軌道,8.999999999999792,長崎駅前,129.871874,32.75238,長崎電気軌道,市民会館,129.88065,32.74942,長崎電気軌道
38,2016.03.17,5146,路面電車,長崎電気５系統,普通,,,蛍茶屋,石橋,長崎電気軌道,メディカルセンター,長崎電気軌道,大浦天主堂,0.4,16:20:00,,16:23:00,,00:03:00,自由席,長崎電気軌道,,,,長崎電気軌道,7.999999999999602,メディカルセンター,129.87241,32.740523,長崎電気軌道,大浦天主堂,129.87078,32.736408,長崎電気軌道
39,2016.03.17,5169,路面電車,長崎電気５系統,普通,,,石橋,蛍茶屋,長崎電気軌道,大浦天主堂,長崎電気軌道,新地中華街,0.8,18:03:00,,18:08:00,,00:05:00,自由席,長崎電気軌道,,,1503,長崎電気軌道,9.600000000000035,大浦天主堂,129.87078,32.736408,長崎電気軌道,新地中華街,129.874942,32.742869,長崎電気軌道
40,2016.03.17,2208,路面電車,長崎電気２系統,普通,,,蛍茶屋,赤迫,長崎電気軌道,新地中華街,長崎電気軌道,長崎駅前,1.3,18:15:00,,18:23:00,,00:08:00,自由席,長崎電気軌道,,,,長崎電気軌道,9.750000000000036,新地中華街,129.874942,32.742869,長崎電気軌道,長崎駅前,129.871874,32.75238,長崎電気軌道
41,2016.03.17,2048M,ＪＲ,長崎本線鹿児島本線,特急,かもめ,48.0,長崎,博多,JR九州,長崎,JR九州,博多,153.9,20:22:00,,22:22:00,,02:00:00,指定席,JR九州,787,,サハ787-211,JR九州,76.94999999999997,長崎,129.870515,32.753085,JR九州,博多,130.420622,33.590002,JR九州
42,2016.03.18,5403A,ＪＲ,九州新幹線,新幹線,さくら,403.0,博多,鹿児島中央,JR西日本,博多,JR九州,鹿児島中央,288.9,07:21:00,,09:00:00,,01:39:00,指定席,JR九州,N700,8000.0,,JR九州,175.090909090909,博多,130.420622,33.590002,JR西日本,鹿児島中央,130.541789,31.583727,JR九州
43,2016.03.18,6022D,ＪＲ,鹿児島本線日豊本線肥薩線,特急,はやとの風,2.0,鹿児島中央,吉松,JR九州,鹿児島中央,JR九州,吉松,68.5,09:25:00,,11:08:00,,01:43:00,指定席,JR九州,キハ147,,キハ147-1045,JR九州,39.90291262135924,鹿児島中央,130.541789,31.583727,JR九州,吉松,130.738104,32.012026,JR九州
44,2016.03.18,1254D,ＪＲ,肥薩線,普通,しんぺい,2.0,吉松,人吉,JR九州,吉松,JR九州,人吉,35.0,11:49:00,,13:05:00,,01:16:00,指定席,JR九州,キハ47,,キハ47-8159,JR九州,27.63157894736837,吉松,130.738104,32.012026,JR九州,人吉,130.753797,32.216142,JR九州
45,2016.03.18,1076D,ＪＲ,肥薩線鹿児島本線,特急,九州横断特急,6.0,人吉,別府,JR九州,人吉,JR九州,熊本,87.5,13:33:00,,15:00:00,,01:27:00,指定席,JR九州,キハ185,,キハ185-2,JR九州,60.34482758620689,人吉,130.753797,32.216142,JR九州,熊本,130.688499,32.789207,JR九州
46,2016.03.18,269,路面電車,熊本市電Ａ系統,普通,,,田崎橋,健軍町,熊本市交通局,熊本駅前,熊本市交通局,水道町,3.3,15:10:00,,15:30:00,,00:20:00,自由席,熊本市交通局,,,,熊本市交通局,9.899999999999956,熊本駅前,130.690398,32.790377,熊本市交通局,水道町,130.712564,32.80239,熊本市交通局
47,2016.03.18,268,路面電車,熊本市電Ｂ系統,普通,,,健軍町,上熊本駅前,熊本市交通局,水道町,熊本市交通局,熊本城・市役所前,0.5,15:54:00,,15:59:00,,00:05:00,自由席,熊本市交通局,,,,熊本市交通局,6.000000000000021,水道町,130.712564,32.80239,熊本市交通局,熊本城・市役所前,130.707028,32.802967,熊本市交通局
48,2016.03.18,346,路面電車,熊本市電Ａ系統,普通,,,健軍町,田崎橋,熊本市交通局,熊本城・市役所前,熊本市交通局,熊本駅前,2.8,18:36:00,,18:54:00,,00:18:00,自由席,熊本市交通局,,,,熊本市交通局,9.333333333333366,熊本城・市役所前,130.707028,32.802967,熊本市交通局,熊本駅前,130.690398,32.790377,熊本市交通局
49,2016.03.18,5342A,ＪＲ,九州新幹線,新幹線,つばめ,342.0,熊本,博多,JR九州,熊本,JR西日本,博多,118.4,19:06:00,,19:55:00,,00:49:00,自由席,JR九州,800,,,JR九州,144.97959183673473,熊本,130.688499,32.789207,JR九州,博多,130.420622,33.590002,JR西日本
50,2016.03.19,738A,ＪＲ,山陽新幹線,新幹線,こだま,738.0,博多,岡山,JR西日本,博多,JR九州,小倉,67.2,09:58:00,,10:15:00,,00:17:00,自由席,JR西日本,700,7000.0,725-7716,JR西日本,237.17647058823616,博多,130.420622,33.590002,JR西日本,小倉,130.882678,33.886756,JR九州
51,2016.03.19,547A,ＪＲ,山陽新幹線,新幹線,さくら,547.0,新大阪,鹿児島中央,JR九州,小倉,JR西日本,博多,67.2,10:23:00,,10:40:00,,00:17:00,自由席,JR西日本,N700,7000.0,788-7015,JR西日本,237.17647058823502,小倉,130.882678,33.886756,JR九州,博多,130.420622,33.590002,JR西日本
52,2016.03.19,186,地下鉄,福岡市営地下鉄空港線,普通,,,筑前前原,福岡空港,福岡市交通局,博多,福岡市交通局,福岡空港,3.3,12:13:00,,12:18:00,,00:05:00,自由席,福岡市交通局,,,,福岡市交通局,39.59999999999887,博多,130.42085,33.590204,福岡市交通局,福岡空港,130.448501,33.59718,福岡市交通局
53,2016.06.13,9AE02,私鉄,京成スカイアクセス線,空港快速,スカイライナー,6.0,成田空港（第１旅客ターミナル）,京成上野,京成,空港第２ビル（第２旅客ターミナル）,京成,日暮里,61.0,09:27:00,,10:00:00,,00:33:00,指定席,京成電鉄,,,,京成電鉄,110.90909090909076,空港第２ビル（第２旅客ターミナル）,140.387163,35.773693,京成,日暮里,139.771287,35.727908,京成
54,2016.06.13,900G,ＪＲ,山手線,普通,,,大崎,内回り,JR東日本,日暮里,JR東日本,池袋,6.5,10:15:00,,10:27:00,,00:12:00,自由席,JR東日本,E231,500.0,,JR東日本,32.500000000000114,日暮里,139.771287,35.727908,JR東日本,池袋,139.711086,35.730256,JR東日本
55,2016.06.13,1109G,ＪＲ,山手線,普通,,,大崎,外回り,JR東日本,池袋,JR東日本,日暮里,6.5,12:10:00,,12:22:00,,00:12:00,自由席,JR東日本,E231,500.0,,JR東日本,32.49999999999968,池袋,139.711086,35.730256,JR東日本,日暮里,139.771287,35.727908,JR東日本
56,2016.06.13,1127G,ＪＲ,山手線,普通,,,大崎,外回り,JR東日本,日暮里,JR東日本,浜松町,8.9,12:29:00,,12:46:00,,00:17:00,自由席,JR東日本,E231,500.0,,JR東日本,31.411764705882174,日暮里,139.771287,35.727908,JR東日本,浜松町,139.757135,35.65539099999999,JR東日本
57,2016.06.13,G1205,モノレール,東京モノレール羽田空港線,空港快速,,,浜松町,羽田空港第２ビル,東京モノレール,浜松町,東京モノレール,羽田空港国際線ビル,14.0,12:52:00,,13:11:00,,00:19:00,自由席,東京モノレール,,,,東京モノレール,44.21052631578926,浜松町,139.756747,35.655666,東京モノレール,羽田空港国際線ビル,139.768206,35.544169,東京モノレール
58,2016.06.13,1327,モノレール,東京モノレール羽田空港線,普通,,,浜松町,羽田空港第２ビル,東京モノレール,羽田空港国際線ビル,東京モノレール,新整備場,2.2,13:32:00,,13:34:00,,00:02:00,自由席,東京モノレール,,,,東京モノレール,66.00000000000024,羽田空港国際線ビル,139.768206,35.544169,東京モノレール,新整備場,139.786777,35.542773,東京モノレール
59,2016.06.13,1608,モノレール,東京モノレール羽田空港線,普通,,,羽田空港第２ビル,浜松町,東京モノレール,新整備場,東京モノレール,羽田空港国際線ビル,2.2,16:14:00,,16:17:00,,00:03:00,自由席,東京モノレール,,,,東京モノレール,44.00000000000016,新整備場,139.786777,35.542773,東京モノレール,羽田空港国際線ビル,139.768206,35.544169,東京モノレール
60,2016.07.27,2202M,ＪＲ,成田線総武線,特急,成田エクスプレス,2.0,成田空港（第１旅客ターミナル）,新宿,JR東日本,成田空港（第１旅客ターミナル）,JR東日本,東京,79.2,07:44:00,,09:03:00,,01:19:00,指定席,JR東日本,E259,,モハE259-13,JR東日本,60.15189873417719,成田空港（第１旅客ターミナル）,140.384644,35.763983,JR東日本,東京,139.766103,35.681391,JR東日本
61,2016.07.27,131B,ＪＲ,東北新幹線,新幹線,やまびこ,131.0,東京,仙台,JR東日本,東京,JR東日本,仙台,351.8,09:24:00,,11:14:00,,01:50:00,指定席,JR東日本,E2,1000.0,E224-1107,JR東日本,191.89090909090922,東京,139.766103,35.681391,JR東日本,仙台,140.882158,38.260027,JR東日本
62,2016.07.27,1231S,ＪＲ,仙石線,普通,,,あおば通,高城町,JR東日本,仙台,JR東日本,松島海岸,22.7,12:52:00,,13:31:00,,00:39:00,自由席,JR東日本,205,3100.0,モハ205-3112,JR東日本,34.9230769230769,仙台,140.882158,38.260027,JR東日本,松島海岸,141.058523,38.368529,JR東日本
63,2016.07.27,1732S,ＪＲ,仙石線,普通,,,高城町,あおば通,JR東日本,松島海岸,JR東日本,あおば通,23.2,17:44:00,,18:24:00,,00:40:00,自由席,JR東日本,205,3100.0,クハ204-3106,JR東日本,34.80000000000012,松島海岸,141.058523,38.368529,JR東日本,あおば通,140.878514,38.260749,JR東日本
64,2016.07.28,3021M,ＪＲ,東北新幹線秋田新幹線,新幹線,こまち,21.0,東京,秋田,JR東日本,仙台,JR東日本,秋田,310.8,14:54:00,,17:08:00,,02:14:00,指定席,JR東日本,E6,,E627-21,JR東日本,139.1641791044776,仙台,140.882158,38.260027,JR東日本,秋田,140.129931,39.716748,JR東日本
65,2016.07.29,8621D8521D,ＪＲ,奥羽本線五能線,快速,リゾートしらかみ,1.0,秋田,青森,JR東日本,秋田,JR東日本,弘前,210.2,08:20:00,,12:51:00,,04:31:00,指定席,JR東日本,HB-E300,,HB-E300-105,JR東日本,46.53874538745389,秋田,140.129931,39.716748,JR東日本,弘前,140.485016,40.599723,JR東日本
66,2016.07.29,2043M,ＪＲ,奥羽本線,特急,つがる,3.0,秋田,青森,JR東日本,弘前,JR東日本,新青森,33.5,14:52:00,,15:22:00,,00:30:00,指定席,JR東日本,E751,,モハE751-101,JR東日本,66.99999999999987,弘前,140.485016,40.599723,JR東日本,新青森,140.693472,40.8275,JR東日本
67,2016.07.29,3019B,ＪＲ,北海道新幹線,新幹線,はやぶさ,19.0,東京,新函館北斗,JR東日本,新青森,JR北海道,新函館北斗,148.8,15:31:00,,16:34:00,,01:03:00,指定席,JR東日本JR北海道,E5,,E526-104,JR東日本JR北海道,141.71428571428586,新青森,140.693472,40.8275,JR東日本,新函館北斗,140.646525,41.9054,JR北海道
68,2016.07.29,5884D,ＪＲ,函館本線,普通,,,森,函館,JR北海道,新函館北斗,JR北海道,函館,17.9,17:15:00,,17:41:00,,00:26:00,自由席,JR北海道,キハ40,,キハ40 836,JR北海道,41.3076923076922,新函館北斗,140.646525,41.9054,JR北海道,函館,140.726413,41.773709,JR北海道
69,2016.07.29,126,路面電車,函館市電２系統,普通,,,湯の川,谷地頭,函館市電,函館駅前,函館市電,十字街,1.3,19:00:00,,19:08:00,,00:08:00,自由席,函館市企業局交通部,,,,函館市企業局交通部,9.750000000000036,函館駅前,140.727997,41.77264,函館市電,十字街,140.718513,41.763998,函館市電
70,2016.07.29,151,路面電車,函館市電５系統,普通,,,函館どつく前,湯の川,函館市電,十字街,函館市電,函館駅前,1.3,21:55:00,,22:00:00,,00:05:00,自由席,函館市企業局交通部,,,,函館市企業局交通部,15.600000000000556,十字街,140.718513,41.763998,函館市電,函館駅前,140.727997,41.77264,函館市電
71,2016.07.30,1339M,ＪＲ,函館本線,普通,はこだてライナー,,函館,新函館北斗,JR北海道,函館,JR北海道,新函館北斗,17.9,11:53:00,,12:15:00,,00:22:00,自由席,JR北海道,733,2000.0,クハ733-2003,JR北海道,48.81818181818181,函館,140.726413,41.773709,JR北海道,新函館北斗,140.646525,41.9054,JR北海道
72,2016.07.30,3022B,ＪＲ,北海道新幹線東北新幹線,新幹線,はやぶさ,22.0,新函館北斗,東京,JR北海道,新函館北斗,JR東日本,仙台,510.7,12:44:00,,15:29:00,,02:45:00,指定席,JR北海道,H5,,H526-403,JR北海道,185.70909090909103,新函館北斗,140.646525,41.9054,JR北海道,仙台,140.882158,38.260027,JR東日本
73,2016.07.30,53B,ＪＲ,東北新幹線,新幹線,やまびこ,53.0,東京,盛岡,JR東日本,仙台,JR東日本,古川,43.2,15:39:00,,15:51:00,,00:12:00,指定席,JR東日本,E2,1000.0,E226-1412,JR東日本,216.0000000000008,仙台,140.882158,38.260027,JR東日本,古川,140.967876,38.571192,JR東日本
74,2016.07.30,1737D,ＪＲ,陸羽東線,普通,,,小牛田,鳴子温泉,JR東日本,古川,JR東日本,鳴子温泉,35.5,16:04:00,,16:55:00,,00:51:00,自由席,JR東日本,キハ110,,キハ110-239,JR東日本,41.76470588235283,古川,140.967876,38.571192,JR東日本,鳴子温泉,140.715939,38.743193,JR東日本
75,2016.07.31,4727D,ＪＲ,陸羽東線,普通,,,小牛田,新庄,JR東日本,鳴子温泉,JR東日本,新庄,49.2,10:06:00,,11:10:00,,01:04:00,自由席,JR東日本,キハ110,,キハ110-239,JR東日本,46.12500000000005,鳴子温泉,140.715939,38.743193,JR東日本,新庄,140.306064,38.76256,JR東日本
76,2016.07.31,140M,ＪＲ,山形新幹線東北新幹線,新幹線,つばさ,140.0,新庄,東京,JR東日本,新庄,JR東日本,東京,421.4,11:17:00,,14:48:00,,03:31:00,自由席,JR東日本,E3,,E325-2009,JR東日本,119.82938388625588,新庄,140.306064,38.76256,JR東日本,東京,139.766103,35.681391,JR東日本
77,2016.07.31,3192M,ＪＲ,東海道線,特別快速,,,土浦,品川,JR東日本,東京,JR東日本,新橋,1.9,15:05:00,,15:07:00,,00:02:00,自由席,JR東日本,E531,,サハE531-16,JR東日本,57.0000000000002,東京,139.766103,35.681391,JR東日本,新橋,139.758587,35.666195,JR東日本
78,2016.07.31,1933B,ＪＲ,京浜東北線,普通,,,大宮,大船,JR東日本,有楽町,JR東日本,新橋,1.1,20:40:00,,20:42:00,,00:02:00,自由席,JR東日本,E233,1000.0,モハE233-1032,JR東日本,33.00000000000276,有楽町,139.763806,35.675441,JR東日本,新橋,139.758587,35.666195,JR東日本
79,2016.08.01,975G,ＪＲ,山手線,普通,,,外回り,大崎,JR東日本,新橋,JR東日本,浜松町,1.2,10:41:00,,10:43:00,,00:02:00,自由席,JR東日本,E231,500.0,モハE231-613,JR東日本,36.00000000000013,新橋,139.758587,35.666195,JR東日本,浜松町,139.757135,35.65539099999999,JR東日本
80,2016.08.01,1015H,モノレール,東京モノレール羽田空港線,区間快速,,,浜松町,羽田空港第２ビル,東京モノレール,浜松町,東京モノレール,羽田空港第２ビル,17.8,10:52:00,,11:13:00,,00:21:00,自由席,東京モノレール,,,,東京モノレール,50.85714285714284,浜松町,139.756747,35.655666,東京モノレール,羽田空港第２ビル,139.787979,35.55073400000001,東京モノレール
81,2016.08.15,2042M,ＪＲ,成田線総武線横須賀線,特急,成田エクスプレス,42.0,成田空港（第１旅客ターミナル）,大船,JR東日本,成田空港（第１旅客ターミナル）,JR東日本,品川,86.0,17:44:00,,18:56:00,,01:12:00,指定席,JR東日本,E259,,モハE258-502,JR東日本,71.66666666666676,成田空港（第１旅客ターミナル）,140.384644,35.763983,JR東日本,品川,139.738999,35.62876,JR東日本
82,2016.08.16,1050G,ＪＲ,山手線,普通,,,大崎,内回り,JR東日本,品川,JR東日本,神田,8.1,10:31:00,,10:45:00,,00:14:00,自由席,JR東日本,E231,500.0,サハE231-544,JR東日本,34.714285714285836,品川,139.738999,35.62876,JR東日本,神田,139.770641,35.691173,JR東日本
83,2016.08.16,1025T,ＪＲ,中央線快速,中央特快,,,東京,高尾,JR東日本,神田,JR東日本,新宿,9.0,10:52:00,,11:07:00,,00:15:00,自由席,JR東日本,E233,0.0,モハE232-240,JR東日本,35.999999999999936,神田,139.770641,35.691173,JR東日本,新宿,139.700464,35.689729,JR東日本
84,2016.08.16,1251B,ＪＲ,中央・総武線,普通,,,津田沼,中野,JR東日本,千駄ケ谷,JR東日本,新宿,1.7,12:56:00,,13:00:00,,00:04:00,自由席,JR東日本,E231,0.0,モハE230-17,JR東日本,25.50000000000009,千駄ケ谷,139.711644,35.681231,JR東日本,新宿,139.700464,35.689729,JR東日本
85,2016.08.16,1506G1606G,ＪＲ,山手線,普通,,,大崎,内回り,JR東日本,新宿,JR東日本,品川,10.6,14:46:00,,15:06:00,,00:20:00,自由席,JR東日本,E231,500.0,モハE230-518,JR東日本,31.80000000000011,新宿,139.700464,35.689729,JR東日本,品川,139.738999,35.62876,JR東日本
86,2016.08.17,1847E,ＪＲ,東海道線,普通,,,高崎,平塚,JR東日本,品川,JR東日本,大船,39.7,09:34:00,,10:06:00,,00:32:00,自由席,JR東日本,E231,3000.0,モハE231-3506,JR東日本,74.4374999999999,品川,139.738999,35.62876,JR東日本,大船,139.531127,35.353466,JR東日本
87,2016.08.17,73,モノレール,湘南モノレール江ノ島線,普通,,,大船,湘南江ノ島,湘南モノレール,大船,湘南モノレール,湘南江の島,6.6,10:22:00,,10:36:00,,00:14:00,自由席,湘南モノレール,,,5609,湘南モノレール,28.285714285714388,大船,139.531367,35.352359,湘南モノレール,湘南江の島,139.487794,35.311867,湘南モノレール
88,2016.08.17,111,私鉄,江ノ島電鉄線,普通,,,藤沢,鎌倉,江ノ電,湘南海岸公園,江ノ電,鎌倉高校前,2.0,16:20:00,,16:27:00,,00:07:00,自由席,江ノ島電鉄線,,,1051,江ノ島電鉄線,17.142857142856812,湘南海岸公園,139.4833,35.315203,江ノ電,鎌倉高校前,139.500535,35.306698,江ノ電
89,2016.08.17,113,私鉄,江ノ島電鉄線,普通,,,藤沢,鎌倉,江ノ電,鎌倉高校前,江ノ電,七里ヶ浜,0.9,16:39:00,,16:43:00,,00:04:00,自由席,江ノ島電鉄線,,,1251,江ノ島電鉄線,13.500000000000048,鎌倉高校前,139.500535,35.306698,江ノ電,七里ヶ浜,139.510101,35.306243,江ノ電
90,2016.08.17,117,私鉄,江ノ島電鉄線,普通,,,藤沢,鎌倉,江ノ電,七里ヶ浜,江ノ電,鎌倉,4.4,17:07:00,,17:22:00,,00:15:00,自由席,江ノ島電鉄線,,,2052,江ノ島電鉄線,17.600000000000062,七里ヶ浜,139.510101,35.306243,江ノ電,鎌倉,139.550121,35.31849099999999,江ノ電
91,2016.08.17,1858S,ＪＲ,横須賀線,普通,,,横須賀,千葉,JR東日本,鎌倉,JR東日本,品川,47.1,18:33:00,,19:40:00,,01:07:00,グリーン車,JR東日本,E217,,サロE217-43,JR東日本,42.179104477611894,鎌倉,139.550428,35.318793,JR東日本,品川,139.738999,35.62876,JR東日本
92,2016.08.18,8021M,ＪＲ,東海道線,特急,踊り子,101.0,東京,伊豆急下田,JR東日本,品川,JR東日本,熱海,97.8,07:41:00,,08:56:00,,01:15:00,指定席,JR東日本,185,200.0,モハ185-216,JR東日本,78.24000000000002,品川,139.738999,35.62876,JR東日本,熱海,139.077679,35.103573,JR東日本
93,2016.08.18,431M,ＪＲ,東海道線,普通,,,熱海,島田,JR東日本,熱海,JR東海,三島,16.1,09:06:00,,09:19:00,,00:13:00,自由席,JR東海,313,2500.0,クモハ313-2512,JR東海,74.30769230769212,熱海,139.077679,35.103573,JR東日本,三島,138.911133,35.12625300000001,JR東海
94,2016.08.18,35,私鉄,伊豆箱根鉄道駿豆線,普通,,,三島,修善寺,いずはこ,三島,いずはこ,伊豆長岡,11.4,09:27:00,,09:49:00,,00:22:00,自由席,伊豆箱根鉄道,3000,,3010,伊豆箱根鉄道,31.09090909090909,三島,138.911369,35.125946,いずはこ,伊豆長岡,138.947539,35.039907,いずはこ
95,2016.08.18,436M,ＪＲ,東海道線,普通,,,島田,熱海,JR東海,沼津,JR東日本,熱海,21.6,14:50:00,,15:08:00,,00:18:00,自由席,JR東海,313,,クハ312-2313,JR東海,72.00000000000027,沼津,138.860104,35.103011,JR東海,熱海,139.077679,35.103573,JR東日本
96,2016.08.18,3532E,ＪＲ,東海道線,快速,快速アクティー,,熱海,宇都宮,JR東日本,熱海,JR東日本,小田原,20.7,15:12:00,,15:33:00,,00:21:00,自由席,JR東日本,E231,,サハE231-6044,JR東日本,59.142857142856904,熱海,139.077679,35.103573,JR東日本,小田原,139.155772,35.256225,JR東日本
97,2016.08.18,3535E,ＪＲ,東海道線,快速,快速アクティー,,小金井,熱海,JR東日本,小田原,JR東日本,熱海,20.7,16:50:00,,17:13:00,,00:23:00,自由席,JR東日本,E233,3000.0,クハE233-3209,JR東日本,54.00000000000019,小田原,139.155772,35.256225,JR東日本,熱海,139.077679,35.103573,JR東日本
98,2016.08.18,3060M,ＪＲ,東海道線,特急,スーパービュー踊り子,10.0,伊豆急下田,池袋,JR東日本,熱海,JR東日本,横浜,75.8,17:26:00,,18:23:00,,00:57:00,指定席,JR東日本,251,,モハ251-4,JR東日本,79.78947368421059,熱海,139.077679,35.103573,JR東日本,横浜,139.622704,35.466195,JR東日本
99,2016.08.18,1642E,ＪＲ,東海道線,普通,,,沼津,宇都宮,JR東日本,横浜,JR東日本,品川,22.0,20:00:00,,20:18:00,,00:18:00,自由席,JR東日本,E233,3000.0,クハE233-3010,JR東日本,73.3333333333336,横浜,139.622704,35.466195,JR東日本,品川,139.738999,35.62876,JR東日本
100,2016.08.19,1544E,ＪＲ,東海道線,普通,,,平塚,上野,JR東日本,品川,JR東日本,東京,6.8,08:23:00,,08:34:00,,00:11:00,自由席,JR東日本,E231,1000.0,モハE230-1091,JR東日本,37.09090909090895,品川,139.738999,35.62876,JR東日本,東京,139.766103,35.681391,JR東日本
101,2016.08.19,555E,ＪＲ,北陸新幹線,新幹線,はくたか,555.0,東京,金沢,JR東日本,東京,JR東日本,高崎,105.0,08:44:00,,09:33:00,,00:49:00,指定席,JR東日本,W7,,W725-202,JR東日本,128.5714285714284,東京,139.766103,35.681391,JR東日本,高崎,139.012354,36.322239,JR東日本
102,2016.08.19,8731,ＪＲ,上越線,SL快速,SLみなかみ,,高崎,水上,JR東日本,高崎,JR東日本,新前橋,7.3,09:56:00,,10:09:00,,00:13:00,指定席,JR東日本,12,,D51 498オハ12-367,JR東日本,33.692307692307814,高崎,139.012354,36.322239,JR東日本,新前橋,139.046924,36.378936,JR東日本
103,2016.08.19,734M,ＪＲ,上越線,普通,,,水上,高崎,JR東日本,新前橋,JR東日本,高崎,7.3,10:34:00,,10:44:00,,00:10:00,自由席,JR東日本,115,1000.0,クモハ115-1030,JR東日本,43.80000000000015,新前橋,139.046924,36.378936,JR東日本,高崎,139.012354,36.322239,JR東日本
104,2016.08.19,2408C,ＪＲ,上越新幹線,新幹線,MAXたにがわ,408.0,越後湯沢,東京,JR東日本,高崎,JR東日本,大宮,74.7,11:02:00,,11:34:00,,00:32:00,指定席,JR東日本,E4,,E455-11,JR東日本,140.0624999999998,高崎,139.012354,36.322239,JR東日本,大宮,139.62405,35.906439,JR東日本
105,2016.08.19,1207B,新交通,埼玉新都市交通伊奈線,普通,,,大宮,内宿,埼玉新都市交通,大宮,埼玉新都市交通,鉄道博物館,1.5,11:50:00,,11:52:00,,00:02:00,自由席,埼玉新都市交通,2400,,2405,埼玉新都市交通,45.00000000000016,大宮,139.62254,35.90750999999999,埼玉新都市交通,鉄道博物館,139.617796,35.920271,埼玉新都市交通
106,2016.08.19,1432A,新交通,埼玉新都市交通伊奈線,普通,,,内宿,大宮,埼玉新都市交通,鉄道博物館,埼玉新都市交通,大宮,1.5,14:44:00,,14:47:00,,00:03:00,自由席,埼玉新都市交通,2400,,2403,埼玉新都市交通,29.999999999998508,鉄道博物館,139.617796,35.920271,埼玉新都市交通,大宮,139.62254,35.90750999999999,埼玉新都市交通
107,2016.08.19,1569E,ＪＲ,東北本線,普通,,,小金井,沼津,JR東日本,大宮,JR東日本,東京,30.3,14:53:00,,15:26:00,,00:33:00,自由席,JR東日本,E231,,クハE231-3505,JR東日本,55.090909090909015,大宮,139.62405,35.906439,JR東日本,東京,139.766103,35.681391,JR東日本
108,2016.08.19,1522G,ＪＲ,山手線,普通,,,大崎,内回り,JR東日本,東京,JR東日本,秋葉原,2.0,15:30:00,,15:34:00,,00:04:00,自由席,JR東日本,E231,500.0,クハE231-539,JR東日本,30.000000000000103,東京,139.766103,35.681391,JR東日本,秋葉原,139.773288,35.698619,JR東日本
109,2016.08.19,2011C,ＪＲ,京浜東北線,普通,,,大宮,桜木町,JR東日本,秋葉原,JR東日本,品川,8.8,20:57:00,,21:12:00,,00:15:00,自由席,JR東日本,E233,1000.0,モハE232-1425,JR東日本,35.200000000000124,秋葉原,139.773288,35.698619,JR東日本,品川,139.738999,35.62876,JR東日本
110,2016.08.20,2001M,ＪＲ,横須賀線総武線成田線,特急,成田エクスプレス,1.0,大船,成田空港（第１旅客ターミナル）,JR東日本,品川,JR東日本,成田空港（第１旅客ターミナル）,86.0,06:05:00,,07:18:00,,01:13:00,指定席,JR東日本,E259,,モハE258-2,JR東日本,70.68493150684934,品川,139.738999,35.62876,JR東日本,成田空港（第１旅客ターミナル）,140.384644,35.763983,JR東日本
111,2016.12.28,13,私鉄,名鉄常滑線,空港特急,ミュースカイ,13.0,中部国際空港,名鉄名古屋,名鉄,中部国際空港,名鉄,名鉄名古屋,39.3,10:07:00,,10:35:00,,00:28:00,指定席,名古屋鉄道,,,2053,名古屋鉄道,84.21428571428552,中部国際空港,136.816382,34.859262,名鉄,名鉄名古屋,136.884187,35.169252,名鉄
112,2016.12.28,6159A,ＪＲ,東海道新幹線,新幹線,のぞみ,159.0,東京,岡山,JR東海,名古屋,JR西日本,新大阪,186.6,10:56:00,,11:46:00,,00:50:00,グリーン車,JR東海,N700A,2000.0,776-2037,JR東海,223.91999999999973,名古屋,136.881637,35.170694,JR東海,新大阪,135.501852,34.734136,JR西日本
113,2016.12.28,1171C,ＪＲ,東海道線,普通,,,高槻,新三田,JR西日本,新大阪,JR西日本,大阪,3.8,13:07:00,,13:11:00,,00:04:00,自由席,JR西日本,321,,クモハ321-39,JR西日本,57.0000000000002,新大阪,135.501852,34.734136,JR西日本,大阪,135.495188,34.702398,JR西日本
114,2016.12.28,1458,ＪＲ,大阪環状線,普通,,,天王寺,外回り,JR西日本,大阪,JR西日本,大阪城公園,5.0,13:19:00,,13:28:00,,00:09:00,自由席,JR西日本,103,,モハ103-490,JR西日本,33.33333333333345,大阪,135.495188,34.702398,JR西日本,大阪城公園,135.534482,34.68858,JR西日本
115,2016.12.28,4177,ＪＲ,大阪環状線,普通,関空快速,,天王寺,関西空港,JR西日本,森ノ宮,JR西日本,桜ノ宮,3.5,15:10:00,,15:17:00,,00:07:00,自由席,JR西日本,225,5000.0,モハ224-5210,JR西日本,30.000000000000103,森ノ宮,135.533996,34.680412,JR西日本,桜ノ宮,135.520944,34.704976,JR西日本
116,2016.12.28,3412,ＪＲ,大阪環状線,普通,大和路快速,,天王寺,加茂,JR西日本,桜ノ宮,JR西日本,天満,0.8,15:22:00,,15:23:00,,00:01:00,自由席,JR西日本,221,,モハ221-22,JR西日本,48.000000000007844,桜ノ宮,135.520944,34.704976,JR西日本,天満,135.512233,34.704923,JR西日本
117,2016.12.28,1465,ＪＲ,大阪環状線,普通,,,天王寺,内回り,JR西日本,天満,JR西日本,大阪,1.6,15:29:00,,15:32:00,,00:03:00,自由席,JR西日本,323,,クハ323-2,JR西日本,31.99999999999841,天満,135.512233,34.704923,JR西日本,大阪,135.495188,34.702398,JR西日本
118,2016.12.28,810T,ＪＲ,東海道線,快速,,,網干,米原,JR西日本,大阪,JR西日本,新大阪,3.8,18:38:00,,18:43:00,,00:05:00,自由席,JR西日本,221,,クモハ221-46,JR西日本,45.600000000001614,大阪,135.495188,34.702398,JR西日本,新大阪,135.501852,34.734136,JR西日本
119,2016.12.29,3420M,ＪＲ,東海道線,新快速,,,播州赤穂,野洲,JR西日本,新大阪,JR西日本,京都,39.0,08:33:00,,08:57:00,,00:24:00,自由席,JR西日本,221,,サハ221-35,JR西日本,97.50000000000034,新大阪,135.501852,34.734136,JR西日本,京都,135.757748,34.985465,JR西日本
120,2016.12.29,4036M,ＪＲ,東海道線,特急,サンダーバード,36.0,金沢,大阪,JR西日本,京都,JR西日本,新大阪,39.0,18:40:00,,19:03:00,,00:23:00,自由席,JR西日本,683,,サハ683-4710,JR西日本,101.73913043478227,京都,135.757748,34.985465,JR西日本,新大阪,135.501852,34.734136,JR西日本
121,2016.12.30,2025D,ＪＲ,東海道線,L特急,ワイドビューひだ,25.0,大阪,高山,JR西日本,新大阪,JR西日本,京都,39.0,08:07:00,,08:32:00,,00:25:00,自由席,JR西日本,キハ85,,キハ85-11,JR西日本,93.60000000000004,新大阪,135.501852,34.734136,JR西日本,京都,135.757748,34.985465,JR西日本
122,2016.12.30,1619M,ＪＲ,奈良線,普通,,,京都,城陽,JR西日本,京都,JR西日本,稲荷,2.7,08:37:00,,08:43:00,,00:06:00,自由席,JR西日本,103,,モハ103-430,JR西日本,27.0000000000001,京都,135.757748,34.985465,JR西日本,稲荷,135.770707,34.966758,JR西日本
123,2016.12.30,623M,ＪＲ,奈良線,普通,,,京都,奈良,JR西日本,稲荷,JR西日本,木幡,7.9,10:25:00,,10:39:00,,00:14:00,自由席,JR西日本,103,,モハ103-430,JR西日本,33.85714285714259,稲荷,135.770707,34.966758,JR西日本,木幡,135.798901,34.924962,JR西日本
124,2016.12.30,V1011U,私鉄,京阪宇治線,普通,,,中書島,宇治,京阪,木幡,京阪,宇治,3.7,11:00:00,,11:07:00,,00:07:00,自由席,京阪電気鉄道,13000,,13501,京阪電気鉄道,31.714285714285467,木幡,135.796047,34.925859,京阪,宇治,135.806229,34.89467800000001,京阪
125,2016.12.30,2619M,ＪＲ,奈良線関西本線,みやこ路快速,,,京都,奈良,JR西日本,宇治,JR西日本,奈良,26.8,13:51:00,,14:18:00,,00:27:00,自由席,JR西日本,221,,クハ221-17,JR西日本,59.55555555555542,宇治,135.800629,34.890437,JR西日本,奈良,135.818935,34.680482,JR西日本
126,2016.12.30,3453K,ＪＲ,関西本線,大和路快速,,,加茂,天王寺,JR西日本,奈良,JR西日本,新今宮,38.5,16:59:00,,17:38:00,,00:39:00,自由席,JR西日本,221,,クハ221-31,JR西日本,59.23076923076945,奈良,135.818935,34.680482,JR西日本,新今宮,135.501076,34.650149,JR西日本
127,2016.12.30,6862,私鉄,南海本線,普通,,,和歌山市,難波,南海,新今宮,南海,難波,1.4,17:48:00,,17:50:00,,00:02:00,自由席,南海電気鉄道,8000,,8601,南海電気鉄道,42.0000000000035,新今宮,135.500302,34.650429,南海,難波,135.501949,34.66357,南海
128,2016.12.30,496,地下鉄,大阪市営地下鉄御堂筋線,普通,,,天王寺,新大阪,大阪メトロ,なんば,大阪メトロ,新大阪,7.6,20:40:00,,20:56:00,,00:16:00,自由席,大阪市営地下鉄,1000,,1821,大阪市営地下鉄,28.5000000000001,なんば,135.500277,34.66631599999999,大阪メトロ,新大阪,135.498558,34.732919,大阪メトロ
129,2016.12.31,603A,ＪＲ,山陽新幹線,新幹線,みずほ,603.0,新大阪,鹿児島中央,JR西日本,新大阪,JR西日本,岡山,180.3,07:53:00,,08:38:00,,00:45:00,自由席,JR西日本,N700,7000.0,786-7003,JR西日本,240.4,新大阪,135.501852,34.734136,JR西日本,岡山,133.918552,34.666572,JR西日本
130,2016.12.31,3115M,ＪＲ,宇野線本四備讃線予讃線,快速,マリンライナー,15.0,岡山,高松,JR西日本,岡山,JR四国,高松,71.8,09:05:00,,09:59:00,,00:54:00,自由席,JR西日本JR四国,5000,,5206,JR西日本JR四国,79.77777777777794,岡山,133.918552,34.666572,JR西日本,高松,134.046821,34.35075399999999,JR四国
131,2016.12.31,19,私鉄,琴電琴平線,普通,,,高松築港,琴電琴平,琴電,高松築港,琴電,栗林公園,2.9,10:30:00,,10:38:00,,00:08:00,自由席,高松琴平電気鉄道,,,1105,高松琴平電気鉄道,21.750000000000075,高松築港,134.049507,34.35079,琴電,栗林公園,134.051063,34.328586,琴電
132,2016.12.31,4330D,ＪＲ,高徳線,普通,,,徳島,高松,JR四国,栗林公園北口,JR四国,高松,3.2,12:37:00,,12:43:00,,00:06:00,自由席,JR四国,1200,,1250,JR四国,32.000000000000114,栗林公園北口,134.041561,34.334188,JR四国,高松,134.046821,34.35075399999999,JR四国
133,2016.12.31,3134M,ＪＲ,予讃線本四備讃線宇野線,快速,マリンライナー,34.0,高松,岡山,JR四国,高松,JR西日本,岡山,71.8,13:10:00,,14:02:00,,00:52:00,自由席,JR四国JR西日本,233,5000.0,クモハ223-5001,JR四国JR西日本,82.84615384615363,高松,134.046821,34.35075399999999,JR四国,岡山,133.918552,34.666572,JR西日本
134,2016.12.31,132A,ＪＲ,山陽新幹線,新幹線,のぞみ,132.0,広島,東京,JR西日本,岡山,JR西日本,姫路,88.6,14:28:00,,14:49:00,,00:21:00,自由席,JR西日本,N700A,5000.0,783-5016,JR西日本,253.1428571428561,岡山,133.918552,34.666572,JR西日本,姫路,134.690769,34.827659,JR西日本
135,2016.12.31,3300M,ＪＲ,山陽本線,新快速,,,姫路,長浜,JR西日本,姫路,JR西日本,三ノ宮,57.3,16:56:00,,17:35:00,,00:39:00,自由席,JR西日本,223,2000.0,モハ222-2009,JR西日本,88.15384615384646,姫路,134.690769,34.827659,JR西日本,三ノ宮,135.195058,34.69476599999999,JR西日本
136,2016.12.31,3314M,ＪＲ,東海道線,新快速,,,播州赤穂,米原,JR西日本,三ノ宮,JR西日本,新大阪,34.4,21:17:00,,21:43:00,,00:26:00,自由席,JR西日本,223,2000.0,サハ223-2105;:,JR西日本,79.38461538461615,三ノ宮,135.195058,34.69476599999999,JR西日本,新大阪,135.501852,34.734136,JR西日本
137,2017.01.01,9241B,ＪＲ,東海道線,普通,,,京都,西明石,JR西日本,新大阪,JR西日本,大阪,3.8,03:58:00,,04:02:00,,00:04:00,自由席,JR西日本,207,,モハ207-23,JR西日本,57.0000000000002,新大阪,135.501852,34.734136,JR西日本,大阪,135.495188,34.702398,JR西日本
138,2017.01.01,9333E,ＪＲ,大阪環状線,普通,,,天王寺,桜島,JR西日本,大阪,JR西日本,福島,1.0,04:11:00,,04:13:00,,00:02:00,自由席,JR西日本,103,,クハ103-841,JR西日本,30.000000000000103,大阪,135.495188,34.702398,JR西日本,福島,135.486563,34.697167,JR西日本
139,2017.01.01,9340E,ＪＲ,大阪環状線,普通,,,桜島,天王寺,JR西日本,福島,JR西日本,大阪,1.0,04:18:00,,04:20:00,,00:02:00,自由席,JR西日本,201,,モハ201-245,JR西日本,30.000000000000103,福島,135.486563,34.697167,JR西日本,大阪,135.495188,34.702398,JR西日本
140,2017.01.01,9240B,ＪＲ,東海道線,普通,,,西明石,京都,JR西日本,大阪,JR西日本,新大阪,3.8,04:24:00,,04:28:00,,00:04:00,自由席,JR西日本,321,,クモハ321-23,JR西日本,57.0000000000002,大阪,135.495188,34.702398,JR西日本,新大阪,135.501852,34.734136,JR西日本
141,2017.01.01,462A,ＪＲ,東海道新幹線,新幹線,ひかり,462.0,岡山,東京,JR西日本,新大阪,JR東海,浜松,295.5,09:40:00,,11:05:00,,01:25:00,指定席,JR西日本,700,3000.0,727-3408,JR東海,208.58823529411742,新大阪,135.501852,34.734136,JR西日本,浜松,137.734759,34.703866,JR東海
142,2017.01.01,471A,ＪＲ,東海道新幹線,新幹線,ひかり,471.0,東京,岡山,JR東海,浜松,JR東海,名古屋,108.9,13:37:00,,14:09:00,,00:32:00,自由席,JR西日本,700,3000.0,725-3002,JR東海,204.18749999999974,浜松,137.734759,34.703866,JR東海,名古屋,136.881637,35.170694,JR東海
143,2017.01.01,1494,私鉄,名鉄本線,普通,,,犬山,東岡崎,名鉄,名鉄名古屋,名鉄,神宮前,5.8,14:39:00,,14:46:00,,00:07:00,自由席,名古屋鉄道,,,3258,名古屋鉄道,49.71428571428589,名鉄名古屋,136.884187,35.169252,名鉄,神宮前,136.912485,35.125857,名鉄
144,2017.01.01,1513,私鉄,名鉄本線,急行,,,豊橋,名鉄岐阜,名鉄,神宮前,名鉄,名鉄名古屋,5.8,15:49:00,,15:56:00,,00:07:00,自由席,名古屋鉄道,,,3581,名古屋鉄道,49.71428571428589,神宮前,136.912485,35.125857,名鉄,名鉄名古屋,136.884187,35.169252,名鉄
145,2017.01.02,LD1306D,地下鉄,名古屋地下鉄名城線,普通,,,ナゴヤドーム前矢田,左回り,名古屋市交通局,市役所,名古屋市交通局,久屋大通,0.9,13:15:00,,13:17:00,,00:02:00,自由席,名古屋市交通局,,,2306,名古屋市交通局,27.000000000000096,市役所,136.905379,35.18156,名古屋市交通局,久屋大通,136.908156,35.173784,名古屋市交通局
146,2017.01.02,118,地下鉄,名古屋地下鉄桜通線,普通,,,徳重,中村区役所,名古屋市交通局,久屋大通,名古屋市交通局,名古屋,2.4,13:26:00,,13:31:00,,00:05:00,自由席,名古屋市交通局,,,6201,名古屋市交通局,28.8000000000001,久屋大通,136.908156,35.173784,名古屋市交通局,名古屋,136.883925,35.171252,名古屋市交通局
147,2017.01.02,373H,私鉄,あおなみ線,普通,,,名古屋,金城ふ頭,名臨高,名古屋,名臨高,金城ふ頭,15.2,13:45:00,,14:09:00,,00:24:00,自由席,名古屋臨海高速鉄道,1000,,1202,名古屋臨海高速鉄道,37.99999999999988,名古屋,136.882417,35.168733,名臨高,金城ふ頭,136.849009,35.048775,名臨高
148,2017.01.02,398H,私鉄,あおなみ線,普通,,,金城ふ頭,名古屋,名臨高,金城ふ頭,名臨高,名古屋,15.2,16:43:00,,17:06:00,,00:23:00,自由席,名古屋臨海高速鉄道,1000,,1101,名古屋臨海高速鉄道,39.65217391304334,金城ふ頭,136.849009,35.048775,名臨高,名古屋,136.882417,35.168733,名臨高
149,2017.01.03,8,私鉄,名鉄常滑線,空港特急,ミュースカイ,8.0,三柿野  ,中部国際空港,名鉄,名鉄名古屋,名鉄,中部国際空港,39.3,07:20:00,,07:48:00,,00:28:00,指定席,名古屋鉄道,,,2004,名古屋鉄道,84.21428571428552,名鉄名古屋,136.884187,35.169252,名鉄,中部国際空港,136.816382,34.859262,名鉄
150,2017.03.12,587SH,私鉄,京急空港線,快特,,,羽田空港国内線ターミナル,京成高砂,京急,羽田空港国際線ターミナル,京急,品川,12.5,05:43:00,,05:56:00,,00:13:00,自由席,京浜急行電鉄,1000,,1075,京浜急行電鉄,57.692307692307715,羽田空港国際線ターミナル,139.768968,35.544676,京急,品川,139.73809,35.628284,京急
151,2017.03.12,612G,ＪＲ,山手線,普通,,,大崎,内回り,JR東日本,品川,JR東日本,新橋,4.9,06:11:00,,06:18:00,,00:07:00,自由席,JR東日本,E231,500.0,クハE231-544,JR東日本,42.00000000000015,品川,139.738999,35.62876,JR東日本,新橋,139.758587,35.666195,JR東日本
152,2017.03.12,605T,地下鉄,都営浅草線,普通,,,西馬込,印旛日本医大,東京都交通局,新橋,東京都交通局,東銀座,0.9,06:32:00,,06:34:00,,00:02:00,自由席,東京都交通局,5300,,5310-2,東京都交通局,27.000000000000096,新橋,139.759451,35.665577,東京都交通局,東銀座,139.767253,35.669464,東京都交通局
153,2017.03.12,A619T,地下鉄,東京メトロ日比谷線,普通,,,東武動物公園,中目黒,東京メトロ,築地,東京メトロ,銀座,1.0,07:42:00,,07:45:00,,00:03:00,自由席,東京地下鉄,,,23-803,東京地下鉄,20.00000000000007,築地,139.772603,35.668115,東京メトロ,銀座,139.763965,35.671989,東京メトロ
154,2017.03.12,B725,地下鉄,東京メトロ丸ノ内線,普通,,,荻窪,池袋,東京メトロ,銀座,東京メトロ,東京,1.1,07:53:00,,07:55:00,,00:02:00,自由席,東京地下鉄,,,02-253,東京地下鉄,33.00000000000012,銀座,139.763965,35.671989,東京メトロ,東京,139.764708,35.681753,東京メトロ
155,2017.03.12,1531E,ＪＲ,東海道線,普通,,,小金井,小田原,JR東日本,東京,JR東日本,品川,6.8,08:05:00,,08:12:00,,00:07:00,自由席,JR東日本,E231,,クハE231-8537,JR東日本,58.28571428571516,東京,139.766103,35.681391,JR東日本,品川,139.738999,35.62876,JR東日本
156,2017.03.12,814G,ＪＲ,山手線,普通,,,大崎,内回り,JR東日本,品川,JR東日本,田町,2.2,08:36:00,,08:39:00,,00:03:00,自由席,JR東日本,E231,500.0,クハE230-504,JR東日本,44.00000000000016,品川,139.738999,35.62876,JR東日本,田町,139.747575,35.645736,JR東日本
157,2017.03.12,717G,ＪＲ,山手線,普通,,,大崎,外回り,JR東日本,田町,JR東日本,品川,2.2,08:51:00,,08:54:00,,00:03:00,自由席,JR東日本,E231,500.0,クハE230-528,JR東日本,43.999999999998984,田町,139.747575,35.645736,JR東日本,品川,139.738999,35.62876,JR東日本
158,2017.03.12,810A,ＪＲ,東海道新幹線,新幹線,こだま,810.0,三島,東京,JR東日本,品川,JR東日本,東京,6.8,09:40:00,,09:47:00,,00:07:00,自由席,JR東海,N700A,2000.0,785-2070,JR東海,58.28571428571382,品川,139.738999,35.62876,JR東日本,東京,139.766103,35.681391,JR東日本
159,2017.03.12,645A,ＪＲ,東海道新幹線,新幹線,こだま,645.0,東京,新大阪,JR東日本,東京,JR東海,三島,120.7,09:56:00,,10:52:00,,00:56:00,グリーン車,JR東海,700,0.0,719-54,JR東海,129.32142857142867,東京,139.766103,35.681391,JR東日本,三島,138.911133,35.12625300000001,JR東海
160,2017.03.12,763M,ＪＲ,東海道線,普通,,,三島,島田,JR東海,三島,JR東海,沼津,5.5,11:02:00,,11:09:00,,00:07:00,自由席,JR東海,211,5000.0,クモハ211-5034,JR東海,47.14285714285677,三島,138.911133,35.12625300000001,JR東海,沼津,138.860104,35.103011,JR東海
161,2017.03.12,100,私鉄,伊豆箱根鉄道駿豆線,普通,,,修善寺,三島,いずはこ,伊豆長岡,いずはこ,三島,11.4,17:53:00,,18:14:00,,00:21:00,自由席,伊豆箱根鉄道,3000,,3502,伊豆箱根鉄道,32.57142857142844,伊豆長岡,138.947539,35.039907,いずはこ,三島,138.911369,35.125946,いずはこ
162,2017.03.12,473M,ＪＲ,東海道線,普通,,,熱海,浜松,JR東海,三島,JR東海,沼津,5.5,18:20:00,,18:26:00,,00:06:00,自由席,JR東海,211,5000.0,モハ210-5024,JR東海,54.99999999999873,三島,138.911133,35.12625300000001,JR東海,沼津,138.860104,35.103011,JR東海
163,2017.03.13,5032M,ＪＲ,東海道線,寝台特急,サンライズ瀬戸,,高松,東京,JR東海,沼津,JR東日本,横浜,97.4,05:27:00,,06:44:00,,01:17:00,ノビノビ席,JR西日本,285,0.0,モハネ285-202,JR西日本,75.8961038961039,沼津,138.860104,35.103011,JR東海,横浜,139.622704,35.466195,JR東日本
164,2017.03.13,600A,ＪＲ,京浜東北線,普通,,,大船,大宮,JR東日本,横浜,JR東日本,東神奈川,6.1,06:50:00,,06:52:00,,00:02:00,自由席,JR東日本,E233,1000.0,クハE233-1023,JR東日本,182.99999999999332,横浜,139.622704,35.466195,JR東日本,東神奈川,139.633466,35.47804,JR東日本
165,2017.03.13,617K,ＪＲ,横浜線,普通,,,東神奈川,八王子,JR東日本,東神奈川,JR東日本,新横浜,1.8,06:59:00,,07:08:00,,00:09:00,自由席,JR東日本,E233,6000.0,クハE233-6004,JR東日本,12.000000000000043,東神奈川,139.633466,35.47804,JR東日本,新横浜,139.617348,35.506824,JR東日本
166,2017.03.13,633A,ＪＲ,東海道新幹線,新幹線,こだま,633.0,東京,新大阪,JR東日本,新横浜,JR東海,三島,91.9,07:16:00,,07:52:00,,00:36:00,グリーン車,JR西日本,N700A,5000.0,775-5010,JR東海,153.16666666666654,新横浜,139.617348,35.506824,JR東日本,三島,138.911133,35.12625300000001,JR東海
167,2017.03.13,440M,ＪＲ,東海道線,普通,,,島田,熱海,JR東海,沼津,JR東海,三島,5.5,16:09:00,,16:14:00,,00:05:00,自由席,JR東海,211,6000.0,クモハ211-6008,JR東海,65.99999999999812,沼津,138.860104,35.103011,JR東海,三島,138.911133,35.12625300000001,JR東海
168,2017.03.13,87,私鉄,伊豆箱根鉄道駿豆線,普通,,,三島,修善寺,いずはこ,三島,いずはこ,伊豆長岡,11.4,16:30:00,,16:51:00,,00:21:00,自由席,伊豆箱根鉄道,3000,,3501,伊豆箱根鉄道,32.57142857142844,三島,138.911369,35.125946,いずはこ,伊豆長岡,138.947539,35.039907,いずはこ
169,2017.03.13,4383M,ＪＲ,東海道線,快速,ホームライナー浜松,6.0,沼津,浜松,JR東海,沼津,JR東海,清水,42.8,18:31:00,,19:01:00,,00:30:00,指定席,JR東海,373,,クモハ373-5,JR東海,85.59999999999984,沼津,138.860104,35.103011,JR東海,清水,138.488958,35.023248,JR東海
170,2017.03.13,830M,ＪＲ,東海道線,普通,,,浜松,沼津,JR東海,清水,JR東海,沼津,42.8,19:15:00,,19:59:00,,00:44:00,自由席,JR東海,313,2500.0,クモハ313-2515,JR東海,58.36363636363635,清水,138.488958,35.023248,JR東海,沼津,138.860104,35.103011,JR東海
171,2017.03.14,433M,ＪＲ,東海道線,普通,,,熱海,島田,JR東海,沼津,JR東海,静岡,54.0,09:57:00,,10:50:00,,00:53:00,自由席,JR東海,313,2500.0,クモハ313-2505,JR東海,61.13207547169805,沼津,138.860104,35.103011,JR東海,静岡,138.388579,34.971629,JR東海
172,2017.03.14,467A,ＪＲ,東海道新幹線,新幹線,ひかり,467.0,東京,岡山,JR東海,静岡,JR西日本,新大阪,372.4,11:10:00,,13:00:00,,01:50:00,グリーン車,JR東海,N700A,1000.0,775-1030,JR東海,203.1272727272727,静岡,138.388579,34.971629,JR東海,新大阪,135.501852,34.734136,JR西日本
173,2017.03.14,56D,ＪＲ,東海道線,特急,スーパーはくと,6.0,倉吉,京都,JR西日本,新大阪,JR西日本,京都,39.0,13:26:00,,13:48:00,,00:22:00,自由席,JR西日本,HOT7000,,HOT7037,JR西日本,106.36363636363598,新大阪,135.501852,34.734136,JR西日本,京都,135.757748,34.985465,JR西日本
174,2017.03.14,2621M,ＪＲ,奈良線,みやこ路快速,,,京都,奈良,JR西日本,京都,JR西日本,宇治,14.9,14:03:00,,14:21:00,,00:18:00,自由席,JR西日本,221,,モハ221-7,JR西日本,49.66666666666685,京都,135.757748,34.985465,JR西日本,宇治,135.800629,34.890437,JR西日本
175,2017.03.14,642M,ＪＲ,奈良線,普通,,,奈良,京都,JR西日本,宇治,JR西日本,木幡,4.3,14:29:00,,14:35:00,,00:06:00,自由席,JR西日本,103,,クハ103-246,JR西日本,42.999999999999005,宇治,135.800629,34.890437,JR西日本,木幡,135.798901,34.924962,JR西日本
176,2017.03.14,V1410,私鉄,京阪宇治線,普通,,,宇治,中書島,京阪,木幡,京阪,中書島,3.9,15:05:00,,15:14:00,,00:09:00,自由席,京阪電気鉄道,,,13055,京阪電気鉄道,26.00000000000009,木幡,135.796047,34.925859,京阪,中書島,135.760174,34.926875,京阪
177,2017.03.14,B1501A,私鉄,京阪本線,特急,,,出町柳,淀屋橋,京阪,中書島,京阪,京橋,36.7,15:25:00,,15:56:00,,00:31:00,自由席,京阪電気鉄道,,,8010,京阪電気鉄道,71.03225806451603,中書島,135.760174,34.926875,京阪,京橋,135.532182,34.697052,京阪
178,2017.03.14,4174,ＪＲ,大阪環状線,普通,,,和歌山,天王寺,JR西日本,京橋,JR西日本,天王寺,6.5,16:07:00,,16:21:00,,00:14:00,自由席,JR西日本,223,,サハ223-104,JR西日本,27.857142857142957,京橋,135.534253,34.696047,JR西日本,天王寺,135.514124,34.647243,JR西日本
179,2017.03.14,1488,ＪＲ,大阪環状線,普通,,,天王寺,外回り,JR西日本,天王寺,JR西日本,新今宮,1.0,16:27:00,,16:29:00,,00:02:00,自由席,JR西日本,201,,モハ201-190,JR西日本,30.000000000000103,天王寺,135.514124,34.647243,JR西日本,新今宮,135.501076,34.650149,JR西日本
180,2017.03.14,2506,私鉄,南海本線,普通,,,林間田園都市,難波,南海,新今宮,南海,難波,1.4,16:43:00,,16:46:00,,00:03:00,自由席,南海電気鉄道,,,6354,南海電気鉄道,28.0000000000001,新今宮,135.500302,34.650429,南海,難波,135.501949,34.66357,南海
181,2017.03.14,478,地下鉄,大阪市営地下鉄御堂筋線,普通,,,なかもず,千里中央,大阪メトロ,なんば,大阪メトロ,新大阪,7.6,19:02:00,,19:17:00,,00:15:00,自由席,大阪市交通局,,,9901,大阪市交通局,30.400000000000105,なんば,135.500277,34.66631599999999,大阪メトロ,新大阪,135.498558,34.732919,大阪メトロ
182,2017.03.15,495A,ＪＲ,山陽新幹線,新幹線,ひかり,495.0,名古屋,広島,JR西日本,新大阪,JR西日本,広島,341.6,08:39:00,,10:35:00,,01:56:00,グリーン車,JR西日本,N700A,4000.0,785-4006,JR西日本,176.6896551724137,新大阪,135.501852,34.734136,JR西日本,広島,132.475593,34.397446,JR西日本
183,2017.03.15,86,私鉄,広島電鉄本線,普通,,,広島港・宇品,広島駅,広電,紙屋町東,広電,広島駅,2.1,11:51:00,,12:06:00,,00:15:00,自由席,広島電鉄,,,811,広島電鉄,8.399999999999986,紙屋町東,132.458167,34.395101,広電,広島駅,132.475403,34.396296,広電
184,2017.03.15,555A,ＪＲ,山陽新幹線,新幹線,さくら,555.0,新大阪,鹿児島中央,JR西日本,広島,JR西日本,博多,280.7,13:37:00,,14:43:00,,01:06:00,グリーン車,JR西日本,N700,7000.0,766-7016,JR西日本,255.18181818181782,広島,132.475593,34.397446,JR西日本,博多,130.420622,33.590002,JR西日本
185,2017.03.15,329,地下鉄,福岡市営地下鉄空港線,普通,,,福岡空港,姪浜,福岡市交通局,博多,福岡市交通局,天神,2.5,15:43:00,,15:49:00,,00:06:00,自由席,福岡市交通局,,,1509,福岡市交通局,25.00000000000009,博多,130.42085,33.590204,福岡市交通局,天神,130.39906,33.591346,福岡市交通局
186,2017.03.15,429C,地下鉄,福岡市営地下鉄空港線,普通,,,筑前前原,福岡空港,福岡市交通局,天神,福岡市交通局,博多,2.5,15:59:00,,16:05:00,,00:06:00,自由席,福岡市交通局,,,モハ304-2,福岡市交通局,25.00000000000009,天神,130.39906,33.591346,福岡市交通局,博多,130.42085,33.590204,福岡市交通局
187,2017.03.15,560A,ＪＲ,山陽新幹線,新幹線,さくら,560.0,鹿児島中央,新大阪,JR西日本,博多,JR西日本,新大阪,622.3,16:16:00,,18:48:00,,02:32:00,グリーン車,JR西日本,N700,7000.0,766-7006,JR西日本,245.6447368421051,博多,130.420622,33.590002,JR西日本,新大阪,135.501852,34.734136,JR西日本
188,2017.03.15,229C,ＪＲ,東海道線,普通,,,京都,西明石,JR西日本,新大阪,JR西日本,大阪,3.8,18:44:00,,18:48:00,,00:04:00,自由席,JR西日本,207,,モハ207-1102,JR西日本,57.0000000000002,新大阪,135.501852,34.734136,JR西日本,大阪,135.495188,34.702398,JR西日本
189,2017.03.15,1072D,ＪＲ,東海道線,特急,びわこエクスプレス,2.0,大阪,草津,JR西日本,大阪,JR西日本,新大阪,3.8,20:36:00,,20:40:00,,00:04:00,自由席,JR西日本,189,,キハ188-2,JR西日本,57.0000000000002,大阪,135.495188,34.702398,JR西日本,新大阪,135.501852,34.734136,JR西日本
190,2017.03.16,3414M,ＪＲ,東海道線,新快速,,,網干,野洲,JR西日本,新大阪,JR西日本,石山,53.5,08:10:00,,08:51:00,,00:41:00,自由席,JR西日本,223,,クハ222-2050,JR西日本,78.29268292682924,新大阪,135.501852,34.734136,JR西日本,石山,135.900228,34.97987,JR西日本
191,2017.03.16,0963,私鉄,京阪石山坂本線,普通,,,石山寺,坂本,京阪,京阪石山,京阪,近江神宮前,7.5,09:12:00,,09:32:00,,00:20:00,自由席,京阪電気鉄道,,,619,京阪電気鉄道,22.49999999999999,京阪石山,135.901289,34.978937,京阪,近江神宮前,135.855807,35.028194,京阪
192,2017.03.16,1180,私鉄,京阪石山坂本線,普通,,,近江神宮前,石山寺,京阪,近江神宮前,京阪,びわ湖浜大津,2.4,11:02:00,,11:09:00,,00:07:00,自由席,京阪電気鉄道,,,702,京阪電気鉄道,20.57142857142841,近江神宮前,135.855807,35.028194,京阪,びわ湖浜大津,135.863982,35.011283,京阪
193,2017.03.16,1201175,私鉄,京阪電鉄大津線京都市営地下鉄東西線,普通,,,びわ湖浜大津,京都市役所前,京阪,びわ湖浜大津,京都市交通局,三条京阪,10.9,12:18:00,,12:41:00,,00:23:00,自由席,京阪電気鉄道,,,801,京阪電気鉄道,28.434782608695755,びわ湖浜大津,135.863982,35.011283,京阪,三条京阪,135.773773,35.009278,京都市交通局
194,2017.03.16,B1200Z,私鉄,京阪本線,特急,,,淀屋橋,出町柳,京阪,三条,京阪,出町柳,2.3,12:50:00,,12:54:00,,00:04:00,自由席,京阪電気鉄道,,,8806,京阪電気鉄道,34.50000000000012,三条,135.772274,35.009114,京阪,出町柳,135.77244,35.029613,京阪
195,2017.03.16,B1703A,私鉄,京阪本線,特急,,,出町柳,淀屋橋,京阪,出町柳,京阪,祇園四条,3.0,14:19:00,,14:24:00,,00:05:00,自由席,京阪電気鉄道,,,8759,京阪電気鉄道,36.00000000000013,出町柳,135.77244,35.029613,京阪,祇園四条,135.771961,35.003689,京阪
196,2017.03.16,15015,私鉄,阪急本線,特急,,,河原町,梅田,阪急,河原町,阪急,淡路,41.1,15:20:00,,15:54:00,,00:34:00,自由席,阪急電気鉄道,,,9852,阪急電気鉄道,72.52941176470614,河原町,135.769463,35.003765,阪急,淡路,135.516527,34.738827,阪急
197,2017.03.16,S1553279,私鉄,阪急千里線大阪市営地下鉄堺筋線,普通,,,北千里,天下茶屋,阪急,淡路,大阪メトロ,日本橋,8.4,15:56:00,,16:12:00,,00:16:00,自由席,阪急電気鉄道,,,66017,阪急電気鉄道,31.500000000000114,淡路,135.516527,34.738827,阪急,日本橋,135.506635,34.667146,大阪メトロ
198,2017.03.16,2475Y,ＪＲ,大阪環状線,区間快速,,,奈良,天王寺,JR西日本,新今宮,JR西日本,大阪,10.0,19:22:00,,19:40:00,,00:18:00,自由席,JR西日本,221,,モハ220-27,JR西日本,33.33333333333315,新今宮,135.501076,34.650149,JR西日本,大阪,135.495188,34.702398,JR西日本
199,2017.03.16,1220C,ＪＲ,東海道線,普通,,,新三田,高槻,JR西日本,大阪,JR西日本,新大阪,3.8,19:47:00,,19:50:00,,00:03:00,自由席,JR西日本,321,,クモハ320-6,JR西日本,76.00000000000432,大阪,135.495188,34.702398,JR西日本,新大阪,135.501852,34.734136,JR西日本
200,2017.03.17,4001M,ＪＲ,北陸本線,特急,サンダーバード,1.0,大阪,金沢,JR西日本,新大阪,JR西日本,金沢,263.8,06:34:00,,09:13:00,,02:39:00,グリーン車,JR西日本,683,,クロ683-4503,JR西日本,99.54716981132071,新大阪,135.501852,34.734136,JR西日本,金沢,136.648166,36.578117,JR西日本
201,2017.03.17,3508E,ＪＲ,北陸新幹線,新幹線,かがやき,508.0,金沢,東京,JR西日本,金沢,JR東日本,東京,450.5,09:46:00,,12:20:00,,02:34:00,グリーン車,JR西日本JR東日本,E7,,E715-9,JR西日本JR東日本,175.51948051948048,金沢,136.648166,36.578117,JR西日本,東京,139.766103,35.681391,JR東日本
202,2017.03.17,1206G,ＪＲ,山手線,普通,,,大崎,内回り,JR東日本,有楽町,JR東日本,秋葉原,2.8,13:09:00,,13:15:00,,00:06:00,自由席,JR東日本,E231,500.0,サハE231-523,JR東日本,28.0000000000001,有楽町,139.763806,35.675441,JR東日本,秋葉原,139.773288,35.698619,JR東日本
203,2017.03.17,1513C,ＪＲ,京浜東北線,普通,,,南浦和,大船,JR東日本,秋葉原,JR東日本,東京,2.0,16:04:00,,16:08:00,,00:04:00,自由席,JR東日本,E233,1000.0,モハE233-1258,JR東日本,30.000000000000103,秋葉原,139.773288,35.698619,JR東日本,東京,139.766103,35.681391,JR東日本
204,2017.03.17,1703T,ＪＲ,中央線快速,快速,,,東京,高尾,JR東日本,東京,JR東日本,御茶ノ水,2.6,17:11:00,,17:15:00,,00:04:00,自由席,JR東日本,E233,,サハE233-18,JR東日本,39.00000000000014,東京,139.766103,35.681391,JR東日本,御茶ノ水,139.764955,35.699605,JR東日本
205,2017.03.17,A1918K,地下鉄,東京メトロ半蔵門線,普通,,,中央林間,久喜,東京メトロ,神保町,東京メトロ,三越前,2.4,20:16:00,,20:20:00,,00:04:00,自由席,東京地下鉄,,,5508,東京地下鉄,36.00000000000013,神保町,139.757606,35.695966,東京メトロ,三越前,139.773594,35.687101,東京メトロ
206,2017.03.17,A2047,地下鉄,東京メトロ銀座線,普通,,,浅草,渋谷,東京メトロ,三越前,東京メトロ,京橋,1.3,20:29:00,,20:33:00,,00:04:00,自由席,東京地下鉄,,,1333,東京地下鉄,19.50000000000007,三越前,139.773594,35.687101,東京メトロ,京橋,139.770126,35.676856,東京メトロ
207,2017.03.18,1826E,ＪＲ,東北本線高崎線,普通,,,熱海,高崎,JR東日本,東京,JR東日本,桶川,42.1,07:18:00,7.0,08:04:00,7.0,00:46:00,グリーン車,JR東日本,E231,,サロE231-1056,JR東日本,54.913043478260875,東京,139.766103,35.681391,JR東日本,桶川,139.564274,35.998375,JR東日本
208,2017.03.18,9832M,ＪＲ,高崎線,快速,伊豆いで湯やまどり,,高崎,熱海,JR東日本,桶川,JR東日本,大宮,11.8,08:18:00,,08:30:00,,00:12:00,指定席,JR東日本,485,,クハ484-703,JR東日本,59.000000000000206,桶川,139.564274,35.998375,JR東日本,大宮,139.62405,35.906439,JR東日本
209,2017.03.18,2529Y,ＪＲ,東北本線湘南新宿ライン,普通,,,小金井,逗子,JR東日本,大宮,JR東日本,新宿,27.4,08:40:00,,09:11:00,,00:31:00,グリーン車,JR東日本,E233,,サロE232-3024,JR東日本,53.03225806451604,大宮,139.62405,35.906439,JR東日本,新宿,139.700464,35.689729,JR東日本
210,2017.03.18,9075M,ＪＲ,中央本線,特急,あずさ,75.0,新宿,松本,JR東日本,新宿,JR東日本,立川,27.2,09:24:00,,09:50:00,,00:26:00,グリーン車,JR東日本,E257,,サロハE257-12,JR東日本,62.7692307692306,新宿,139.700464,35.689729,JR東日本,立川,139.413704,35.698202,JR東日本
211,2017.03.18,9056M,ＪＲ,中央本線,特急,かいじ,186.0,甲府,新宿,JR東日本,立川,JR東日本,新宿,27.2,09:55:00,,10:20:00,,00:25:00,指定席,JR東日本,189,,モハ189-30,JR東日本,65.27999999999982,立川,139.413704,35.698202,JR東日本,新宿,139.700464,35.689729,JR東日本
212,2017.03.18,5006M,ＪＲ,中央本線,特急,スーパーあずさ,6.0,松本,東京,JR東日本,新宿,JR東日本,東京,10.3,10:40:00,,10:53:00,,00:13:00,グリーン車,JR東日本,E351,,サロE351-5,JR東日本,47.53846153846141,新宿,139.700464,35.689729,JR東日本,東京,139.766103,35.681391,JR東日本
213,2017.03.18,3005M,ＪＲ,東海道線,特急,スーパービュー踊り子,5.0,東京,伊豆急下田,JR東日本,東京,JR東日本,横浜,28.8,11:00:00,,11:23:00,,00:23:00,グリーン車,JR東日本,251,,クロ250-3,JR東日本,75.1304347826087,東京,139.766103,35.681391,JR東日本,横浜,139.622704,35.466195,JR東日本
214,2017.03.18,8022M,ＪＲ,東海道線,特急,踊り子,102.0,伊東,東京,JR東日本,横浜,JR東日本,東京,28.8,11:27:00,,11:50:00,,00:23:00,グリーン車,JR東日本,185,,サロ185-204,JR東日本,75.13043478260845,横浜,139.622704,35.466195,JR東日本,東京,139.766103,35.681391,JR東日本
215,2017.03.18,1860E,ＪＲ,東北本線,普通,,,国府津,龍原,JR東日本,東京,JR東日本,上野,3.6,11:59:00,,12:04:00,,00:05:00,グリーン車,JR東日本,E231,,サロE231-1049,JR東日本,43.19999999999947,東京,139.766103,35.681391,JR東日本,上野,139.777043,35.71379,JR東日本
216,2017.03.18,1107G,ＪＲ,山手線,普通,,,大崎,内回り,JR東日本,上野,JR東日本,東京,3.6,12:16:00,,12:23:00,,00:07:00,自由席,JR東日本,E231,500.0,モハE231-571,JR東日本,30.85714285714367,上野,139.777043,35.71379,JR東日本,東京,139.766103,35.681391,JR東日本
217,2017.03.18,2029M,ＪＲ,総武線成田線,特急,成田エクスプレス,29.0,池袋,成田空港（第１旅客ターミナル）,JR東日本,東京,JR東日本,成田空港（第１旅客ターミナル）,79.2,13:33:00,,14:29:00,,00:56:00,グリーン車,JR東日本,E259,,クロE259-16,JR東日本,84.85714285714292,東京,139.766103,35.681391,JR東日本,成田空港（第１旅客ターミナル）,140.384644,35.763983,JR東日本
218,2017.09.15,14AE08,私鉄,京成スカイアクセス線,特急,スカイライナー,26.0,成田空港（第１旅客ターミナル）,京成上野,京成,成田空港（第１旅客ターミナル）,京成,日暮里,62.0,14:58:00,,15:38:00,,00:40:00,指定席,京成電鉄,,,AE3-7,京成電鉄,92.99999999999996,成田空港（第１旅客ターミナル）,140.384644,35.763983,京成,日暮里,139.771287,35.727908,京成
219,2017.09.15,1501A,ＪＲ,京浜東北線,普通,,,大宮,大船,JR東日本,日暮里,JR東日本,東京,5.8,15:47:00,,15:58:00,,00:11:00,自由席,JR東日本,E233,,モハE233-1417,JR東日本,31.63636363636375,日暮里,139.771287,35.727908,JR東日本,東京,139.766103,35.681391,JR東日本
220,2017.09.15,1635Y,ＪＲ,京葉線,普通,,,東京,蘇我,JR東日本,東京,JR東日本,新木場,7.4,16:09:00,,16:19:00,,00:10:00,自由席,JR東日本,E233,,モハE233-5211,JR東日本,44.399999999999444,東京,139.766103,35.681391,JR東日本,新木場,139.827402,35.646172,JR東日本
221,2017.09.15,1691T,私鉄,りんかい線,普通,,,新木場,大崎,東京臨海高速鉄道,新木場,東京臨海高速鉄道,国際展示場,3.5,16:23:00,,16:27:00,,00:04:00,自由席,東京臨海高速鉄道,,,70-031,東京臨海高速鉄道,52.50000000000019,新木場,139.827402,35.646172,東京臨海高速鉄道,国際展示場,139.791617,35.63441,東京臨海高速鉄道
222,2017.09.16,983F,ＪＲ,埼京線,快速,,,新木場,川越,東京臨海高速鉄道,国際展示場,JR東日本,池袋,22.1,09:17:00,,09:51:00,,00:34:00,自由席,JR東日本,70,,70-083,JR東日本,39.00000000000005,国際展示場,139.791617,35.63441,東京臨海高速鉄道,池袋,139.711086,35.730256,JR東日本
223,2017.09.16,749,私鉄,東武東上線,普通,,,池袋,成増,東武,池袋,東武,大山,3.0,10:34:00,,10:39:00,,00:05:00,自由席,東武鉄道,,,35602,東武鉄道,35.99999999999955,池袋,139.710678,35.730924,東武,大山,139.702589,35.748398,東武
224,2017.09.16,A1022M,地下鉄,東京メトロ有楽町線,普通,,,保谷,新木場,東京メトロ,要町,東京メトロ,豊洲,14.8,11:22:00,,11:52:00,,00:30:00,自由席,東京地下鉄,,,6353,東京地下鉄,29.600000000000026,要町,139.698715,35.73323,東京メトロ,豊洲,139.79621,35.654908,東京メトロ
225,2017.09.16,178,新交通,東京臨海新交通臨海線,普通,,,豊洲,新橋,ゆりかもめ,新豊洲,ゆりかもめ,有明,2.0,12:21:00,,12:26:00,,00:05:00,自由席,ゆりかもめ,,,7334,ゆりかもめ,23.999999999999318,新豊洲,139.789996,35.648718,ゆりかもめ,有明,139.793269,35.634596,ゆりかもめ
226,2017.09.16,327,新交通,東京臨海新交通臨海線,普通,,,新橋,豊洲,ゆりかもめ,有明,ゆりかもめ,新豊洲,2.0,17:52:00,,17:57:00,,00:05:00,自由席,ゆりかもめ,,,7211,ゆりかもめ,24.000000000000085,有明,139.793269,35.634596,ゆりかもめ,新豊洲,139.789996,35.648718,ゆりかもめ
227,2017.09.16,422,新交通,東京臨海新交通臨海線,普通,,,豊洲,新橋,ゆりかもめ,新豊洲,ゆりかもめ,有明,2.0,20:44:00,,20:49:00,,00:05:00,自由席,ゆりかもめ,,,7314,ゆりかもめ,24.000000000000085,新豊洲,139.789996,35.648718,ゆりかもめ,有明,139.793269,35.634596,ゆりかもめ
228,2017.09.17,951K,私鉄,りんかい線,普通,,,新木場,大崎,東京臨海高速鉄道,国際展示場,東京臨海高速鉄道,大崎,8.7,10:04:00,,10:18:00,,00:14:00,自由席,東京臨海高速鉄道,,,モハE233-7013,東京臨海高速鉄道,37.2857142857142,国際展示場,139.791617,35.63441,東京臨海高速鉄道,大崎,139.728439,35.619772,東京臨海高速鉄道
229,2017.09.17,1012G,ＪＲ,山手線,普通,,,大崎,内回り,JR東日本,大崎,JR東日本,東京,8.8,10:22:00,,10:37:00,,00:15:00,自由席,JR東日本,E235,,モハE235-13,JR東日本,35.19999999999994,大崎,139.728439,35.619772,JR東日本,東京,139.766103,35.681391,JR東日本
230,2017.09.17,1551E,ＪＲ,東海道線,普通,,,宇都宮,平塚,JR東日本,東京,JR東日本,川崎,18.2,10:57:00,20.0,11:13:00,20.0,00:16:00,自由席,JR東日本,E233,,クハE232-3512,JR東日本,68.2499999999999,東京,139.766103,35.681391,JR東日本,川崎,139.697485,35.531311,JR東日本
231,2017.09.17,3524E,ＪＲ,東海道線,快速,アクティー,,熱海,小金井,JR東日本,川崎,JR東日本,東京,18.2,12:32:00,,12:49:00,,00:17:00,自由席,JR東日本,E231,,クハE231-8524,JR東日本,64.23529411764729,川崎,139.697485,35.531311,JR東日本,東京,139.766103,35.681391,JR東日本
232,2017.09.17,B1255,地下鉄,東京メトロ丸ノ内線,普通,,,新宿,池袋,東京メトロ,東京,東京メトロ,大手町,0.6,12:59:00,,13:00:00,,00:01:00,自由席,東京地下鉄,,,02-530,東京地下鉄,36.00000000000013,東京,139.764708,35.681753,東京メトロ,大手町,139.7662,35.686564,東京メトロ
233,2017.09.17,B1115K,地下鉄,東京メトロ半蔵門線,普通,,,南栗橋,中央林間,東京メトロ,大手町,東京メトロ,神保町,1.7,13:05:00,,13:07:00,,00:02:00,自由席,東京地下鉄,,,5510,東京地下鉄,51.00000000000018,大手町,139.7662,35.686564,東京メトロ,神保町,139.757606,35.695966,東京メトロ
234,2017.09.17,1480K,地下鉄,都営新宿線,各駅停車,,,新宿,本八幡,東京都交通局,神保町,東京都交通局,岩本町,1.7,14:12:00,,14:16:00,,00:04:00,自由席,東京都交通局,,,9299,東京都交通局,25.50000000000009,神保町,139.75812,35.695492,東京都交通局,岩本町,139.775866,35.695534,東京都交通局
235,2017.09.17,1475G,ＪＲ,山手線,普通,,,大崎,外回り,JR東日本,秋葉原,JR東日本,東京,2.0,15:21:00,,15:25:00,,00:04:00,自由席,JR東日本,E231,500.0,サハE231-533,JR東日本,30.000000000000103,秋葉原,139.773288,35.698619,JR東日本,東京,139.766103,35.681391,JR東日本
236,2017.09.17,8377C,ＪＲ,上越新幹線,新幹線,MAXとき,377.0,東京,新潟,JR東日本,東京,JR東日本,新潟,333.9,15:56:00,,17:58:00,,02:02:00,指定席,JR東日本,E4,,E459-206,JR東日本,164.21311475409848,東京,139.766103,35.681391,JR東日本,新潟,139.060869,37.912299,JR東日本
237,2017.09.18,8266,ＪＲ,信越本線磐越西線,SL快速,SLばんえつ物語,,新潟,会津若松,JR東日本,新潟,JR東日本,咲花,35.2,09:30:00,1.0,10:39:00,5.0,01:09:00,指定席,JR東日本,12,,C57-180オハ12-313,JR東日本,30.608695652173882,新潟,139.060869,37.912299,JR東日本,咲花,139.29095,37.73500300000001,JR東日本
238,2017.09.18,227D,ＪＲ,磐越西線,普通,,,会津若松,新津,JR東日本,咲花,JR東日本,新津,20.0,11:01:00,8.0,11:32:00,7.0,00:31:00,自由席,JR東日本,キハ47,,キハ47-513,JR東日本,38.709677419354875,咲花,139.29095,37.73500300000001,JR東日本,新津,139.121445,37.800383,JR東日本
239,2017.09.18,441M,ＪＲ,信越本線,普通,,,長岡,内野,JR東日本,新津,JR東日本,新潟,15.2,11:35:00,7.0,11:55:00,5.0,00:20:00,自由席,JR東日本,E129,,クモハE129-21,JR東日本,45.60000000000016,新津,139.121445,37.800383,JR東日本,新潟,139.060869,37.912299,JR東日本
240,2017.09.18,9454C,ＪＲ,上越新幹線,新幹線,現美新幹線とき,454.0,新潟,越後湯沢,JR東日本,新潟,JR東日本,越後湯沢,134.7,14:02:00,,14:56:00,,00:54:00,指定席,JR東日本,E3,,E321-702,JR東日本,149.66666666666674,新潟,139.060869,37.912299,JR東日本,越後湯沢,138.809227,36.935799,JR東日本
241,2017.09.18,9455C,ＪＲ,上越新幹線,新幹線,現美新幹線とき,455.0,越後湯沢,新潟,JR東日本,越後湯沢,JR東日本,新潟,134.7,15:20:00,,16:14:00,,00:54:00,指定席,JR東日本,E3,,E321-702,JR東日本,149.66666666666674,越後湯沢,138.809227,36.935799,JR東日本,新潟,139.060869,37.912299,JR東日本
242,2017.09.19,3014M,ＪＲ,信越本線妙高はねうまライン,特急,しらゆき,4.0,新潟,上越妙高,JR東日本,新潟,トキてつ,上越妙高,146.7,10:21:00,,12:25:00,,02:04:00,指定席,JR東日本越後トキめき鉄道,E653,,クハE652-1102,JR東日本越後トキめき鉄道,70.98387096774195,新潟,139.060869,37.912299,JR東日本,上越妙高,138.249476,37.081813,トキてつ
243,2017.09.19,562E,ＪＲ,北陸新幹線,新幹線,はくたか,562.0,金沢,東京,トキてつ,上越妙高,JR東日本,長野,59.5,12:59:00,,13:18:00,,00:19:00,指定席,JR東日本,E7,,E725-202,JR東日本,187.89473684210432,上越妙高,138.249476,37.081813,トキてつ,長野,138.189101,36.643307,JR東日本
244,2017.09.19,215,私鉄,長野電鉄長野線,普通,,,長野,須坂,長電,長野,長電,善光寺下,1.6,14:08:00,,14:12:00,,00:04:00,自由席,長野電鉄,,,8516,長野電鉄,24.000000000000085,長野,138.188396,36.644341,長電,善光寺下,138.193513,36.658673,長電
245,2017.09.20,3504E,ＪＲ,北陸新幹線,新幹線,かがやき,504.0,金沢,東京,JR東日本,長野,JR東日本,大宮,192.1,08:55:00,,09:54:00,,00:59:00,指定席,JR東日本,W7,,W725-309,JR東日本,195.35593220338944,長野,138.189101,36.643307,JR東日本,大宮,139.62405,35.906439,JR東日本
246,2017.09.20,3509E,ＪＲ,北陸新幹線,新幹線,かがやき,509.0,東京,金沢,JR東日本,大宮,JR東日本,長野,192.1,10:48:00,,11:44:00,,00:56:00,指定席,JR東日本,E7,,E725-201,JR東日本,205.8214285714287,大宮,139.62405,35.906439,JR東日本,長野,138.189101,36.643307,JR東日本
247,2017.09.20,1014M,ＪＲ,信越本線篠ノ井線,L特急,ワイドビューしなの,14.0,長野,名古屋,JR東日本,長野,JR東日本,松本,62.7,13:00:00,,13:51:00,,00:51:00,指定席,JR東日本,383,,モハ383-7,JR東日本,73.76470588235297,長野,138.189101,36.643307,JR東日本,松本,137.96445,36.230393,JR東日本
248,2017.09.20,22M,ＪＲ,篠ノ井線中央本線,特急,スーパーあずさ,22.0,松本,新宿,JR東日本,松本,JR東日本,上諏訪,33.5,14:49:00,,15:12:00,,00:23:00,指定席,JR東日本,E351,,サハE351-4,JR東日本,87.3913043478264,松本,137.96445,36.230393,JR東日本,上諏訪,138.116306,36.046618,JR東日本
249,2017.09.20,441M,ＪＲ,中央本線篠ノ井線,普通,,,高尾,長野,JR東日本,上諏訪,JR東日本,松本,33.5,16:49:00,,17:31:00,,00:42:00,自由席,JR東日本,211,,モハ210-1,JR東日本,47.85714285714284,上諏訪,138.116306,36.046618,JR東日本,松本,137.96445,36.230393,JR東日本
250,2017.09.21,1830M,ＪＲ,篠ノ井線,普通,,,松本,木曽福島,JR東日本,松本,JR東日本,塩尻,13.3,13:24:00,,13:40:00,,00:16:00,自由席,JR東海,313,,クモハ313-1317,JR東海,49.87500000000018,松本,137.96445,36.230393,JR東日本,塩尻,137.947961,36.114364,JR東日本
251,2017.09.21,1832M,ＪＲ,中央本線,普通,,,松本,中津川,JR東日本,塩尻,JR東海,奈良井,21.1,14:50:00,,15:13:00,,00:23:00,自由席,JR東海,313,,クモハ313-1320,JR東海,55.04347826086976,塩尻,137.947961,36.114364,JR東日本,奈良井,137.816195,35.969476,JR東海
252,2017.09.21,1833M,ＪＲ,中央本線,普通,,,中津川,松本,JR東海,奈良井,JR東日本,塩尻,21.1,15:56:00,,16:20:00,,00:24:00,自由席,JR東海,311,,クハ312-1331,JR東海,52.75000000000019,奈良井,137.816195,35.969476,JR東海,塩尻,137.947961,36.114364,JR東日本
253,2017.09.21,439M,ＪＲ,篠ノ井線,普通,,,甲府,松本,JR東日本,塩尻,JR東日本,松本,13.3,16:39:00,,16:57:00,,00:18:00,自由席,JR東日本,211,,クモハ211-3013,JR東日本,44.33333333333349,塩尻,137.947961,36.114364,JR東日本,松本,137.96445,36.230393,JR東日本
254,2017.09.22,3225M,ＪＲ,大糸線,普通,,,松本,信濃大町,JR東日本,松本,JR東日本,信濃大町,35.1,07:15:00,,08:13:00,,00:58:00,自由席,JR東日本,E127,,クハE126-108,JR東日本,36.310344827586185,松本,137.96445,36.230393,JR東日本,信濃大町,137.861674,36.50031,JR東日本
255,2017.09.22,332,私鉄,富山地鉄本線,普通,,,立山,電鉄富山,富山地鉄,立山,富山地鉄,電鉄富山,34.0,15:20:00,,16:26:00,,01:06:00,自由席,富山地方鉄道,,,10041,富山地方鉄道,30.909090909090946,立山,137.445234,36.58325300000001,富山地鉄,電鉄富山,137.214163,36.700757,富山地鉄
256,2017.09.23,2C,路面電車,富山市内電車環状線,普通,,,富山駅,富山駅,富山地鉄,富山駅,富山地鉄,丸の内,1.1,10:20:00,,10:25:00,,00:05:00,自由席,富山地方鉄道,,,9001,富山地方鉄道,13.200000000000259,富山駅,137.2128801047802,36.70161021249118,富山地鉄,丸の内,137.208896,36.692563,富山地鉄
257,2017.09.23,1034D,ＪＲ,高山本線,L特急,ワイドビューひだ,14.0,富山,名古屋,JR東海,富山,JR東海,高山,89.4,13:02:00,,14:31:00,,01:29:00,指定席,JR東海,キハ85,,キハ85-1105,JR東海,60.26966292134821,富山,137.213091,36.701384,JR東海,高山,137.251301,36.140574,JR東海
258,2017.09.23,1829D,ＪＲ,高山本線,普通,,,高山,猪谷,JR東海,高山,JR東海,飛騨古川,14.9,15:50:00,,16:09:00,,00:19:00,自由席,JR東海,キハ25,,キハ25-1002,JR東海,47.05263157894754,高山,137.251301,36.140574,JR東海,飛騨古川,137.189681,36.236727,JR東海
259,2017.09.23,1040D,ＪＲ,高山本線,L特急,ワイドビューひだ,20.0,富山,名古屋,JR東海,飛騨古川,JR東海,高山,14.9,18:26:00,,18:39:00,,00:13:00,自由席,JR東海,キハ85,,キハ84-302,JR東海,68.76923076923187,飛騨古川,137.189681,36.236727,JR東海,高山,137.251301,36.140574,JR東海
260,2017.09.24,30D,ＪＲ,高山本線,L特急,ワイドビューひだ,10.0,高山,名古屋,JR東海,高山,JR東海,名古屋,166.7,12:33:00,,15:02:00,,02:29:00,指定席,JR東海,キハ85,,キハ85-1116,JR東海,67.12751677852351,高山,137.251301,36.140574,JR東海,名古屋,136.881637,35.170694,JR東海
261,2017.09.24,1596,私鉄,名鉄本線,普通,,,岩倉,東岡崎,名鉄,名鉄名古屋,名鉄,神宮前,5.8,15:54:00,,16:01:00,,00:07:00,自由席,名古屋鉄道,,,6411,名古屋鉄道,49.71428571428589,名鉄名古屋,136.884187,35.169252,名鉄,神宮前,136.912485,35.125857,名鉄
262,2017.09.24,3345F,ＪＲ,東海道線,普通,,,岡崎,岐阜,JR東海,熱田,JR東海,金山,1.9,16:47:00,,16:49:00,,00:02:00,自由席,JR東海,313,,モハ313-5014,JR東海,57.00000000000475,熱田,136.910502,35.130028,JR東海,金山,136.900517,35.142928,JR東海
263,2017.09.24,3147F,ＪＲ,東海道線,普通,,,浜松,岐阜,JR東海,金山,JR東海,名古屋,3.3,17:03:00,,17:10:00,,00:07:00,自由席,JR東海,311,,クハ310-6,JR東海,28.285714285714388,金山,136.900517,35.142928,JR東海,名古屋,136.881637,35.170694,JR東海
264,2017.09.25,1003M,ＪＲ,中央本線,L特急,ワイドビューしなの,3.0,名古屋,長野,JR東海,名古屋,JR東日本,塩尻,174.8,08:00:00,,09:53:00,,01:53:00,指定席,JR東海,383,,サハ383-107,JR東海,92.81415929203541,名古屋,136.881637,35.170694,JR東海,塩尻,137.947961,36.114364,JR東日本
265,2017.09.25,4053M,ＪＲ,中央本線,特急,あずさ,3.0,新宿,南小谷,JR東日本,塩尻,JR東日本,松本,13.3,10:15:00,,10:23:00,,00:08:00,指定席,JR東日本,E257,,クモハE257-1,JR東日本,99.75000000000036,塩尻,137.947961,36.114364,JR東日本,松本,137.96445,36.230393,JR東日本
266,2017.09.25,14M,ＪＲ,中央本線,特急,スーパーあずさ,14.0,松本,新宿,JR東日本,松本,JR東日本,新宿,225.1,11:08:00,,13:33:00,,02:25:00,指定席,JR東日本,E351,,モハE351-105,JR東日本,93.14482758620687,松本,137.96445,36.230393,JR東日本,新宿,139.700464,35.689729,JR東日本
267,2017.09.25,1272G1372G,ＪＲ,山手線,普通,,,大崎,内回り,JR東日本,新宿,JR東日本,品川,10.6,13:31:00,11.0,13:50:00,10.0,00:19:00,自由席,JR東日本,E235,,モハE234-12,JR東日本,33.47368421052615,新宿,139.700464,35.689729,JR東日本,品川,139.738999,35.62876,JR東日本
268,2017.09.25,1340A,ＪＲ,京浜東北線,快速,,,大船,大宮,JR東日本,品川,JR東日本,浜松町,3.7,14:50:00,,14:55:00,,00:05:00,自由席,JR東日本,E233,1000.0,モハE232-1483,JR東日本,44.400000000000155,品川,139.738999,35.62876,JR東日本,浜松町,139.757135,35.65539099999999,JR東日本
269,2017.09.25,1527,モノレール,東京モノレール羽田空港線,普通,,,浜松町,羽田空港第２ビル,東京モノレール,浜松町,東京モノレール,新整備場,16.2,15:00:00,,15:22:00,,00:22:00,自由席,東京モノレール,,,10053,東京モノレール,44.18181818181802,浜松町,139.756747,35.655666,東京モノレール,新整備場,139.786777,35.542773,東京モノレール
270,2017.09.25,1722,モノレール,東京モノレール羽田空港線,普通,,,羽田空港第２ビル,浜松町,東京モノレール,新整備場,東京モノレール,浜松町,16.2,17:43:00,,18:04:00,,00:21:00,自由席,東京モノレール,,,10021,東京モノレール,46.2857142857141,新整備場,139.786777,35.542773,東京モノレール,浜松町,139.756747,35.655666,東京モノレール
271,2017.09.25,1771A,ＪＲ,京浜東北線,普通,,,大宮,大船,JR東日本,浜松町,JR東日本,川崎,15.1,18:09:00,,18:30:00,,00:21:00,自由席,JR東日本,E233,1000.0,モハE232-1418,JR東日本,43.14285714285697,浜松町,139.757135,35.65539099999999,JR東日本,川崎,139.697485,35.531311,JR東日本
272,2017.09.25,2116C,ＪＲ,京浜東北線,普通,,,磯子,大宮,JR東日本,川崎,JR東日本,品川,11.4,21:34:00,,21:48:00,,00:14:00,自由席,JR東日本,E233,1000.0,モハE233-1007,JR東日本,48.85714285714303,川崎,139.697485,35.531311,JR東日本,品川,139.738999,35.62876,JR東日本
273,2017.09.26,850B,ＪＲ,京浜東北線,普通,,,大船,東十条,JR東日本,品川,JR東日本,御徒町,9.8,09:48:00,,10:05:00,2.0,00:17:00,自由席,JR東日本,E233,1000.0,モハE233-1214,JR東日本,34.58823529411777,品川,139.738999,35.62876,JR東日本,御徒町,139.774727,35.707282,JR東日本
274,2017.09.26,933G,ＪＲ,山手線,普通,,,大崎,外回り,JR東日本,御徒町,JR東日本,品川,9.8,10:15:00,,10:32:00,,00:17:00,自由席,JR東日本,E231,500.0,モハE231-512,JR東日本,34.58823529411761,御徒町,139.774727,35.707282,JR東日本,品川,139.738999,35.62876,JR東日本
275,2017.09.26,1003G1103G,ＪＲ,山手線,普通,,,大崎,内回り,JR東日本,品川,JR東日本,目白,14.2,11:01:00,,11:27:00,,00:26:00,自由席,JR東日本,E231,500.0,モハE230-561,JR東日本,32.76923076923088,品川,139.738999,35.62876,JR東日本,目白,139.706228,35.720476,JR東日本
276,2017.09.26,1228A1,地下鉄,都営大江戸線,普通,,,光が丘,都庁前,東京都交通局,落合南長崎,東京都交通局,新宿,5.9,12:53:00,,13:06:00,,00:13:00,自由席,東京都交通局,,,12-332,東京都交通局,27.23076923076933,落合南長崎,139.683303,35.723608,東京都交通局,新宿,139.698812,35.68869,東京都交通局
277,2017.09.26,1385K,ＪＲ,埼京線,普通,,,新宿,大宮,JR東日本,新宿,JR東日本,池袋,4.8,13:17:00,,13:23:00,,00:06:00,自由席,JR東日本,70,,70-066,JR東日本,48.00000000000017,新宿,139.700464,35.689729,JR東日本,池袋,139.711086,35.730256,JR東日本
278,2017.09.26,1509G,ＪＲ,山手線,普通,,,大崎,外回り,JR東日本,池袋,JR東日本,日暮里,6.5,16:02:00,,16:14:00,,00:12:00,自由席,JR東日本,E231,500.0,モハE230-557,JR東日本,32.500000000000114,池袋,139.711086,35.730256,JR東日本,日暮里,139.771287,35.727908,JR東日本
279,2017.09.26,1636G,ＪＲ,山手線,普通,,,大崎,内回り,JR東日本,日暮里,JR東日本,池袋,6.5,16:31:00,,16:44:00,,00:13:00,自由席,JR東日本,E231,500.0,サハE231-649,JR東日本,29.99999999999974,日暮里,139.771287,35.727908,JR東日本,池袋,139.711086,35.730256,JR東日本
280,2017.09.26,A1761,地下鉄,東京メトロ丸ノ内線,普通,,,池袋,荻窪,東京メトロ,池袋,東京メトロ,大手町,8.1,17:20:00,,17:34:00,,00:14:00,自由席,東京メトロ,,,02-139,東京メトロ,34.714285714285836,池袋,139.711086,35.730256,東京メトロ,大手町,139.7662,35.686564,東京メトロ
281,2017.09.26,B1705K,地下鉄,東京メトロ半蔵門線,普通,,,押上,長津田,東京メトロ,大手町,東京メトロ,神保町,1.7,17:38:00,,17:41:00,,00:03:00,自由席,東京メトロ,,,8728,東京メトロ,33.99999999999831,大手町,139.7662,35.686564,東京メトロ,神保町,139.757606,35.695966,東京メトロ
282,2017.09.26,1768K,地下鉄,都営新宿線,各駅停車,,,八幡山,本八幡,東京都交通局,神保町,東京都交通局,岩本町,1.7,18:30:00,,18:34:00,,00:04:00,自由席,東京都交通局,,,9587,東京都交通局,25.50000000000009,神保町,139.75812,35.695492,東京都交通局,岩本町,139.775866,35.695534,東京都交通局
283,2017.09.26,1810C,ＪＲ,京浜東北線,普通,,,桜木町,大宮,JR東日本,秋葉原,JR東日本,御徒町,1.0,19:19:00,9.0,19:21:00,9.0,00:02:00,自由席,JR東日本,E233,1000.0,モハE232-1017,JR東日本,30.000000000000103,秋葉原,139.773288,35.698619,JR東日本,御徒町,139.774727,35.707282,JR東日本
284,2017.09.26,1950G,ＪＲ,山手線,普通,,,大崎,内回り,JR東日本,御徒町,JR東日本,池袋,9.3,19:21:00,18.0,19:40:00,16.0,00:19:00,自由席,JR東日本,E231,500.0,サハE231-538,JR東日本,29.368421052631437,御徒町,139.774727,35.707282,JR東日本,池袋,139.711086,35.730256,JR東日本
285,2017.09.27,806K,ＪＲ,埼京線りんかい線,普通,,,大宮,新木場,JR東日本,池袋,東京臨海高速鉄道,天王洲アイル,17.8,08:52:00,,09:19:00,,00:27:00,自由席,JR東日本,E233,7000.0,クハE232-7018,JR東日本,39.55555555555558,池袋,139.711086,35.730256,JR東日本,天王洲アイル,139.750793,35.620562,東京臨海高速鉄道
286,2017.09.27,923,モノレール,東京モノレール羽田空港線,普通,,,浜松町,羽田空港第２ビル,東京モノレール,天王洲アイル,東京モノレール,新整備場,12.2,09:27:00,,09:43:00,,00:16:00,自由席,東京モノレール,,,1006,東京モノレール,45.749999999999936,天王洲アイル,139.750675,35.622908,東京モノレール,新整備場,139.786777,35.542773,東京モノレール
287,2017.09.27,1214,モノレール,東京モノレール羽田空港線,普通,,,羽田空港第２ビル,浜松町,東京モノレール,新整備場,東京モノレール,羽田空港国際線ビル,2.2,12:14:00,,12:17:00,,00:03:00,自由席,東京モノレール,,,1096,東京モノレール,44.00000000000016,新整備場,139.786777,35.542773,東京モノレール,羽田空港国際線ビル,139.768206,35.544169,東京モノレール
288,2017.09.27,G1216,モノレール,東京モノレール羽田空港線,空港快速,,,羽田空港第２ビル,浜松町,東京モノレール,羽田空港国際線ビル,東京モノレール,浜松町,14.0,12:20:00,,12:33:00,,00:13:00,自由席,東京モノレール,,,10016,東京モノレール,64.61538461538484,羽田空港国際線ビル,139.768206,35.544169,東京モノレール,浜松町,139.756747,35.655666,東京モノレール
289,2017.09.27,1138B,ＪＲ,京浜東北線,快速,,,磯子,南浦和,JR東日本,浜松町,JR東日本,東京,3.1,12:39:00,,12:43:00,,00:04:00,自由席,JR東日本,E233,1000.0,モハE232-1482,JR東日本,46.50000000000017,浜松町,139.757135,35.65539099999999,JR東日本,東京,139.766103,35.681391,JR東日本
290,2017.09.27,1118B,ＪＲ,京浜東北線,快速,,,大船,大宮,JR東日本,東京,JR東日本,秋葉原,2.0,12:59:00,,13:03:00,,00:04:00,自由席,JR東日本,E233,1000.0,モハE232-1273,JR東日本,29.999999999998906,東京,139.766103,35.681391,JR東日本,秋葉原,139.773288,35.698619,JR東日本
291,2017.09.27,1800G,ＪＲ,山手線,普通,,,大崎,内回り,JR東日本,秋葉原,JR東日本,池袋,10.3,18:43:00,5.0,19:04:00,3.0,00:21:00,自由席,JR東日本,E235,,モハE234-15,JR東日本,29.428571428571313,秋葉原,139.773288,35.698619,JR東日本,池袋,139.711086,35.730256,JR東日本
292,2017.09.29,2157,私鉄,西武池袋線,急行,,,池袋,飯能,西武,池袋,西武,西所沢,27.2,15:20:00,,15:47:00,,00:27:00,自由席,西武鉄道,,,9104,西武鉄道,60.444444444444656,池袋,139.711461,35.72913,西武,西所沢,139.455959,35.789303,西武
293,2017.09.29,5149,私鉄,西武狭山線,臨時各駅停車,,,西武新宿,西武球場前,西武,西所沢,西武,西武球場前,4.2,15:54:00,3.0,16:00:00,4.0,00:06:00,自由席,西武鉄道,,,20253,西武鉄道,42.00000000000015,西所沢,139.455959,35.789303,西武,西武球場前,139.41966,35.77093,西武
294,2017.09.29,6218,私鉄,西武狭山線,臨時快速,,,西武球場前,池袋,西武,西武球場前,西武,所沢,6.6,20:54:00,,21:05:00,,00:11:00,自由席,西武鉄道,,,2189,西武鉄道,35.9999999999996,西武球場前,139.41966,35.77093,西武,所沢,139.473324,35.786627,西武
295,2017.09.29,2190,私鉄,西武池袋線,急行,,,飯能,池袋,西武,所沢,西武,池袋,24.8,21:07:00,,21:32:00,,00:25:00,自由席,西武鉄道,,,32204,西武鉄道,59.51999999999983,所沢,139.473324,35.786627,西武,池袋,139.711461,35.72913,西武
296,2017.09.30,913G,ＪＲ,山手線,普通,,,大崎,外回り,JR東日本,池袋,JR東日本,田端,5.2,10:22:00,,10:30:00,,00:08:00,自由席,JR東日本,E235,,モハE235-6,JR東日本,39.00000000000014,池袋,139.711086,35.730256,JR東日本,田端,139.761229,35.737781,JR東日本
297,2017.09.30,1013A,ＪＲ,京浜東北線,快速,,,南浦和,蒲田,JR東日本,田端,JR東日本,上野,3.5,10:31:00,,10:35:00,,00:04:00,自由席,JR東日本,E233,1000.0,モハE232-1269,JR東日本,52.50000000000019,田端,139.761229,35.737781,JR東日本,上野,139.777043,35.71379,JR東日本
298,2017.09.30,317C,ＪＲ,上越新幹線,新幹線,MAXとき,317.0,東京,新潟,JR東日本,上野,JR東日本,大宮,26.7,10:46:00,,11:05:00,,00:19:00,自由席,JR東日本,E4,,E453-119,JR東日本,84.31578947368415,上野,139.777043,35.71379,JR東日本,大宮,139.62405,35.906439,JR東日本
299,2017.09.30,1137B,新交通,埼玉新都市交通伊奈線,普通,,,大宮,内宿,埼玉新都市交通,大宮,埼玉新都市交通,鉄道博物館,1.5,11:20:00,,11:22:00,,00:02:00,自由席,埼玉新都市交通,,,2202,埼玉新都市交通,45.00000000000016,大宮,139.62254,35.90750999999999,埼玉新都市交通,鉄道博物館,139.617796,35.920271,埼玉新都市交通
300,2017.09.30,1402A,新交通,埼玉新都市交通伊奈線,普通,,,内宿,大宮,埼玉新都市交通,鉄道博物館,埼玉新都市交通,大宮,1.5,14:14:00,,14:17:00,,00:03:00,自由席,埼玉新都市交通,,,2202,埼玉新都市交通,30.000000000000103,鉄道博物館,139.617796,35.920271,埼玉新都市交通,大宮,139.62254,35.90750999999999,埼玉新都市交通
301,2017.09.30,562E,ＪＲ,北陸新幹線,新幹線,はくたか,562.0,金沢,東京,JR東日本,大宮,JR東日本,上野,26.7,14:27:00,,14:46:00,,00:19:00,自由席,JR東日本,E7,,E726-218,JR東日本,84.31578947368381,大宮,139.62405,35.906439,JR東日本,上野,139.777043,35.71379,JR東日本
302,2017.09.30,1416C,ＪＲ,京浜東北線,快速,,,蒲田,南浦和,JR東日本,上野,JR東日本,田端,3.5,14:40:00,14.0,14:44:00,15.0,00:04:00,自由席,JR東日本,E233,1000.0,モハE233-1223,JR東日本,52.50000000000019,上野,139.777043,35.71379,JR東日本,田端,139.761229,35.737781,JR東日本
303,2017.09.30,1450G,ＪＲ,山手線,普通,,,大崎,内回り,JR東日本,田端,JR東日本,池袋,5.2,14:56:00,7.0,15:05:00,7.0,00:09:00,自由席,JR東日本,E231,500.0,クハE230-515,JR東日本,34.66666666666679,田端,139.761229,35.737781,JR東日本,池袋,139.711086,35.730256,JR東日本
304,2017.09.30,A1551K,地下鉄,東京メトロ副都心線,急行,Fライナー,,小手指,元町・中華街,東京メトロ,池袋,東京メトロ,新宿三丁目,5.3,15:56:00,4.0,16:02:00,2.0,00:06:00,自由席,東京地下鉄,,,4501,東京地下鉄,52.99999999999878,池袋,139.711086,35.730256,東京メトロ,新宿三丁目,139.704895,35.690847,東京メトロ
305,2017.09.30,2181K,ＪＲ,埼京線,普通,,,新宿,大宮,JR東日本,新宿,JR東日本,池袋,4.8,21:40:00,,21:46:00,,00:06:00,自由席,JR東日本,70,,70-028,JR東日本,48.00000000000017,新宿,139.700464,35.689729,JR東日本,池袋,139.711086,35.730256,JR東日本
306,2017.10.01,2235M2035M,ＪＲ,湘南新宿ライン総武線成田線,特急,成田エクスプレス,35.0,池袋,成田空港（第１旅客ターミナル）,JR東日本,池袋,JR東日本,成田空港（第１旅客ターミナル）,101.4,14:33:00,,15:57:00,,01:24:00,指定席,JR東日本,E259,,モハE259-22,JR東日本,72.42857142857154,池袋,139.711086,35.730256,JR東日本,成田空港（第１旅客ターミナル）,140.384644,35.763983,JR東日本
307,2017.10.07,531T,私鉄,京急空港線,エアポート急行,,,羽田空港国内線ターミナル,印旛日本医大,京急,羽田空港国際線ターミナル,京急,京急蒲田,4.5,05:26:00,,05:34:00,,00:08:00,自由席,京浜急行電鉄,,,5305,京浜急行電鉄,33.75000000000012,羽田空港国際線ターミナル,139.768968,35.544676,京急,京急蒲田,139.723681,35.560796,京急
308,2017.10.07,500,私鉄,京急本線,普通,,,品川,浦賀,京急,京急蒲田,京急,横浜,14.2,05:36:00,,05:58:00,,00:22:00,自由席,京浜急行電鉄,,,1327,京浜急行電鉄,38.727272727272656,京急蒲田,139.723681,35.560796,京急,横浜,139.623055,35.466066,京急
309,2017.10.07,3003,私鉄,相鉄本線,急行,,,横浜,海老名,相鉄,横浜,相鉄,二俣川,10.5,06:21:00,,06:32:00,,00:11:00,自由席,相模鉄道,,,9701,相模鉄道,57.27272727272748,横浜,139.621768,35.46585200000001,相鉄,二俣川,139.532207,35.463335,相鉄
310,2017.10.07,4515,私鉄,相鉄いずみ野線,各駅停車,,,横浜,湘南台,相鉄,二俣川,相鉄,湘南台,11.3,06:34:00,,06:50:00,,00:16:00,自由席,相模鉄道,,,8705,相模鉄道,42.37499999999994,二俣川,139.532207,35.463335,相鉄,湘南台,139.467031,35.396642,相鉄
311,2017.10.07,2538,私鉄,相鉄いずみ野線,快速,,,湘南台,横浜,相鉄,湘南台,相鉄,横浜,21.8,15:05:00,,15:35:00,4.0,00:30:00,自由席,相模鉄道,,,9213,相模鉄道,43.59999999999993,湘南台,139.467031,35.396642,相鉄,横浜,139.621768,35.46585200000001,相鉄
312,2017.10.07,1890E,ＪＲ,東海道線,普通,,,小田原,高崎,JR東日本,横浜,JR東日本,川崎,10.6,16:32:00,,16:40:00,,00:08:00,自由席,JR東日本,E231,,クハE231-8049,JR東日本,79.50000000000028,横浜,139.622704,35.466195,JR東日本,川崎,139.697485,35.531311,JR東日本
313,2017.10.07,1650E,ＪＲ,東海道線,普通,,,伊東,小金井,JR東日本,川崎,JR東日本,東京,18.2,22:01:00,,22:19:00,,00:18:00,自由席,JR東日本,E233,3000.0,モハE232-3828,JR東日本,60.666666666666345,川崎,139.697485,35.531311,JR東日本,東京,139.766103,35.681391,JR東日本
314,2017.10.08,T809F,地下鉄,名古屋地下鉄東山線,普通,,,高畑,藤が丘,名古屋市交通局,名古屋,名古屋市交通局,栄,2.4,08:21:00,,08:26:00,,00:05:00,自由席,名古屋市交通局,,,5356,名古屋市交通局,28.799999999999642,名古屋,136.883925,35.171252,名古屋市交通局,栄,136.908031,35.16999000000001,名古屋市交通局
315,2017.10.08,F953T,地下鉄,名古屋地下鉄東山線,普通,,,藤が丘,高畑,名古屋市交通局,栄,名古屋市交通局,名古屋,2.4,10:15:00,,10:20:00,,00:05:00,自由席,名古屋市交通局,,,5673,名古屋市交通局,28.799999999999642,栄,136.908031,35.16999000000001,名古屋市交通局,名古屋,136.883925,35.171252,名古屋市交通局
316,2017.10.08,5305G,ＪＲ,関西本線,快速,,,名古屋,亀山,JR東海,名古屋,JR東海,河原田,44.1,11:05:00,,11:49:00,,00:44:00,自由席,JR東海,313,,クハ312-1320,JR東海,60.13636363636374,名古屋,136.881637,35.170694,JR東海,河原田,136.598527,34.910684,JR東海
317,2017.10.08,119C,私鉄,伊勢鉄道,普通,,,四日市,津,伊勢鉄道,河原田,伊勢鉄道,鈴鹿サーキット稲生,9.1,11:52:00,,12:02:00,,00:10:00,自由席,伊勢鉄道,,,イセ101,伊勢鉄道,54.60000000000019,河原田,136.599031,34.910952,伊勢鉄道,鈴鹿サーキット稲生,136.555154,34.841053,伊勢鉄道
318,2017.10.08,9012D,ＪＲ,伊勢鉄道関西本線,特急,鈴鹿グランプリ,2.0,鈴鹿サーキット稲生,名古屋,伊勢鉄道,鈴鹿サーキット稲生,JR東海,名古屋,53.2,16:46:00,,17:44:00,,00:58:00,指定席,伊勢鉄道JR東海,キハ85,,キロハ84-2,伊勢鉄道JR東海,55.034482758620584,鈴鹿サーキット稲生,136.555154,34.841053,伊勢鉄道,名古屋,136.881637,35.170694,JR東海
319,2017.10.08,517H,私鉄,あおなみ線,普通,,,名古屋,金城ふ頭,名臨高,名古屋,名臨高,荒子川公園,8.2,18:12:00,,18:26:00,,00:14:00,自由席,名古屋臨海高速鉄道,,,1207,名古屋臨海高速鉄道,35.14285714285686,名古屋,136.882417,35.168733,名臨高,荒子川公園,136.861148,35.104569,名臨高
320,2017.10.08,444H,私鉄,あおなみ線,普通,,,金城ふ頭,名古屋,名臨高,荒子川公園,名臨高,名古屋,8.2,21:24:00,,21:38:00,,00:14:00,自由席,名古屋臨海高速鉄道,,,1605,名古屋臨海高速鉄道,35.14285714285686,荒子川公園,136.861148,35.104569,名臨高,名古屋,136.882417,35.168733,名臨高
321,2017.10.09,12A,ＪＲ,東海道新幹線,新幹線,のぞみ,12.0,博多,東海,JR東海,名古屋,JR東日本,品川,359.2,11:33:00,,13:06:00,,01:33:00,指定席,JR東海,N700A,5000.0,785-5601,JR東海,231.7419354838712,名古屋,136.881637,35.170694,JR東海,品川,139.738999,35.62876,JR東日本
322,2017.10.09,1181M,ＪＲ,上野東京ライン,普通,,,品川,土浦,JR東日本,品川,JR東日本,上野,10.4,13:17:00,,13:31:00,,00:14:00,自由席,JR東日本,E531,,クハE531-26,JR東日本,44.57142857142873,品川,139.738999,35.62876,JR東日本,上野,139.777043,35.71379,JR東日本
323,2017.10.09,B1321,地下鉄,東京メトロ銀座線,普通,,,渋谷,浅草,東京メトロ,上野,東京メトロ,浅草,2.2,13:35:00,2.0,13:40:00,2.0,00:05:00,自由席,東京地下鉄,,,1516,東京地下鉄,26.400000000000095,上野,139.777122,35.711482,東京メトロ,浅草,139.797592,35.710733,東京メトロ
324,2017.10.09,A1407,地下鉄,東京メトロ銀座線,普通,,,浅草,渋谷,東京メトロ,浅草,東京メトロ,末広町,3.3,14:59:00,2.0,15:08:00,2.0,00:09:00,自由席,東京地下鉄,,,1219,東京地下鉄,22.000000000000075,浅草,139.797592,35.710733,東京メトロ,末広町,139.771713,35.702972,東京メトロ
325,2017.10.09,1503G,ＪＲ,山手線,普通,,,大崎,外回り,JR東日本,秋葉原,JR東日本,新橋,3.9,15:52:00,3.0,16:00:00,2.0,00:08:00,自由席,JR東日本,E235,,モハE234-3,JR東日本,29.250000000000103,秋葉原,139.773288,35.698619,JR東日本,新橋,139.758587,35.666195,JR東日本
326,2017.10.09,1889E,ＪＲ,東海道線,普通,,,籠原,平塚,JR東日本,新橋,JR東日本,川崎,16.3,16:10:00,,16:24:00,,00:14:00,自由席,JR東日本,E231,,サハE231-3030,JR東日本,69.8571428571439,新橋,139.758587,35.666195,JR東日本,川崎,139.697485,35.531311,JR東日本
327,2017.10.10,906B,ＪＲ,京浜東北線,快速,,,大船,南浦和,JR東日本,川崎,JR東日本,蒲田,3.8,10:15:00,,10:20:00,,00:05:00,自由席,JR東日本,E233,1000.0,モハE233-1469,JR東日本,45.59999999999943,川崎,139.697485,35.531311,JR東日本,蒲田,139.716032,35.562517,JR東日本
328,2017.10.10,948A,ＪＲ,京浜東北線,快速,,,磯子,大宮,JR東日本,蒲田,JR東日本,秋葉原,16.4,10:25:00,,10:49:00,,00:24:00,自由席,JR東日本,E233,1000.0,モハE233-1015,JR東日本,40.999999999999865,蒲田,139.716032,35.562517,JR東日本,秋葉原,139.773288,35.698619,JR東日本
329,2017.10.10,1303C,ＪＲ,中央・総武線,普通,,,千葉,三鷹,JR東日本,秋葉原,JR東日本,代々木,7.9,14:16:00,,14:31:00,,00:15:00,自由席,JR東日本,E231,500.0,モハE231-526,JR東日本,31.599999999999778,秋葉原,139.773288,35.698619,JR東日本,代々木,139.702042,35.683061,JR東日本
330,2017.10.10,1372G,ＪＲ,山手線,普通,,,大崎,内回り,JR東日本,代々木,JR東日本,渋谷,2.7,14:36:00,,14:41:00,,00:05:00,自由席,JR東日本,E231,500.0,モハE231-605,JR東日本,32.39999999999908,代々木,139.702042,35.683061,JR東日本,渋谷,139.701238,35.658871,JR東日本
331,2017.10.10,1433G,ＪＲ,山手線,普通,,,大崎,外回り,JR東日本,渋谷,JR東日本,代々木,2.7,14:56:00,,15:00:00,,00:04:00,自由席,JR東日本,E231,500.0,クハE230-528,JR東日本,40.50000000000015,渋谷,139.701238,35.658871,JR東日本,代々木,139.702042,35.683061,JR東日本
332,2017.10.10,1409C,ＪＲ,中央・総武線,普通,,,津田沼,中野,JR東日本,代々木,JR東日本,新宿,0.7,14:59:00,6.0,15:01:00,5.0,00:02:00,自由席,JR東日本,209,500.0,サハ209-546,JR東日本,21.000000000000075,代々木,139.702042,35.683061,JR東日本,新宿,139.700464,35.689729,JR東日本
333,2017.10.10,1528B,ＪＲ,中央・総武線,普通,,,中野,千葉,JR東日本,新宿,JR東日本,代々木,0.7,15:13:00,,15:15:00,,00:02:00,自由席,JR東日本,E231,,サハE230-7,JR東日本,21.000000000000075,新宿,139.700464,35.689729,JR東日本,代々木,139.702042,35.683061,JR東日本
334,2017.10.10,1460G,ＪＲ,山手線,普通,,,大崎,内回り,JR東日本,代々木,JR東日本,渋谷,2.7,15:18:00,,15:23:00,,00:05:00,自由席,JR東日本,E231,500.0,クハE230-525,JR東日本,32.40000000000115,代々木,139.702042,35.683061,JR東日本,渋谷,139.701238,35.658871,JR東日本
335,2017.10.10,1760G1860G,ＪＲ,山手線,普通,,,大崎,内回り,JR東日本,渋谷,JR東日本,品川,7.2,18:38:00,2.0,18:50:00,1.0,00:12:00,自由席,JR東日本,E231,500.0,モハE231-575,JR東日本,36.00000000000013,渋谷,139.701238,35.658871,JR東日本,品川,139.738999,35.62876,JR東日本
336,2017.10.10,1807C,ＪＲ,京浜東北線,普通,,,南浦和,大船,JR東日本,品川,JR東日本,蒲田,7.6,18:57:00,,19:08:00,,00:11:00,自由席,JR東日本,E233,1000.0,モハE233-1208,JR東日本,41.4545454545456,品川,139.738999,35.62876,JR東日本,蒲田,139.716032,35.562517,JR東日本
337,2017.10.10,1835A,ＪＲ,京浜東北線,普通,,,南浦和,大船,JR東日本,蒲田,JR東日本,川崎,3.8,19:14:00,,19:18:00,,00:04:00,自由席,JR東日本,E233,1000.0,モハE232-1268,JR東日本,57.0000000000002,蒲田,139.716032,35.562517,JR東日本,川崎,139.697485,35.531311,JR東日本
338,2017.10.10,520M,ＪＲ,東海道線,普通,,,伊東,品川,JR東日本,川崎,JR東日本,品川,3.8,23:45:00,,23:55:00,,00:10:00,自由席,JR東日本,E231,,サハE231-1130,JR東日本,22.80000000000008,川崎,139.697485,35.531311,JR東日本,品川,139.738999,35.62876,JR東日本
339,2017.10.11,2418T,私鉄,京急空港線,エアポート急行,,,品川,羽田空港国内線ターミナル,京急,品川,京急,羽田空港国際線ターミナル,12.5,00:06:00,,00:25:00,,00:19:00,自由席,都営地下鉄,5300,,5309-5,京浜急行電鉄,39.47368421052631,品川,139.73809,35.628284,京急,羽田空港国際線ターミナル,139.768968,35.544676,京急
340,2017.11.17,205,モノレール,ゆいレール,普通,,,那覇空港,首里,沖縄都市モノレール,那覇空港,沖縄都市モノレール,旭橋,5.4,18:40:00,,18:50:00,,00:10:00,自由席,沖縄都市モノレール,,,1101,沖縄都市モノレール,32.40000000000012,那覇空港,127.652214,26.206515,沖縄都市モノレール,旭橋,127.675515,26.21191,沖縄都市モノレール
341,2017.11.18,43,モノレール,ゆいレール,普通,,,那覇空港,首里,沖縄都市モノレール,旭橋,沖縄都市モノレール,首里,7.5,09:46:00,,10:03:00,,00:17:00,自由席,沖縄都市モノレール,,,1216,沖縄都市モノレール,26.470588235294212,旭橋,127.675515,26.21191,沖縄都市モノレール,首里,127.725492,26.219191,沖縄都市モノレール
342,2017.11.18,96,モノレール,ゆいレール,普通,,,首里,那覇空港,沖縄都市モノレール,儀保,沖縄都市モノレール,牧志,4.2,13:13:00,,13:23:00,,00:10:00,自由席,沖縄都市モノレール,,,1103,沖縄都市モノレール,25.20000000000009,儀保,127.719039,26.224663,沖縄都市モノレール,牧志,127.69255,26.217248,沖縄都市モノレール
343,2017.11.18,134,モノレール,ゆいレール,普通,,,首里,那覇空港,沖縄都市モノレール,美栄橋,沖縄都市モノレール,旭橋,1.3,15:57:00,,16:00:00,,00:03:00,自由席,沖縄都市モノレール,,,1110,沖縄都市モノレール,26.000000000000096,美栄橋,127.684328,26.219245,沖縄都市モノレール,旭橋,127.675515,26.21191,沖縄都市モノレール
344,2017.11.20,140,モノレール,ゆいレール,普通,,,首里,那覇空港,沖縄都市モノレール,旭橋,沖縄都市モノレール,那覇空港,5.4,16:10:00,,16:21:00,,00:11:00,自由席,沖縄都市モノレール,,,1110,沖縄都市モノレール,29.454545454545563,旭橋,127.675515,26.21191,沖縄都市モノレール,那覇空港,127.652214,26.206515,沖縄都市モノレール
345,2017.12.18,1034M,ＪＲ,阪和線,特急,はるか,34.0,関西空港,京都,JR西日本,関西空港,JR西日本,新大阪,60.8,15:14:00,,16:05:00,,00:51:00,自由席,JR西日本,281,,サハ281-107,JR西日本,71.52941176470591,関西空港,135.243419,34.436,JR西日本,新大阪,135.501852,34.734136,JR西日本
346,2017.12.18,397,地下鉄,大阪市営地下鉄御堂筋線,普通,,,千里中央,なかもず,大阪メトロ,新大阪,大阪メトロ,なんば,7.6,17:31:00,,17:46:00,,00:15:00,自由席,大阪市営地下鉄,,,1417,大阪市営地下鉄,30.400000000000105,新大阪,135.498558,34.732919,大阪メトロ,なんば,135.500277,34.66631599999999,大阪メトロ
347,2017.12.18,558,地下鉄,大阪市営地下鉄御堂筋線,普通,,,なかもず,千里中央,大阪メトロ,なんば,大阪メトロ,新大阪,7.6,21:36:00,,21:51:00,,00:15:00,自由席,大阪市営地下鉄,,,1420,大阪市営地下鉄,30.399999999999782,なんば,135.500277,34.66631599999999,大阪メトロ,新大阪,135.498558,34.732919,大阪メトロ
348,2017.12.19,3438M,ＪＲ,東海道線,新快速,,,姫路,敦賀,JR西日本,新大阪,JR西日本,京都,39.0,10:20:00,,10:44:00,,00:24:00,自由席,JR西日本,223,,クハ222-2093,JR西日本,97.50000000000034,新大阪,135.501852,34.734136,JR西日本,京都,135.757748,34.985465,JR西日本
349,2017.12.19,3463M,ＪＲ,東海道線,新快速,,,近江塩津,姫路,JR西日本,京都,JR西日本,新大阪,39.0,13:45:00,,14:08:00,,00:23:00,自由席,JR西日本,223,,クモハ223-2057,JR西日本,101.73913043478227,京都,135.757748,34.985465,JR西日本,新大阪,135.501852,34.734136,JR西日本
350,2017.12.19,1721N,私鉄,京急空港線,エアポート急行,,,羽田空港国内線ターミナル,印旛日本医大,京急,羽田空港国内線ターミナル,京急,品川,14.5,17:32:00,,17:56:00,,00:24:00,自由席,京浜急行電鉄,,,9104,京浜急行電鉄,36.25000000000013,羽田空港国内線ターミナル,139.785962,35.549809,京急,品川,139.73809,35.628284,京急
351,2017.12.19,1898E,ＪＲ,東海道線,普通,,,平塚,籠原,JR東日本,品川,JR東日本,東京,6.8,18:06:00,,18:13:00,,00:07:00,自由席,JR東日本,E231,,モハE231-1581,JR東日本,58.28571428571582,品川,139.738999,35.62876,JR東日本,東京,139.766103,35.681391,JR東日本
352,2017.12.19,1700A,ＪＲ,京浜東北線,普通,,,大船,大宮,JR東日本,東京,JR東日本,秋葉原,2.0,18:20:00,,18:25:00,,00:05:00,自由席,JR東日本,E233,1000.0,モハE233-1081,JR東日本,23.999999999999318,東京,139.766103,35.681391,JR東日本,秋葉原,139.773288,35.698619,JR東日本
353,2017.12.19,1860G,ＪＲ,山手線,普通,,,大崎,内回り,JR東日本,秋葉原,JR東日本,池袋,10.3,19:06:00,,19:27:00,,00:21:00,自由席,JR東日本,E235,,モハE235-39,JR東日本,29.428571428571534,秋葉原,139.773288,35.698619,JR東日本,池袋,139.711086,35.730256,JR東日本
354,2017.12.19,A2147,地下鉄,東京メトロ丸ノ内線,普通,,,池袋,荻窪,東京メトロ,池袋,東京メトロ,東京,8.7,21:30:00,,21:47:00,,00:17:00,自由席,東京メトロ,,,02-216,東京メトロ,30.705882352940993,池袋,139.711086,35.730256,東京メトロ,東京,139.764708,35.681753,東京メトロ
355,2017.12.192017.12.20,5031M4031M,ＪＲ,東海道線,寝台特急,サンライズ出雲,,東京,出雲市,JR東日本,東京,JR西日本,出雲市,953.6,22:00:00,,09:58:00,,11:58:00,A寝台,JR東日本JR東海JR西日本,285,,サロハネ285-1,JR東日本JR東海JR西日本,79.68802228412257,東京,139.766103,35.681391,JR東日本,出雲市,132.756518,35.360694,JR西日本
356,2017.12.20,132D,ＪＲ,山陰本線,普通,,,西出雲,米子,JR西日本,出雲市,JR西日本,松江,32.7,10:41:00,,11:24:00,,00:43:00,自由席,JR西日本,キハ47,,キハ47-167,JR西日本,45.627906976744185,出雲市,132.756518,35.360694,JR西日本,松江,133.063871,35.463947,JR西日本
357,2017.12.20,322,私鉄,一畑電鉄北松江線,普通,,,松江しんじ湖温泉,電鉄出雲市,ばたでん,松江しんじ湖温泉,ばたでん,川跡,29.0,14:16:00,,15:04:00,,00:48:00,自由席,一畑電鉄,,,2103,一畑電鉄,36.25000000000001,松江しんじ湖温泉,133.046039,35.46731,ばたでん,川跡,132.776411,35.395127,ばたでん
358,2017.12.20,323,私鉄,一畑電鉄北松江線,普通,,,電鉄出雲市,松江しんじ湖温泉,ばたでん,川跡,ばたでん,雲州平田,6.0,15:05:00,,15:16:00,,00:11:00,自由席,一畑電鉄,,,1001,一畑電鉄,32.72727272727237,川跡,132.776411,35.395127,ばたでん,雲州平田,132.823685,35.432312,ばたでん
359,2017.12.20,324,私鉄,一畑電鉄北松江線,普通,,,松江しんじ湖温泉,電鉄出雲市,ばたでん,雲州平田,ばたでん,川跡,6.0,15:38:00,,15:48:00,,00:10:00,自由席,一畑電鉄,,,7001,一畑電鉄,36.00000000000013,雲州平田,132.823685,35.432312,ばたでん,川跡,132.776411,35.395127,ばたでん
360,2017.12.20,26,私鉄,一畑電鉄大社線,普通,,,川跡,出雲大社前,ばたでん,川跡,ばたでん,出雲大社前,8.3,15:50:00,,16:01:00,,00:11:00,自由席,一畑電鉄,,,7003,一畑電鉄,45.272727272727444,川跡,132.776411,35.395127,ばたでん,出雲大社前,132.687531,35.393245,ばたでん
361,2017.12.20,27,私鉄,一畑電鉄大社線,普通,,,出雲大社前,川跡,ばたでん,出雲大社前,ばたでん,川跡,8.3,17:13:00,,17:24:00,,00:11:00,自由席,一畑電鉄,,,7003,一畑電鉄,45.272727272726776,出雲大社前,132.687531,35.393245,ばたでん,川跡,132.776411,35.395127,ばたでん
362,2017.12.20,328,私鉄,一畑電鉄北松江線,普通,,,松江しんじ湖温泉,電鉄出雲市,ばたでん,川跡,ばたでん,電鉄出雲市,4.9,17:27:00,,17:36:00,,00:09:00,自由席,一畑電鉄,,,1003,一畑電鉄,32.6666666666662,川跡,132.776411,35.395127,ばたでん,電鉄出雲市,132.75777,35.36113,ばたでん
363,2017.12.21,1010M,ＪＲ,山陰本線,特急,やくも,10.0,出雲市,岡山,JR西日本,出雲市,JR西日本,米子,61.6,08:31:00,,09:20:00,,00:49:00,自由席,JR西日本,381,,モハ380-577,JR西日本,75.42857142857146,出雲市,132.756518,35.360694,JR西日本,米子,133.33657,35.42327,JR西日本
364,2017.12.21,1641D,ＪＲ,境線,普通,,,米子,境港,JR西日本,米子,JR西日本,境港,17.9,09:44:00,,10:25:00,,00:41:00,自由席,JR西日本,キハ40,,キハ40-2115,JR西日本,26.1951219512195,米子,133.33657,35.42327,JR西日本,境港,133.222762,35.545002,JR西日本
365,2017.12.21,1644D,ＪＲ,境線,普通,,,境港,米子,JR西日本,境港,JR西日本,米子空港,5.2,10:34:00,,10:48:00,,00:14:00,自由席,JR西日本,キハ40,,キハ40-2094,JR西日本,22.28571428571424,境港,133.222762,35.545002,JR西日本,米子空港,133.247372,35.502321,JR西日本
366,2017.12.21,1329D1328DX,私鉄,京急空港線,エアポート急行,,,羽田空港国内線ターミナル,金沢文庫,京急,羽田空港国内線ターミナル,京急,京急川崎,10.3,13:23:00,,13:39:00,,00:16:00,自由席,京浜急行電鉄,,,1914,京浜急行電鉄,38.62500000000014,羽田空港国内線ターミナル,139.785962,35.549809,京急,京急川崎,139.700893,35.53285,京急
367,2017.12.21,1431F,ＪＲ,南武線,普通,,,川崎,立川,JR東日本,川崎,JR東日本,武蔵小杉,7.5,14:39:00,,14:51:00,,00:12:00,自由席,JR東日本,E233,8000.0,クハE232-8013,JR東日本,37.500000000000135,川崎,139.697485,35.531311,JR東日本,武蔵小杉,139.65963,35.57669,JR東日本
368,2017.12.21,4830Y,ＪＲ,湘南新宿ライン,特別快速,,,小田原,高崎,JR東日本,武蔵小杉,JR東日本,新宿,20.6,15:00:00,,15:18:00,,00:18:00,自由席,JR東日本,E231,,モハE231-1058,JR東日本,68.6666666666663,武蔵小杉,139.65963,35.57669,JR東日本,新宿,139.700464,35.689729,JR東日本
369,2017.12.21,1638T,ＪＲ,中央線快速,快速,,,豊田,東京,JR東日本,新宿,JR東日本,御茶ノ水,7.7,17:11:00,,17:24:00,,00:13:00,自由席,JR東日本,E233,,モハE232-248,JR東日本,35.53846153846167,新宿,139.700464,35.689729,JR東日本,御茶ノ水,139.764955,35.699605,JR東日本
370,2017.12.21,1807C,ＪＲ,京浜東北線,普通,,,南浦和,大船,JR東日本,秋葉原,JR東日本,東京,2.0,18:42:00,,18:46:00,,00:04:00,自由席,JR東日本,E233,,モハE232-1038,JR東日本,30.000000000000103,秋葉原,139.773288,35.698619,JR東日本,東京,139.766103,35.681391,JR東日本
371,2017.12.21,1929E,ＪＲ,東海道線,普通,,,高崎,小田原,JR東日本,東京,JR東日本,川崎,18.2,18:54:00,,19:13:00,,00:19:00,自由席,JR東日本,E231,,モハE230-3579,JR東日本,57.47368421052652,東京,139.766103,35.681391,JR東日本,川崎,139.697485,35.531311,JR東日本
372,2017.12.22,1856E,ＪＲ,東海道線,普通,,,平塚,籠原,JR東日本,川崎,JR東日本,品川,11.4,10:51:00,,10:59:00,,00:08:00,自由席,JR東日本,E231,,サハE231-1021,JR東日本,85.5000000000003,川崎,139.697485,35.531311,JR東日本,品川,139.738999,35.62876,JR東日本
373,2017.12.22,960S961F3961F,ＪＲ,横須賀線総武線成田線,普通快速,エアポート成田,,久里浜,成田空港（第１旅客ターミナル）,JR東日本,品川,JR東日本,成田空港（第１旅客ターミナル）,86.0,11:04:00,,12:43:00,,01:39:00,自由席,JR東日本,E217,,クハE216-2009,JR東日本,52.121212121212096,品川,139.738999,35.62876,JR東日本,成田空港（第１旅客ターミナル）,140.384644,35.763983,JR東日本
374,2018.03.19,1816,モノレール,東京モノレール羽田空港線,普通,,,羽田空港第２ビル,浜松町,東京モノレール,羽田空港国際線ビル,東京モノレール,浜松町,14.0,18:29:00,,18:47:00,,00:18:00,自由席,東京モノレール,,,1068,東京モノレール,46.66666666666642,羽田空港国際線ビル,139.768206,35.544169,東京モノレール,浜松町,139.756747,35.655666,東京モノレール
375,2018.03.19,1733G,ＪＲ,山手線,普通,,,大崎,内回り,JR東日本,浜松町,JR東日本,品川,3.7,18:55:00,,19:00:00,3.0,00:05:00,自由席,JR東日本,E235,,モハE235-31,JR東日本,44.400000000001576,浜松町,139.757135,35.65539099999999,JR東日本,品川,139.738999,35.62876,JR東日本
376,2018.03.19,1593E,ＪＲ,東海道線,普通,,,上野,国府津,JR東日本,品川,JR東日本,川崎,11.4,19:12:00,,19:22:00,,00:10:00,グリーン車,JR東日本,E231,,サロE230-1060,JR東日本,68.39999999999915,品川,139.738999,35.62876,JR東日本,川崎,139.697485,35.531311,JR東日本
377,2018.03.20,1572E,ＪＲ,東海道線,普通,,,平塚,小金井,JR東日本,川崎,JR東日本,東京,18.2,10:00:00,,10:18:00,,00:18:00,自由席,JR東日本,E231,,サロE230-1001,JR東日本,60.66666666666661,川崎,139.697485,35.531311,JR東日本,東京,139.766103,35.681391,JR東日本
378,2018.03.20,928A,ＪＲ,山手線,普通,,,大船,大宮,JR東日本,東京,JR東日本,秋葉原,2.0,10:21:00,,10:25:00,,00:04:00,自由席,JR東日本,E233,,モハE232-1050,JR東日本,30.000000000000103,東京,139.766103,35.681391,JR東日本,秋葉原,139.773288,35.698619,JR東日本
379,2018.03.20,1161C,ＪＲ,中央・総武線,普通,,,津田沼,三鷹,JR東日本,秋葉原,JR東日本,御茶ノ水,0.9,12:31:00,,12:34:00,,00:03:00,自由席,JR東日本,E231,,モハE231-538,JR東日本,18.000000000000064,秋葉原,139.773288,35.698619,JR東日本,御茶ノ水,139.764955,35.699605,JR東日本
380,2018.03.20,1213H,ＪＲ,中央線快速,快速,,,東京,豊田,JR東日本,御茶ノ水,JR東日本,新宿,7.7,12:37:00,,12:46:00,,00:09:00,自由席,JR東日本,E233,,モハE232-249,JR東日本,51.33333333333351,御茶ノ水,139.764955,35.699605,JR東日本,新宿,139.700464,35.689729,JR東日本
381,2018.03.20,1231K,ＪＲ,埼京線,普通,,,新宿,大宮,JR東日本,新宿,JR東日本,池袋,4.8,12:57:00,,13:03:00,,00:06:00,自由席,JR東日本,E233,,クハE232-7017,JR東日本,47.99999999999889,新宿,139.700464,35.689729,JR東日本,池袋,139.711086,35.730256,JR東日本
382,2018.03.20,1529G,ＪＲ,山手線,普通,,,大崎,内回り,JR東日本,池袋,JR東日本,上野,8.7,16:06:00,,16:22:00,,00:16:00,自由席,JR東日本,E235,,サハE234-7,JR東日本,32.625000000000114,池袋,139.711086,35.730256,JR東日本,上野,139.777043,35.71379,JR東日本
383,2018.03.20,A1625,地下鉄,東京メトロ銀座線,普通,,,浅草,渋谷,東京メトロ,上野,東京メトロ,末広町,1.1,16:27:00,,16:30:00,,00:03:00,自由席,東京メトロ,,,1427,東京メトロ,22.00000000000008,上野,139.777122,35.711482,東京メトロ,末広町,139.771713,35.702972,東京メトロ
384,2018.03.20,1737C,ＪＲ,京浜東北線,普通,,,大宮,桜木町,JR東日本,秋葉原,JR東日本,東京,2.0,17:51:00,,17:55:00,,00:04:00,自由席,JR東日本,E233,1000.0,モハE232-1039,JR東日本,30.000000000000103,秋葉原,139.773288,35.698619,JR東日本,東京,139.766103,35.681391,JR東日本
385,2018.03.20,1583E,ＪＲ,東海道線,普通,,,小金井,熱海,JR東日本,東京,JR東日本,川崎,18.2,17:59:00,,18:18:00,,00:19:00,グリーン車,JR東日本,E231,,サロE230-1026,JR東日本,57.47368421052604,東京,139.766103,35.681391,JR東日本,川崎,139.697485,35.531311,JR東日本
386,2018.03.21,1526E,ＪＲ,東海道線,普通,,,小田原,小金井,JR東日本,川崎,JR東日本,東京,18.2,07:08:00,,07:28:00,,00:20:00,グリーン車,JR東日本,E231,,サロE231-1075,JR東日本,54.59999999999997,川崎,139.697485,35.531311,JR東日本,東京,139.766103,35.681391,JR東日本
387,2018.03.21,5B,ＪＲ,東北新幹線北海道新幹線,新幹線,はやぶさ,5.0,東京,新函館北斗,JR東日本,東京,JR北海道,新函館北斗,862.5,08:20:00,,12:22:00,,04:02:00,グリーン車,JR東日本,E5,,E515-25,JR東日本JR北海道,213.84297520661156,東京,139.766103,35.681391,JR東日本,新函館北斗,140.646525,41.9054,JR北海道
388,2018.03.21,11D,ＪＲ,函館本線,特急,スーパー北斗,11.0,函館,札幌,JR北海道,新函館北斗,JR北海道,東室蘭,171.6,12:34:00,,14:36:00,,02:02:00,グリーン車,JR北海道,キハ261,,キロ261-1112,JR北海道,84.3934426229509,新函館北斗,140.646525,41.9054,JR北海道,東室蘭,141.026411,42.349374,JR北海道
389,2018.03.21,4462D,ＪＲ,室蘭本線,普通,,,東室蘭,室蘭,JR北海道,東室蘭,JR北海道,母恋,5.9,14:59:00,,15:09:00,,00:10:00,自由席,JR北海道,キハ150,,キハ150-110,JR北海道,35.40000000000013,東室蘭,141.026411,42.349374,JR北海道,母恋,140.990018,42.317295,JR北海道
390,2018.03.21,4463D,ＪＲ,室蘭本線,普通,,,室蘭,東室蘭,JR北海道,室蘭,JR北海道,東室蘭,7.0,17:00:00,,17:13:00,,00:13:00,自由席,JR北海道,キハ40,,キハ40 1824,JR北海道,32.30769230769282,室蘭,140.97571,42.317864,JR北海道,東室蘭,141.026411,42.349374,JR北海道
391,2018.03.21,15D,ＪＲ,室蘭本線,特急,スーパー北斗,15.0,函館,札幌,JR北海道,東室蘭,JR北海道,札幌,129.2,17:17:00,,18:41:00,,01:24:00,グリーン車,JR北海道,キハ281,,キロ280-2,JR北海道,92.28571428571443,東室蘭,141.026411,42.349374,JR北海道,札幌,141.350768,43.068612,JR北海道
392,2018.03.22,537M,ＪＲ,札沼線,普通,,,札幌,石狩当別,JR北海道,札幌,JR北海道,石狩当別,27.5,06:58:00,,07:38:00,,00:40:00,自由席,JR北海道,733,,クハ733-3202,JR北海道,41.250000000000064,札幌,141.350768,43.068612,JR北海道,石狩当別,141.513764,43.22208,JR北海道
393,2018.03.22,5425D,ＪＲ,札沼線,普通,,,石狩当別,新十津川,JR北海道,石狩当別,JR北海道,新十津川,50.6,07:45:00,,09:28:00,,01:43:00,自由席,JR北海道,キハ40,,キハ40 401,JR北海道,29.47572815533982,石狩当別,141.513764,43.22208,JR北海道,新十津川,141.874172,43.545575,JR北海道
394,2018.03.22,3013M,ＪＲ,函館本線,特急,ライラック,13.0,札幌,旭川,JR北海道,滝川,JR北海道,旭川,53.3,11:52:00,,12:25:00,,00:33:00,グリーン車,JR北海道,789,,クロハ789-103,JR北海道,96.90909090909126,滝川,141.900807,43.555278,JR北海道,旭川,142.357803,43.763492,JR北海道
395,2018.03.22,61D,ＪＲ,宗谷本線,特急,サロベツ,1.0,旭川,稚内,JR北海道,旭川,JR北海道,稚内,259.4,13:35:00,,17:21:00,,03:46:00,グリーン車,JR北海道,キハ261,,キロハ261-203,JR北海道,68.8672566371681,旭川,142.357803,43.763492,JR北海道,稚内,141.676999,45.416995,JR北海道
396,2018.03.22,52D,ＪＲ,宗谷本線,特急,宗谷,,稚内,札幌,JR北海道,稚内,JR北海道,旭川,259.4,17:46:00,,21:26:00,,03:40:00,グリーン車,JR北海道,キハ261,,キロハ261-203,JR北海道,70.74545454545448,稚内,141.676999,45.416995,JR北海道,旭川,142.357803,43.763492,JR北海道
397,2018.03.23,3014M,ＪＲ,函館本線在,特急,ライラック,14.0,旭川,札幌,JR北海道,旭川,JR北海道,滝川,53.3,09:00:00,,09:32:00,,00:32:00,グリーン車,JR北海道,789,,クロハ789-102,JR北海道,99.9375000000001,旭川,142.357803,43.763492,JR北海道,滝川,141.900807,43.555278,JR北海道
398,2018.03.23,9627D,ＪＲ,根室本線,普通,,,滝川,東鹿越,JR北海道,滝川,JR北海道,東鹿越,94.8,09:42:00,,12:00:00,,02:18:00,自由席,JR北海道,キハ40,,キハ40 1751,JR北海道,41.21739130434781,滝川,141.900807,43.555278,JR北海道,東鹿越,142.523472,43.164011,JR北海道
399,2018.03.23,103,ＪＲ,根室本線,代行バス,,,東鹿越,新得,JR北海道,東鹿越,JR北海道,新得,41.5,12:05:00,,13:13:00,,01:08:00,自由席,JR北海道,,,札幌230 ぁ10-02,JR北海道,36.617647058823486,東鹿越,142.523472,43.164011,JR北海道,新得,142.832432,43.082501,JR北海道
400,2018.03.23,4005D,ＪＲ,根室本線,特急,スーパーおおぞら,5.0,札幌,釧路,JR北海道,新得,JR北海道,釧路,172.1,13:52:00,,15:56:00,,02:04:00,グリーン車,JR北海道,キハ283,,キロ282-6,JR北海道,83.27419354838717,新得,142.832432,43.082501,JR北海道,釧路,144.381983,42.99058400000001,JR北海道
401,2018.03.23,5633D,ＪＲ,根室本線,普通,,,釧路,根室,JR北海道,釧路,JR北海道,根室,135.4,16:17:00,,18:49:00,,02:32:00,自由席,JR北海道,キハ54,,キハ54 518,JR北海道,53.44736842105266,釧路,144.381983,42.99058400000001,JR北海道,根室,145.582707,43.326923,JR北海道
402,2018.03.23,5634D,ＪＲ,根室本線,普通,,,根室,釧路,JR北海道,根室,JR北海道,釧路,135.4,19:01:00,,21:38:00,,02:37:00,自由席,JR北海道,キハ54,,キハ54 518,JR北海道,51.74522292993628,根室,145.582707,43.326923,JR北海道,釧路,144.381983,42.99058400000001,JR北海道
403,2018.03.24,3728D,ＪＲ,釧網本線,快速,しれとこ摩周,,釧路,網走,JR北海道,釧路,JR北海道,網走,169.1,08:57:00,,11:53:00,,02:56:00,自由席,JR北海道,キハ54,,キハ54 526,JR北海道,57.64772727272726,釧路,144.381983,42.99058400000001,JR北海道,網走,144.254156,44.019873,JR北海道
404,2018.03.24,4670D,ＪＲ,石北本線,普通,,,網走,北見,JR北海道,網走,JR北海道,女満別,15.9,16:36:00,,16:53:00,,00:17:00,自由席,JR北海道,キハ40,,キハ40 1727,JR北海道,56.117647058824254,網走,144.254156,44.019873,JR北海道,女満別,144.170665,43.915886,JR北海道
405,2018.03.24,74D,ＪＲ,石北本線,特急,オホーツク,4.0,網走,札幌,JR北海道,女満別,JR北海道,札幌,358.6,17:40:00,,22:53:00,,05:13:00,グリーン車,JR北海道,キハ183,,キロハ182-6,JR北海道,68.74121405750803,女満別,144.170665,43.915886,JR北海道,札幌,141.350768,43.068612,JR北海道
406,2018.03.25,3854M,ＪＲ,千歳線,快速,エアポート,64.0,小樽,新千歳空港,JR北海道,札幌,JR北海道,新千歳空港,46.6,06:43:00,,07:22:00,,00:39:00,指定席,JR北海道,733,,サハ733-3201,JR北海道,71.6923076923078,札幌,141.350768,43.068612,JR北海道,新千歳空港,141.680823,42.787546,JR北海道
407,2018.03.25,1013D,私鉄,京急空港線,エアポート急行,,,羽田空港国内線ターミナル,新逗子,京急,羽田空港国内線ターミナル,京急,京急蒲田,6.5,10:33:00,,10:45:00,,00:12:00,自由席,京浜急行電鉄,,,1211,京浜急行電鉄,32.500000000000114,羽田空港国内線ターミナル,139.785962,35.549809,京急,京急蒲田,139.723681,35.560796,京急
408,2018.03.25,963SH,私鉄,京急本線,快特,,,三崎口,高砂,京急,京急蒲田,京急,品川,8.0,10:45:00,3.0,10:51:00,3.0,00:06:00,自由席,京浜急行電鉄,,,605-4,京浜急行電鉄,80.00000000000028,京急蒲田,139.723681,35.560796,京急,品川,139.73809,35.628284,京急
409,2018.03.25,1071G1171G,ＪＲ,山手線,普通,,,大崎,外回り,JR東日本,品川,JR東日本,恵比寿,5.6,11:04:00,,11:13:00,,00:09:00,自由席,JR東日本,E231,500.0,モハE231-505,JR東日本,37.33333333333314,品川,139.738999,35.62876,JR東日本,恵比寿,139.71007,35.646685,JR東日本
410,2018.03.25,A933T,地下鉄,東京メトロ日比谷線,普通,,,北千住,中目黒,東京メトロ,恵比寿,東京メトロ,中目黒,1.0,11:16:00,2.0,11:18:00,2.0,00:02:00,自由席,東京メトロ,,,26803,東京メトロ,30.000000000000103,恵比寿,139.708988,35.647332,東京メトロ,中目黒,139.698621,35.643854,東京メトロ
411,2018.03.25,705111,私鉄,東急東横線,急行,,,和光市,元町・中華街,東急,中目黒,東急,武蔵小杉,8.6,12:03:00,,12:15:00,,00:12:00,自由席,東京急行電鉄,,,7315,東京急行電鉄,43.00000000000015,中目黒,139.698621,35.643854,東急,武蔵小杉,139.659652,35.575752,東急
412,2018.03.25,1110F,ＪＲ,南武線,普通,,,立川,川崎,JR東日本,武蔵小杉,JR東日本,川崎,7.5,12:21:00,,12:33:00,,00:12:00,自由席,JR東日本,E233,8000.0,クハE233-8031,JR東日本,37.49999999999964,武蔵小杉,139.65963,35.57669,JR東日本,川崎,139.697485,35.531311,JR東日本
413,2018.03.25,3526E,ＪＲ,東海道線,快速,アクティー,,熱海,宇都宮,JR東日本,川崎,JR東日本,品川,11.4,13:32:00,,13:41:00,,00:09:00,グリーン車,JR東日本,E231,,サロE230-1023,JR東日本,76.00000000000027,川崎,139.697485,35.531311,JR東日本,品川,139.738999,35.62876,JR東日本
414,2018.03.25,2031M,ＪＲ,横須賀線総武線成田線,特急,成田エクスプレス,31.0,大船,成田空港（第１旅客ターミナル）,JR東日本,品川,JR東日本,成田空港（第１旅客ターミナル）,86.0,13:50:00,,14:57:00,,01:07:00,グリーン車,JR東日本,E259,,クロE259-4,JR東日本,77.01492537313442,品川,139.738999,35.62876,JR東日本,成田空港（第１旅客ターミナル）,140.384644,35.763983,JR東日本
415,2018.05.29,2005D,私鉄,京急空港線,エアポート急行,,,羽田空港国内線ターミナル,新逗子,京急,羽田空港国際線ターミナル,京急,京急蒲田,4.5,20:12:00,,20:19:00,,00:07:00,自由席,京浜急行電鉄,,,1901,京浜急行電鉄,38.571428571428704,羽田空港国際線ターミナル,139.768968,35.544676,京急,京急蒲田,139.723681,35.560796,京急
416,2018.05.29,1903A,私鉄,京急本線,快特,,,三崎口,品川,京急,京急蒲田,京急,品川,8.0,20:28:00,,20:36:00,,00:08:00,自由席,京浜急行電鉄,,,3027-8,京浜急行電鉄,59.99999999999901,京急蒲田,139.723681,35.560796,京急,品川,139.73809,35.628284,京急
417,2018.05.30,806A,私鉄,京急本線,快特,,,品川,三崎口,京急,品川,京急,京急蒲田,8.0,08:09:00,,08:20:00,,00:11:00,自由席,京浜急行電鉄,,,1211,京浜急行電鉄,43.63636363636348,品川,139.73809,35.628284,京急,京急蒲田,139.723681,35.560796,京急
418,2018.05.30,628N,私鉄,京急空港線,エアポート急行,,,印西牧の原,羽田空港国内線ターミナル,京急,京急蒲田,京急,羽田空港国内線ターミナル,6.5,08:26:00,,08:38:00,,00:12:00,自由席,京浜急行電鉄,,,7315,京浜急行電鉄,32.500000000000114,京急蒲田,139.723681,35.560796,京急,羽田空港国内線ターミナル,139.785962,35.549809,京急
419,2018.05.30,217,地下鉄,福岡市営地下鉄空港線,普通,,,福岡空港,姪浜,福岡市交通局,福岡空港,福岡市交通局,博多,3.3,12:08:00,,12:13:00,,00:05:00,自由席,福岡市交通局,,,2002,福岡市交通局,39.600000000000136,福岡空港,130.448501,33.59718,福岡市交通局,博多,130.42085,33.590204,福岡市交通局
420,2018.05.30,5331A,ＪＲ,九州新幹線,新幹線,つばめ,331.0,博多,熊本,JR西日本,博多,JR九州,久留米,35.7,16:56:00,,17:14:00,,00:18:00,指定席,JR九州,800,1000.0,822-1107,JR九州,119.00000000000044,博多,130.420622,33.590002,JR西日本,久留米,130.501408,33.319778,JR九州
421,2018.05.30,5340A,ＪＲ,九州新幹線,新幹線,つばめ,340.0,鹿児島中央,博多,JR九州,久留米,JR西日本,博多,35.7,19:03:00,,19:20:00,,00:17:00,指定席,JR九州,800,0.0,826-103,JR九州,126.00000000000165,久留米,130.501408,33.319778,JR九州,博多,130.420622,33.590002,JR西日本
422,2018.05.31,8001D,ＪＲ,鹿児島本線日豊本線,特急,ゆふいんの森,91.0,博多,由布院,JR西日本,博多,JR九州,大分,200.1,09:38:00,,12:22:00,,02:44:00,指定席,JR九州,キハ71,,キハ71-2,JR九州,73.20731707317067,博多,130.420622,33.590002,JR西日本,大分,131.606595,33.232794,JR九州
423,2018.05.31,3040M,ＪＲ,日豊本線鹿児島本線,特急,ソニック,40.0,大分,博多,JR九州,大分,JR九州,博多,200.1,15:11:00,,17:28:00,,02:17:00,指定席,JR九州,883,,モハ883-205,JR九州,87.63503649635037,大分,131.606595,33.232794,JR九州,博多,130.420622,33.590002,JR九州
424,2018.05.31,3328M,ＪＲ,鹿児島本線,区間快速,,,大牟田,小倉,JR九州,博多,JR九州,香椎,8.4,20:24:00,,20:36:00,,00:12:00,自由席,JR九州,813,,クハ812-1001,JR九州,41.999999999999595,博多,130.420622,33.590002,JR九州,香椎,130.444063,33.65922800000001,JR九州
425,2018.05.31,5020M,ＪＲ,鹿児島本線,特急,にちりんシーガイア,20.0,宮崎空港,博多,JR九州,香椎,JR九州,博多,8.4,20:50:00,,20:57:00,,00:07:00,指定席,JR九州,783,,クロハ782-2,JR九州,71.99999999999862,香椎,130.444063,33.65922800000001,JR九州,博多,130.420622,33.590002,JR九州
426,2018.06.01,821A,ＪＲ,博多南線,特急,,,博多,博多南,JR西日本,博多,JR西日本,博多南,8.5,07:42:00,,07:50:00,,00:08:00,自由席,JR西日本,500,7000.0,526-7206,JR西日本,63.75000000000023,博多,130.420622,33.590002,JR西日本,博多南,130.436997,33.517955,JR西日本
427,2018.06.01,2818A,ＪＲ,博多南線,特急,,,博多南,博多,JR西日本,博多南,JR西日本,博多,8.5,08:07:00,,08:15:00,,00:08:00,自由席,JR西日本,700,7000.0,723-7004,JR西日本,63.75000000000023,博多南,130.436997,33.517955,JR西日本,博多,130.420622,33.590002,JR西日本
428,2018.06.01,605A,ＪＲ,九州新幹線,新幹線,みずほ,605.0,新大阪,鹿児島中央,JR西日本,博多,JR九州,熊本,118.4,11:25:00,,11:57:00,,00:32:00,指定席,JR九州,N700,8000.0,787-8501,JR九州,222.00000000000023,博多,130.420622,33.590002,JR西日本,熊本,130.688499,32.789207,JR九州
429,2018.06.01,551A,ＪＲ,九州新幹線,新幹線,さくら,551.0,新大阪,鹿児島中央,JR九州,熊本,JR九州,鹿児島中央,170.5,13:23:00,,14:09:00,,00:46:00,指定席,JR西日本,N700,7000.0,782-7001,JR九州,222.39130434782612,熊本,130.688499,32.789207,JR九州,鹿児島中央,130.541789,31.583727,JR九州
430,2018.06.01,6012M,ＪＲ,日豊本線,特急,きりしま,12.0,鹿児島中央,宮崎,JR九州,鹿児島中央,JR九州,宮崎,125.9,14:19:00,,16:20:00,,02:01:00,指定席,JR九州,787,,クロハ786-1,JR九州,62.42975206611576,鹿児島中央,130.541789,31.583727,JR九州,宮崎,131.431975,31.915742,JR九州
431,2018.06.02,6009M,ＪＲ,日豊本線,特急,きりしま,9.0,宮崎,鹿児島中央,JR九州,宮崎,JR九州,鹿児島中央,125.9,10:16:00,,12:26:00,,02:10:00,指定席,JR九州,787,,クロハ786-2,JR九州,58.107692307692304,宮崎,131.431975,31.915742,JR九州,鹿児島中央,130.541789,31.583727,JR九州
432,2018.06.02,2442M,ＪＲ,鹿児島本線,普通,,,鹿児島中央,川内,JR九州,鹿児島中央,JR九州,川内,46.1,13:26:00,,14:15:00,,00:49:00,自由席,JR九州,817,,クハ816-18,JR九州,56.44897959183675,鹿児島中央,130.541789,31.583727,JR九州,川内,130.31213,31.813726,JR九州
433,2018.06.02,8188D,私鉄,肥薩おれんじ鉄道,快速,おれんじ食堂スウィーツ,3.0,川内,新八代,肥薩おれんじ鉄道,川内,肥薩おれんじ鉄道,出水,51.3,14:52:00,,16:28:00,,01:36:00,指定席,肥薩おれんじ鉄道,,,HSOR-114,肥薩おれんじ鉄道,32.06250000000006,川内,130.31213,31.813726,肥薩おれんじ鉄道,出水,130.357803,32.089275,肥薩おれんじ鉄道
434,2018.06.02,8188D,私鉄,肥薩おれんじ鉄道,快速,おれんじ食堂ディナー,4.0,川内,新八代,肥薩おれんじ鉄道,出水,JR九州,新八代,68.4,16:40:00,,18:38:00,,01:58:00,指定席,肥薩おれんじ鉄道,,,HSOR-116,肥薩おれんじ鉄道,34.779661016949184,出水,130.357803,32.089275,肥薩おれんじ鉄道,新八代,130.634919,32.517888,JR九州
435,2018.06.02,570A,ＪＲ,九州新幹線,新幹線,さくら,570.0,鹿児島中央,新大阪,JR九州,新八代,JR九州,熊本,32.9,18:52:00,,19:03:00,,00:11:00,自由席,JR西日本,N700,7000.0,788-7006,JR九州,179.45454545454348,新八代,130.634919,32.517888,JR九州,熊本,130.688499,32.789207,JR九州
436,2018.06.03,563A,ＪＲ,九州新幹線,新幹線,さくら,563.0,新大阪,鹿児島中央,JR九州,熊本,JR九州,鹿児島中央,170.5,19:12:00,,19:57:00,,00:45:00,指定席,JR九州,N700,8000.0,787-8005,JR九州,227.33333333333334,熊本,130.688499,32.789207,JR九州,鹿児島中央,130.541789,31.583727,JR九州
437,2018.06.03,8022D,ＪＲ,鹿児島本線日豊本線肥薩線,特急,はやとの風,2.0,鹿児島中央,吉松,JR九州,鹿児島中央,JR九州,吉松,68.5,09:26:00,,11:11:00,,01:45:00,指定席,JR九州,キハ147,,キハ147-1045,JR九州,39.14285714285713,鹿児島中央,130.541789,31.583727,JR九州,吉松,130.738104,32.012026,JR九州
438,2018.06.03,1292D,ＪＲ,肥薩線,普通,しんぺい,2.0,吉松,人吉,JR九州,吉松,JR九州,人吉,35.0,11:49:00,,13:08:00,,01:19:00,指定席,JR九州,キハ47,,キハ47-8159,JR九州,26.58227848101267,吉松,130.738104,32.012026,JR九州,人吉,130.753797,32.216142,JR九州
439,2018.06.03,8242,ＪＲ,肥薩線,SL快速,SL人吉,,人吉,熊本,JR九州,人吉,JR九州,熊本,87.5,14:38:00,,17:14:00,,02:36:00,指定席,JR九州,50,,58654オハフ50-701,JR九州,33.65384615384614,人吉,130.753797,32.216142,JR九州,熊本,130.688499,32.789207,JR九州
440,2018.06.03,559A,ＪＲ,九州新幹線,新幹線,さくら,559.0,新大阪,鹿児島中央,JR九州,熊本,JR九州,鹿児島中央,170.5,17:22:00,,18:10:00,,00:48:00,指定席,JR西日本,N700,7000.0,787-7011,JR九州,213.12499999999935,熊本,130.688499,32.789207,JR九州,鹿児島中央,130.541789,31.583727,JR九州
441,2018.06.04,1313D,私鉄,京急空港線,エアポート急行,,,羽田空港国内線ターミナル,新逗子,京急,羽田空港国内線ターミナル,京急,京急蒲田,6.5,13:43:00,,13:55:00,,00:12:00,自由席,京浜急行電鉄,,,1003,京浜急行電鉄,32.500000000000114,羽田空港国内線ターミナル,139.785962,35.549809,京急,京急蒲田,139.723681,35.560796,京急
442,2018.06.04,1321N,私鉄,京急本線,快特,,,羽田空港国内線ターミナル,印旛日本医大,京急,京急蒲田,京急,品川,8.0,13:59:00,,14:07:00,,00:08:00,自由席,京浜急行電鉄,,,9805,京浜急行電鉄,59.99999999999901,京急蒲田,139.723681,35.560796,京急,品川,139.73809,35.628284,京急
443,2018.06.04,1324A,ＪＲ,京浜東北線,快速,,,磯子,大宮,JR東日本,品川,JR東日本,秋葉原,8.8,14:35:00,,14:49:00,,00:14:00,自由席,JR東日本,E233,1000.0,モハE233-1463,JR東日本,37.71428571428585,品川,139.738999,35.62876,JR東日本,秋葉原,139.773288,35.698619,JR東日本
444,2018.06.04,1649G,ＪＲ,山手線,普通,,,大崎,外回り,JR東日本,秋葉原,JR東日本,品川,8.8,17:33:00,,17:49:00,,00:16:00,自由席,JR東日本,E235,,モハE234-17,JR東日本,33.00000000000012,秋葉原,139.773288,35.698619,JR東日本,品川,139.738999,35.62876,JR東日本
445,2018.06.04,1585E,ＪＲ,東海道線,普通,,,宇都宮,国府津,JR東日本,品川,JR東日本,川崎,11.4,18:16:00,,18:25:00,,00:09:00,自由席,JR東日本,E231,,モハE230-1056,JR東日本,75.99999999999892,品川,139.738999,35.62876,JR東日本,川崎,139.697485,35.531311,JR東日本
446,2018.06.04,1944E,ＪＲ,東海道線,普通,,,国府津,籠原,JR東日本,川崎,JR東日本,品川,11.4,21:50:00,,21:58:00,,00:08:00,自由席,JR東日本,E231,,サハE231-3051,JR東日本,85.5000000000003,川崎,139.697485,35.531311,JR東日本,品川,139.738999,35.62876,JR東日本
447,2018.06.05,1007K,私鉄,京急本線都営浅草線京成本線,快特エアポート快特快特,,,羽田空港国内線ターミナル,京成高砂,京急,品川,京成,京成高砂,19.5,10:57:00,,11:31:00,,00:34:00,自由席,京浜急行電鉄東京都交通局京成電鉄,,,3052-4,京浜急行電鉄東京都交通局京成電鉄,34.41176470588231,品川,139.73809,35.628284,京急,京成高砂,139.866875,35.750932,京成
448,2018.06.05,11A07,私鉄,京成本線,特急,,,京成上野,成田空港（第１旅客ターミナル）,京成,京成高砂,京成,成田空港（第１旅客ターミナル）,56.6,11:32:00,,12:34:00,,01:02:00,自由席,京成電鉄,,,3724,京成電鉄,54.77419354838708,京成高砂,139.866875,35.750932,京成,成田空港（第１旅客ターミナル）,140.384644,35.763983,京成
449,2018.08.20,F2124,モノレール,東京モノレール羽田空港線,区間快速,,,羽田空港第2ビル,浜松町,東京モノレール,羽田空港国際線ビル,東京モノレール,浜松町,14.0,21:50:00,,22:06:00,,00:16:00,自由席,東京モノレール,,,1041,東京モノレール,52.49999999999966,羽田空港国際線ビル,139.768206,35.544169,東京モノレール,浜松町,139.756747,35.655666,東京モノレール
450,2018.08.20,2128A,ＪＲ,京浜東北線,普通,,,磯子,南浦和,JR東日本,浜松町,JR東日本,秋葉原,5.1,22:10:00,,22:21:00,,00:11:00,自由席,JR東日本,E233,1000.0,クハE233-1010,JR東日本,27.818181818181916,浜松町,139.757135,35.65539099999999,JR東日本,秋葉原,139.773288,35.698619,JR東日本
451,2018.08.21,930G,ＪＲ,山手線,普通,,,大崎,内回り,JR東日本,秋葉原,JR東日本,上野,1.6,09:53:00,,09:57:00,,00:04:00,自由席,JR東日本,E231,500.0,モハE231-644,JR東日本,24.000000000000085,秋葉原,139.773288,35.698619,JR東日本,上野,139.777043,35.71379,JR東日本
452,2018.08.21,3001M,ＪＲ,高崎線,特急,草津,1.0,上野,長野原草津口,JR東日本,上野,JR東日本,大宮,26.7,10:00:00,,10:25:00,,00:25:00,自由席,JR東日本,651,,モハ650-1105,JR東日本,64.08000000000023,上野,139.777043,35.71379,JR東日本,大宮,139.62405,35.906439,JR東日本
453,2018.08.21,1047B,新交通,埼玉新都市交通伊奈線,普通,,,大宮,内宿,埼玉新都市交通,大宮,埼玉新都市交通,鉄道博物館,1.5,10:30:00,,10:32:00,,00:02:00,自由席,埼玉新都市交通,,,2405,埼玉新都市交通,45.00000000000016,大宮,139.62254,35.90750999999999,埼玉新都市交通,鉄道博物館,139.617796,35.920271,埼玉新都市交通
454,2018.08.21,1422A,新交通,埼玉新都市交通伊奈線,普通,,,内宿,大宮,埼玉新都市交通,鉄道博物館,埼玉新都市交通,大宮,1.5,14:34:00,,14:37:00,,00:03:00,自由席,埼玉新都市交通,,,2601,埼玉新都市交通,29.999999999998508,鉄道博物館,139.617796,35.920271,埼玉新都市交通,大宮,139.62254,35.90750999999999,埼玉新都市交通
455,2018.08.21,1404K,ＪＲ,埼京線,普通,,,大宮,新宿,JR東日本,大宮,JR東日本,武蔵浦和,7.4,14:48:00,,14:59:00,,00:11:00,自由席,JR東日本,E233,7000.0,モハE233-7002​,JR東日本,40.36363636363651,大宮,139.62405,35.906439,JR東日本,武蔵浦和,139.647974,35.846047,JR東日本
456,2018.08.21,1448F,ＪＲ,埼京線,快速,,,川越,新木場,JR東日本,武蔵浦和,JR東日本,赤羽,10.6,15:01:00,,15:11:00,,00:10:00,自由席,JR東日本,E233,7000.0,サハE233-7018,JR東日本,63.60000000000022,武蔵浦和,139.647974,35.846047,JR東日本,赤羽,139.720928,35.778026,JR東日本
457,2018.08.21,1551B,ＪＲ,京浜東北線,快速,,,南浦和,磯子,JR東日本,赤羽,JR東日本,秋葉原,11.2,15:12:00,,15:30:00,,00:18:00,自由席,JR東日本,E233,1000.0,モハE232-1421,JR東日本,37.33333333333314,赤羽,139.720928,35.778026,JR東日本,秋葉原,139.773288,35.698619,JR東日本
458,2018.08.21,1711B,ＪＲ,中央・総武線,普通,,,千葉,中野,JR東日本,秋葉原,JR東日本,水道橋,1.7,18:37:00,,18:42:00,,00:05:00,自由席,JR東日本,E231,,サハE230-36,JR東日本,20.400000000000073,秋葉原,139.773288,35.698619,JR東日本,水道橋,139.754312,35.702039,JR東日本
459,2018.08.21,2032B,ＪＲ,中央・総武線,普通,,,三鷹,津田沼,JR東日本,水道橋,JR東日本,御茶ノ水,0.8,21:17:00,,21:19:00,,00:02:00,自由席,JR東日本,E231,,モハE231-106,JR東日本,24.000000000002004,水道橋,139.754312,35.702039,JR東日本,御茶ノ水,139.764955,35.699605,JR東日本
460,2018.08.21,2012H,ＪＲ,中央線快速,快速,,,高尾,東京,JR東日本,御茶ノ水,JR東日本,東京,2.6,21:21:00,,21:25:00,,00:04:00,自由席,JR東日本,E233,,モハE232-43,JR東日本,39.00000000000014,御茶ノ水,139.764955,35.699605,JR東日本,東京,139.766103,35.681391,JR東日本
461,2018.08.21,2049F,ＪＲ,総武線快速,快速,,,逗子,君津,JR東日本,東京,JR東日本,錦糸町,4.8,21:31:00,,21:40:00,,00:09:00,自由席,JR東日本,E217,,クハE216-2039,JR東日本,31.999999999999545,東京,139.766103,35.681391,JR東日本,錦糸町,139.814136,35.69680200000001,JR東日本
462,2018.08.21,2017C,ＪＲ,中央・総武線,普通,,,千葉,中野,JR東日本,錦糸町,JR東日本,秋葉原,3.4,21:44:00,,21:50:00,,00:06:00,自由席,JR東日本,E231,500.0,モハE231-578,JR東日本,34.00000000000012,錦糸町,139.814136,35.69680200000001,JR東日本,秋葉原,139.773288,35.698619,JR東日本
463,2018.08.22,933C,ＪＲ,中央・総武線,普通,,,千葉,三鷹,JR東日本,秋葉原,JR東日本,代々木,7.9,10:48:00,5.0,11:02:00,5.0,00:14:00,自由席,JR東日本,E231,500.0,モハE231-586,JR東日本,33.85714285714298,秋葉原,139.773288,35.698619,JR東日本,代々木,139.702042,35.683061,JR東日本
464,2018.08.22,900G,ＪＲ,山手線,普通,,,大崎,内回り,JR東日本,代々木,JR東日本,渋谷,2.7,10:45:00,24.0,10:50:00,24.0,00:05:00,自由席,JR東日本,E231,500.0,サハE231-504,JR東日本,32.40000000000012,代々木,139.702042,35.683061,JR東日本,渋谷,139.701238,35.658871,JR東日本
465,2018.08.22,053111,私鉄,東急東横線みなとみらい線,特急,Fライナー,,飯能,元町・中華街,東急,渋谷,横浜高速鉄道,元町・中華街,28.3,11:39:00,,12:15:00,,00:36:00,自由席,東京急行電鉄,,,4208,東京急行電鉄,47.166666666666735,渋谷,139.702417,35.659545,東急,元町・中華街,139.650446,35.44243,横浜高速鉄道
466,2018.08.22,052142,私鉄,みなとみらい線,特急,Fライナー,,元町・中華街,森林公園,横浜高速鉄道,元町・中華街,横浜高速鉄道,みなとみらい,2.4,14:04:00,,14:07:00,,00:03:00,自由席,横浜高速鉄道,,,4704,横浜高速鉄道,48.00000000000017,元町・中華街,139.650446,35.44243,横浜高速鉄道,みなとみらい,139.632386,35.45802800000001,横浜高速鉄道
467,2018.08.22,715162,私鉄,みなとみらい線東急東横線,急行,,,元町・中華街,保谷,横浜高速鉄道,みなとみらい,東急,渋谷,25.9,16:15:00,,16:50:00,,00:35:00,自由席,東京急行電鉄,,,7030,東京急行電鉄,44.400000000000155,みなとみらい,139.632386,35.45802800000001,横浜高速鉄道,渋谷,139.702417,35.659545,東急
468,2018.08.22,B1761,地下鉄,東京メトロ銀座線,普通,,,渋谷,浅草,東京メトロ,渋谷,東京メトロ,新橋,6.3,17:09:00,,17:24:00,,00:15:00,自由席,東京メトロ,,,1210,東京メトロ,25.199999999999818,渋谷,139.701,35.659066,東京メトロ,新橋,139.758432,35.667434,東京メトロ
469,2018.08.22,333,新交通,東京臨海新交通臨海線,普通,,,新橋,豊洲,ゆりかもめ,新橋,ゆりかもめ,台場,7.8,17:40:00,,17:55:00,,00:15:00,自由席,ゆりかもめ,,,7431,ゆりかもめ,31.200000000000113,新橋,139.759644,35.665503,ゆりかもめ,台場,139.771435,35.625908,ゆりかもめ
470,2018.08.23,186,新交通,東京臨海新交通臨海線,普通,,,豊洲,新橋,ゆりかもめ,台場,ゆりかもめ,新橋,7.8,12:29:00,,12:44:00,,00:15:00,自由席,ゆりかもめ,,,7366,ゆりかもめ,31.199999999999775,台場,139.771435,35.625908,ゆりかもめ,新橋,139.759644,35.665503,ゆりかもめ
471,2018.08.23,1272G,ＪＲ,山手線,普通,,,大崎,内回り,JR東日本,新橋,JR東日本,池袋,14.2,12:55:00,,13:23:00,2.0,00:28:00,自由席,JR東日本,E231,500.0,サハE231-536,JR東日本,30.42857142857136,新橋,139.758587,35.666195,JR東日本,池袋,139.711086,35.730256,JR東日本
472,2018.08.23,1382G,ＪＲ,埼京線りんかい線,快速普通,,,川越,新木場,JR東日本,池袋,東京臨海高速鉄道,新木場,25.6,14:00:00,,14:37:00,,00:37:00,自由席,JR東日本東京臨海高速鉄道,70,,70-068,JR東日本東京臨海高速鉄道,41.51351351351348,池袋,139.711086,35.730256,JR東日本,新木場,139.827402,35.646172,東京臨海高速鉄道
473,2018.08.23,B1417T,地下鉄,東京メトロ有楽町線,普通,,,新木場,和光市,東京メトロ,新木場,東京メトロ,豊洲,3.2,14:42:00,,14:46:00,,00:04:00,自由席,東京メトロ,,,9303,東京メトロ,47.99999999999826,新木場,139.826254,35.645832,東京メトロ,豊洲,139.79621,35.654908,東京メトロ
474,2018.08.23,252,新交通,東京臨海新交通臨海線,普通,,,豊洲,新橋,ゆりかもめ,豊洲,ゆりかもめ,台場,6.9,14:58:00,,15:14:00,,00:16:00,自由席,ゆりかもめ,,,7226,ゆりかもめ,25.875000000000096,豊洲,139.795414,35.653792,ゆりかもめ,台場,139.771435,35.625908,ゆりかもめ
475,2018.08.23,264,新交通,東京臨海新交通臨海線,普通,,,豊洲,新橋,ゆりかもめ,台場,ゆりかもめ,新橋,7.8,15:44:00,,15:59:00,,00:15:00,自由席,ゆりかもめ,,,7476,ゆりかもめ,31.200000000000113,台場,139.771435,35.625908,ゆりかもめ,新橋,139.759644,35.665503,ゆりかもめ
476,2018.08.23,1223M,ＪＲ,上野東京ライン常磐線,快速,,,品川,土浦,JR東日本,新橋,JR東日本,我孫子,39.0,16:23:00,,17:06:00,,00:43:00,自由席,JR東日本,E531,,サハE531-7,JR東日本,54.41860465116278,新橋,139.758587,35.666195,JR東日本,我孫子,140.010466,35.87279,JR東日本
477,2018.08.23,869M,ＪＲ,成田線,普通,,,我孫子,成田,JR東日本,我孫子,JR東日本,成田,32.9,17:09:00,,17:55:00,,00:46:00,自由席,JR東日本,E231,,モハE231-127,JR東日本,42.913043478260725,我孫子,140.010466,35.87279,JR東日本,成田,140.313853,35.777796,JR東日本
478,2018.08.24,6A17,私鉄,京成東成田線,快速,,,京成上野,東成田,京成,京成成田,京成,東成田,7.1,07:48:00,,07:53:00,,00:05:00,自由席,京成電鉄,,,3036-3,京成電鉄,85.2000000000003,京成成田,140.315473,35.776308,京成,東成田,140.387225,35.770091,京成
479,2018.08.24,645,私鉄,芝山鉄道線,普通,,,京成上野,芝山千代田,芝山鉄道,東成田,芝山鉄道,芝山千代田,2.2,08:05:00,,08:09:00,,00:04:00,自由席,芝山鉄道,,,3022-8,芝山鉄道,33.00000000000012,東成田,140.387225,35.770091,芝山鉄道,芝山千代田,140.399215,35.754248,芝山鉄道
480,2018.08.24,844,私鉄,芝山鉄道線,普通,,,芝山千代田,京成成田,芝山鉄道,芝山千代田,芝山鉄道,東成田,2.2,08:19:00,,08:22:00,,00:03:00,自由席,芝山鉄道,,,3022-3,芝山鉄道,43.999999999998984,芝山千代田,140.399215,35.754248,芝山鉄道,東成田,140.387225,35.770091,芝山鉄道
481,2018.11.20,2012M2212M,ＪＲ,成田線総武線横須賀線湘南新宿ライン,特急,成田エクスプレス,12.0,成田空港（第１旅客ターミナル）,池袋,JR東日本,空港第２ビル（第２旅客ターミナル）,JR東日本,新宿,95.6,10:18:00,,11:39:00,,01:21:00,指定席,JR東日本,E259,,モハE259-17,JR東日本,70.81481481481485,空港第２ビル（第２旅客ターミナル）,140.387871,35.773327,JR東日本,新宿,139.700464,35.689729,JR東日本
482,2018.11.20,1080T,ＪＲ,中央線快速,青梅特快,,,青梅,東京,JR東日本,新宿,JR東日本,四ツ谷,3.7,11:51:00,,11:55:00,,00:04:00,自由席,JR東日本,E233,,モハE232-204,JR東日本,55.5000000000002,新宿,139.700464,35.689729,JR東日本,四ツ谷,139.730644,35.686041,JR東日本
483,2018.11.20,1253T,ＪＲ,中央線快速,快速,,,東京,立川,JR東日本,四ツ谷,JR東日本,吉祥寺,15.9,12:11:00,,12:31:00,,00:20:00,自由席,JR東日本,E233,,モハE233-401,JR東日本,47.69999999999979,四ツ谷,139.730644,35.686041,JR東日本,吉祥寺,139.579765,35.703119,JR東日本
484,2018.11.20,1223B,ＪＲ,中央・総武線,普通,,,津田沼,三鷹,JR東日本,吉祥寺,JR東日本,三鷹,1.6,13:40:00,,13:42:00,,00:02:00,自由席,JR東日本,E231,500.0,サハE231-608,JR東日本,48.00000000000017,吉祥寺,139.579765,35.703119,JR東日本,三鷹,139.560325,35.702683,JR東日本
485,2018.11.20,1331T,ＪＲ,中央線快速,快速,,,東京,青梅,JR東日本,三鷹,JR東日本,立川,13.4,13:45:00,,14:05:00,,00:20:00,自由席,JR東日本,E233,,サハE233-35,JR東日本,40.199999999999825,三鷹,139.560325,35.702683,JR東日本,立川,139.413704,35.698202,JR東日本
486,2018.11.20,1357T,ＪＲ,中央線快速,中央特快,,,東京,大月,JR東日本,立川,JR東日本,八王子,9.9,14:09:00,,14:19:00,,00:10:00,自由席,JR東日本,E233,,モハE233-616,JR東日本,59.40000000000021,立川,139.413704,35.698202,JR東日本,八王子,139.338998,35.655555,JR東日本
487,2018.11.20,3012M,ＪＲ,中央本線,特急,かいじ,112.0,甲府,新宿,JR東日本,八王子,JR東日本,立川,9.9,14:33:00,,14:41:00,,00:08:00,自由席,JR東日本,E257,,モハE257-11,JR東日本,74.25000000000027,八王子,139.338998,35.655555,JR東日本,立川,139.413704,35.698202,JR東日本
488,2018.11.20,3011M,ＪＲ,中央本線,特急,かいじ,111.0,新宿,甲府,JR東日本,立川,JR東日本,八王子,9.9,14:53:00,,15:02:00,,00:09:00,自由席,JR東日本,E353,,モハE353-2015,JR東日本,66.00000000000024,立川,139.413704,35.698202,JR東日本,八王子,139.338998,35.655555,JR東日本
489,2018.11.20,3011M,ＪＲ,中央本線,特急,かいじ,111.0,新宿,甲府,JR東日本,八王子,JR東日本,大月,40.4,15:02:00,,15:32:00,,00:30:00,指定席,JR東日本,E353,,サハE353-15,JR東日本,80.79999999999986,八王子,139.338998,35.655555,JR東日本,大月,138.942729,35.613222,JR東日本
490,2018.11.20,711,私鉄,富士急行線,特急,フジサン特急,11.0,大月,河口湖,富士急,大月,富士急,河口湖,26.6,15:55:00,,16:42:00,,00:47:00,自由席,富士急行鉄道,,,8101,富士急行鉄道,33.957446808510646,大月,138.942248,35.612938,富士急,河口湖,138.768852,35.498231,富士急
491,2018.11.21,2704M,私鉄,富士急行線,普通,,,河口湖,東京,富士急,河口湖,富士急,下吉田,5.5,05:49:00,,06:03:00,,00:14:00,自由席,富士急行鉄道,,,クハE233-515,富士急行鉄道,23.571428571428587,河口湖,138.768852,35.498231,富士急,下吉田,138.80366,35.497909,富士急
492,2018.11.21,3,私鉄,富士急行線,普通,,,大月,河口湖,富士急,下吉田,富士急,河口湖,5.5,07:24:00,,07:38:00,,00:14:00,自由席,富士急行鉄道,,,モハ6102,富士急行鉄道,23.571428571428655,下吉田,138.80366,35.497909,富士急,河口湖,138.768852,35.498231,富士急
493,2018.11.21,172,私鉄,富士急行線,快速,富士登山電車,2.0,河口湖,大月,富士急,河口湖,富士急,大月,26.6,10:17:00,,11:18:00,,01:01:00,自由席,富士急行鉄道,,,1205,富士急行鉄道,26.163934426229464,河口湖,138.768852,35.498231,富士急,大月,138.942248,35.612938,富士急
494,2018.11.21,3003M,ＪＲ,中央本線,特急,かいじ,103.0,新宿,甲府,JR東日本,大月,JR東日本,甲府,46.3,11:32:00,,12:07:00,,00:35:00,指定席,JR東日本,E257,,モハE257-115,JR東日本,79.37142857142867,大月,138.942729,35.613222,JR東日本,甲府,138.569015,35.667054,JR東日本
495,2018.11.21,4008M,ＪＲ,身延線,特急,ワイドビューふじかわ,8.0,甲府,静岡,JR東日本,甲府,JR東海,静岡,122.4,12:37:00,,14:56:00,,02:19:00,指定席,JR東海,373,,クハ372-1,JR東海,52.834532374100725,甲府,138.569015,35.667054,JR東日本,静岡,138.388579,34.971629,JR東海
496,2018.11.21,475A,ＪＲ,東海道新幹線,新幹線,ひかり,475.0,東京,新大阪,JR東海,静岡,JR西日本,新大阪,372.4,15:10:00,,17:00:00,,01:50:00,指定席,JR東海,N700A,5000.0,785-5613,JR東海,203.12727272727253,静岡,138.388579,34.971629,JR東海,新大阪,135.501852,34.734136,JR西日本
497,2018.11.21,3017M,ＪＲ,福知山線,特急,こうのとり,17.0,新大阪,福知山,JR西日本,新大阪,JR西日本,福知山,118.0,17:05:00,,18:54:00,,01:49:00,指定席,JR西日本,289,,クロハ288-2003,JR西日本,64.95412844036692,新大阪,135.501852,34.734136,JR西日本,福知山,135.118564,35.296143,JR西日本
498,2018.11.21,4005D,私鉄,京都丹後鉄道宮津線,特急,たんごリレー,5.0,福知山,網野,丹鉄,福知山,丹鉄,天橋立,34.8,19:03:00,,19:45:00,,00:42:00,自由席,京都丹後鉄道,,,KTR012,京都丹後鉄道,49.714285714285886,福知山,135.117996,35.296931,丹鉄,天橋立,135.182456,35.55772899999999,丹鉄
499,2018.11.22,4004D,私鉄,京都丹後鉄道宮津線,特急,たんごリレー,4.0,網野,福知山,丹鉄,天橋立,丹鉄,福知山,34.8,11:53:00,,12:34:00,,00:41:00,自由席,京都丹後鉄道,,,KTR012,京都丹後鉄道,50.92682926829256,天橋立,135.182456,35.55772899999999,丹鉄,福知山,135.117996,35.296931,丹鉄
500,2018.11.22,5014M,ＪＲ,山陰本線,特急,きのさき,14.0,福知山,京都,JR西日本,福知山,JR西日本,二条,84.3,12:44:00,,14:01:00,,01:17:00,自由席,JR西日本,287,,モハ286-6,JR西日本,65.68831168831164,福知山,135.118564,35.296143,JR西日本,二条,135.741701,35.010978,JR西日本
501,2018.11.22,249M,ＪＲ,嵯峨野線,普通,,,京都,園部,JR西日本,二条,JR西日本,嵯峨嵐山,6.1,14:33:00,,14:43:00,,00:10:00,自由席,JR西日本,221,,クモハ221-60,JR西日本,36.60000000000013,二条,135.741701,35.010978,JR西日本,嵯峨嵐山,135.68127,35.018698,JR西日本
502,2018.11.22,8127,私鉄,嵯峨野観光鉄道,嵯峨野,嵯峨野,81.0,トロッコ嵯峨,トロッコ亀岡,嵯峨野トロッコ,トロッコ嵐山,嵯峨野トロッコ,トロッコ亀岡,6.3,17:12:00,,17:35:00,,00:23:00,立席,嵯峨野観光鉄道,,,DE10-1156SK100-1,嵯峨野観光鉄道,16.43478260869571,トロッコ嵐山,135.670252,35.017162,嵯峨野トロッコ,トロッコ亀岡,135.606751,35.01314,嵯峨野トロッコ
503,2018.11.22,8128,私鉄,嵯峨野観光鉄道,嵯峨野,嵯峨野,82.0,トロッコ亀岡,トロッコ嵯峨,嵯峨野トロッコ,トロッコ亀岡,嵯峨野トロッコ,トロッコ嵯峨,7.3,17:40:00,,18:10:00,,00:30:00,指定席,嵯峨野観光鉄道,,,DE10-1156SK300-1,嵯峨野観光鉄道,14.599999999999973,トロッコ亀岡,135.606751,35.01314,嵯峨野トロッコ,トロッコ嵯峨,135.680704,35.018656,嵯峨野トロッコ
504,2018.11.22,1280M,ＪＲ,嵯峨野線,普通,,,亀岡,京都,JR西日本,嵯峨嵐山,JR西日本,二条,6.1,20:34:00,,20:43:00,,00:09:00,自由席,JR西日本,221,,クハ221-70,JR西日本,40.666666666666806,嵯峨嵐山,135.68127,35.018698,JR西日本,二条,135.741701,35.010978,JR西日本
505,2018.11.22,356,地下鉄,京都市営地下鉄東西線,普通,,,太秦天神川,六地蔵,京都市交通局,二条,京都市交通局,京都市役所前,2.5,21:02:00,,21:08:00,,00:06:00,自由席,京都市交通局,,,5101,京都市交通局,25.000000000000753,二条,135.741668,35.012028,京都市交通局,京都市役所前,135.768829,35.011003,京都市交通局
506,2018.11.23,K1007A,私鉄,京阪本線,準急,,,出町柳,淀屋橋,京阪,三条,京阪,東福寺,3.2,10:43:00,,10:49:00,,00:06:00,自由席,京阪電気鉄道,,,2954,京阪電気鉄道,32.000000000000114,三条,135.772274,35.009114,京阪,東福寺,135.769998,34.981351,京阪
507,2018.11.23,2609M,ＪＲ,奈良線,みやこ路快速,,,京都,奈良,JR西日本,東福寺,JR西日本,宇治,13.8,11:03:00,,11:21:00,,00:18:00,自由席,JR西日本,221,,サハ221-28,JR西日本,46.00000000000017,東福寺,135.769778,34.981371,JR西日本,宇治,135.800629,34.890437,JR西日本
508,2018.11.23,2619M,ＪＲ,奈良線,みやこ路快速,,,京都,奈良,JR西日本,宇治,JR西日本,奈良,26.8,13:51:00,,14:18:00,,00:27:00,自由席,JR西日本,221,,クモハ221-1,JR西日本,59.55555555555542,宇治,135.800629,34.890437,JR西日本,奈良,135.818935,34.680482,JR西日本
509,2018.11.23,1590,私鉄,近鉄橿原線近鉄京都線,普通,,,天理,京都,近鉄,西ノ京,近鉄,京都,37.4,16:07:00,,17:15:00,,01:08:00,自由席,近畿日本鉄道,,,8588,近畿日本鉄道,33.000000000000036,西ノ京,135.783186,34.670652,近鉄,京都,135.756442,34.984726,近鉄
510,2018.11.23,2225M,ＪＲ,嵯峨野線,快速,,,京都,福知山,JR西日本,京都,JR西日本,二条,4.2,18:38:00,,18:43:00,,00:05:00,自由席,JR西日本,223,,クハ223-5514,JR西日本,50.400000000001796,京都,135.757748,34.985465,JR西日本,二条,135.741701,35.010978,JR西日本
511,2018.11.23,282,地下鉄,京都市営地下鉄東西線,普通,,,太秦天神川,びわ湖浜大津,京都市交通局,二条,京都市交通局,三条京阪,3.0,18:50:00,,18:57:00,,00:07:00,自由席,京都市交通局,,,857,京都市交通局,25.714285714285808,二条,135.741668,35.012028,京都市交通局,三条京阪,135.773773,35.009278,京都市交通局
512,2018.11.23,B1905A,私鉄,京阪本線,特急,,,出町柳,淀屋橋,京阪,三条,京阪,淀屋橋,49.3,19:27:00,,20:18:00,,00:51:00,自由席,京阪電気鉄道,,,8104,京阪電気鉄道,58.00000000000002,三条,135.772274,35.009114,京阪,淀屋橋,135.501648,34.692456,京阪
513,2018.11.23,477,地下鉄,大阪メトロ御堂筋線,普通,,,千里中央,なかもず,大阪メトロ,淀屋橋,大阪メトロ,本町,0.9,20:26:00,,20:27:00,,00:01:00,自由席,大阪市高速電気軌道,,,31708,大阪市高速電気軌道,54.00000000000019,淀屋橋,135.500972,34.692289,大阪メトロ,本町,135.498982,34.681936,大阪メトロ
514,2018.11.24,133,地下鉄,大阪メトロ御堂筋線,普通,,,千里中央,なかもず,大阪メトロ,本町,大阪メトロ,なんば,1.9,10:12:00,,10:15:00,,00:03:00,自由席,大阪市高速電気軌道,,,1711,大阪市高速電気軌道,38.000000000000135,本町,135.498982,34.681936,大阪メトロ,なんば,135.500277,34.66631599999999,大阪メトロ
515,2018.11.24,195,地下鉄,大阪メトロ御堂筋線,普通,,,新大阪,天王寺,大阪メトロ,なんば,大阪メトロ,天王寺,3.4,12:12:00,,12:19:00,,00:07:00,自由席,大阪市高速電気軌道,,,31908,大阪市高速電気軌道,29.14285714285725,なんば,135.500277,34.66631599999999,大阪メトロ,天王寺,135.51374,34.64655399999999,大阪メトロ
516,2018.11.24,66M,ＪＲ,大阪環状線,特急,くろしお,16.0,白浜,新大阪,JR西日本,天王寺,JR西日本,新大阪,14.8,12:35:00,,12:50:00,,00:15:00,指定席,JR西日本,283,,モハ283-2,JR西日本,59.200000000000216,天王寺,135.514124,34.647243,JR西日本,新大阪,135.501852,34.734136,JR西日本
517,2018.11.24,227,地下鉄,大阪メトロ御堂筋線,普通,,,新大阪,天王寺,大阪メトロ,新大阪,大阪メトロ,本町,5.7,12:57:00,,13:07:00,,00:10:00,自由席,大阪市高速電気軌道,,,31708,大阪市高速電気軌道,34.19999999999958,新大阪,135.498558,34.732919,大阪メトロ,本町,135.498982,34.681936,大阪メトロ
518,2018.11.24,264,地下鉄,大阪メトロ御堂筋線,普通,,,なかもず,千里中央,大阪メトロ,本町,大阪メトロ,新大阪,5.7,13:56:00,,14:07:00,,00:11:00,自由席,大阪市高速電気軌道,,,21715,大阪市高速電気軌道,31.090909090909204,本町,135.498982,34.681936,大阪メトロ,新大阪,135.498558,34.732919,大阪メトロ
519,2018.11.24,524A,ＪＲ,東海道新幹線,新幹線,ひかり,524.0,新大阪,東京,JR西日本,新大阪,JR東日本,東京,552.6,14:16:00,,17:10:00,,02:54:00,指定席,JR東海,N700A,1000.0,785-1617,JR東海,190.55172413793102,新大阪,135.501852,34.734136,JR西日本,東京,139.766103,35.681391,JR東日本
520,2018.11.24,1729T,ＪＲ,中央線快速,快速,,,東京,河辺,JR東日本,東京,JR東日本,新宿,10.3,17:22:00,,17:37:00,,00:15:00,自由席,JR東日本,E233,0.0,モハE233-254,JR東日本,41.19999999999971,東京,139.766103,35.681391,JR東日本,新宿,139.700464,35.689729,JR東日本
521,2018.11.24,2023T,ＪＲ,中央線快速,快速,,,東京,立川,JR東日本,新宿,JR東日本,吉祥寺,12.2,20:36:00,,20:49:00,,00:13:00,自由席,JR東日本,E233,0.0,モハE233-29,JR東日本,56.3076923076925,新宿,139.700464,35.689729,JR東日本,吉祥寺,139.579765,35.703119,JR東日本
522,2018.11.24,2218T,ＪＲ,中央・総武線,普通,,,大月,東京,JR東日本,吉祥寺,JR東日本,新宿,12.2,22:51:00,,23:08:00,,00:17:00,自由席,JR東日本,E233,0.0,サハE233-19,JR東日本,43.05882352941192,吉祥寺,139.579765,35.703119,JR東日本,新宿,139.700464,35.689729,JR東日本
523,2018.11.25,631A1,地下鉄,都営大江戸線,普通,,,光が丘,都庁前,東京都交通局,都庁前,東京都交通局,新宿,0.8,07:04:00,,07:06:00,,00:02:00,自由席,東京都交通局,,,12-177,東京都交通局,24.000000000000085,都庁前,139.69257,35.690551,東京都交通局,新宿,139.698812,35.68869,東京都交通局
524,2018.11.25,9051M9053M,ＪＲ,中央線快速総武線快速外房線,特急,新宿わかしお,,新宿,安房鴨川,JR東日本,新宿,JR東日本,蘇我,50.2,07:18:00,,08:14:00,,00:56:00,指定席,JR東日本,255,,サハ254-5,JR東日本,53.78571428571433,新宿,139.700464,35.689729,JR東日本,蘇我,140.130767,35.582065,JR東日本
525,2018.11.25,1054M,ＪＲ,京葉線,特急,わかしお,4.0,勝浦,東京,JR東日本,蘇我,JR東日本,東京,43.0,08:24:00,,08:56:00,,00:32:00,指定席,JR東日本,E257,,モハE257-1514,JR東日本,80.62500000000009,蘇我,140.130767,35.582065,JR東日本,東京,139.766103,35.681391,JR東日本
526,2018.11.25,903T,ＪＲ,中央線快速,快速,,,東京,三鷹,JR東日本,東京,JR東日本,新宿,10.3,09:08:00,,09:22:00,,00:14:00,自由席,JR東日本,E233,0.0,モハE232-1,JR東日本,44.14285714285705,東京,139.766103,35.681391,JR東日本,新宿,139.700464,35.689729,JR東日本
527,2018.11.25,1025B1,地下鉄,都営大江戸線,普通,,,都庁前,光が丘,東京都交通局,都庁前,東京都交通局,新宿西口,0.8,10:48:00,,10:49:00,,00:01:00,自由席,東京都交通局,,,12-102,東京都交通局,48.00000000000017,都庁前,139.69257,35.690551,東京都交通局,新宿西口,139.699155,35.69331500000001,東京都交通局
528,2018.11.25,1189K,ＪＲ,埼京線,普通,,,新宿,大宮,JR東日本,新宿,JR東日本,池袋,4.8,11:57:00,8.0,12:03:00,6.0,00:06:00,自由席,JR東日本,70,,70-106,JR東日本,47.999999999999524,新宿,139.700464,35.689729,JR東日本,池袋,139.711086,35.730256,JR東日本
529,2018.11.25,4529Y,ＪＲ,湘南新宿ライン,快速,,,宇都宮,逗子,JR東日本,池袋,JR東日本,新宿,4.8,14:09:00,,14:14:00,,00:05:00,自由席,JR東日本,E231,,クハE230-6009,JR東日本,57.6000000000002,池袋,139.711086,35.730256,JR東日本,新宿,139.700464,35.689729,JR東日本
530,2018.11.25,1319B1,地下鉄,都営大江戸線,普通,,,都庁前,光が丘,東京都交通局,新宿,東京都交通局,都庁前,0.8,14:23:00,,14:25:00,,00:02:00,自由席,東京都交通局,,,12-647,東京都交通局,24.000000000000085,新宿,139.698812,35.68869,東京都交通局,都庁前,139.69257,35.690551,東京都交通局
531,2018.11.25,1413A1,地下鉄,都営大江戸線,普通,,,光が丘,都庁前,東京都交通局,都庁前,東京都交通局,汐留,9.5,14:46:00,,15:06:00,,00:20:00,自由席,東京都交通局,,,12-495,東京都交通局,28.5000000000001,都庁前,139.69257,35.690551,東京都交通局,汐留,139.760642,35.66370300000001,東京都交通局
532,2018.11.25,B1613,地下鉄,東京メトロ銀座線,普通,,,渋谷,浅草,東京メトロ,新橋,東京メトロ,末広町,4.7,16:18:00,,16:28:00,,00:10:00,自由席,東京メトロ,,,1323,東京メトロ,28.200000000000554,新橋,139.758432,35.667434,東京メトロ,末広町,139.771713,35.702972,東京メトロ
533,2018.11.25,1852T,地下鉄,都営新宿線,各駅停車,,,新宿,本八幡,東京都交通局,岩本町,東京都交通局,森下,2.2,18:17:00,,18:21:00,,00:04:00,自由席,東京都交通局,,,10-592,東京都交通局,33.00000000000012,岩本町,139.775866,35.695534,東京都交通局,森下,139.797042,35.68796,東京都交通局
534,2018.11.25,1801B1,地下鉄,都営大江戸線,普通,,,都庁前,光が丘,東京都交通局,森下,東京都交通局,汐留,6.4,18:27:00,,18:40:00,,00:13:00,自由席,東京都交通局,,,12-486,東京都交通局,29.53846153846128,森下,139.797042,35.68796,東京都交通局,汐留,139.760642,35.66370300000001,東京都交通局
535,2018.11.25,1599E,ＪＲ,東海道線,普通,,,宇都宮,小田原,JR東日本,新橋,JR東日本,川崎,16.3,19:38:00,,19:52:00,,00:14:00,自由席,JR東日本,E233,3000.0,モハE232-3832,JR東日本,69.8571428571423,新橋,139.758587,35.666195,JR東日本,川崎,139.697485,35.531311,JR東日本
536,2018.11.25,1648E,ＪＲ,東海道線,普通,,,熱海,小金井,JR東日本,川崎,JR東日本,新橋,16.3,21:10:00,,21:24:00,,00:14:00,自由席,JR東日本,E231,,モハE230-1048,JR東日本,69.8571428571439,川崎,139.697485,35.531311,JR東日本,新橋,139.758587,35.666195,JR東日本
537,2018.11.26,918G,ＪＲ,山手線,普通,,,内回り,池袋,JR東日本,新橋,JR東日本,秋葉原,3.9,09:48:00,,09:56:00,,00:08:00,自由席,JR東日本,E235,,モハE234-77,JR東日本,29.250000000000103,新橋,139.758587,35.666195,JR東日本,秋葉原,139.773288,35.698619,JR東日本
538,2018.11.26,1003G,ＪＲ,山手線,普通,,,大崎,外回り,JR東日本,秋葉原,JR東日本,東京,2.0,10:46:00,,10:50:00,,00:04:00,自由席,JR東日本,E235,,サハE235-13,JR東日本,30.000000000000103,秋葉原,139.773288,35.698619,JR東日本,東京,139.766103,35.681391,JR東日本
539,2018.11.26,1025G,ＪＲ,山手線,普通,,,大崎,外回り,JR東日本,東京,JR東日本,新橋,1.9,11:03:00,,11:06:00,,00:03:00,自由席,JR東日本,E235,,モハE235-69,JR東日本,38.000000000001144,東京,139.766103,35.681391,JR東日本,新橋,139.758587,35.666195,JR東日本
540,2018.11.26,1201G1301G,ＪＲ,山手線,普通,,,大崎,外回り,JR東日本,新橋,JR東日本,渋谷,12.1,12:55:00,,13:15:00,,00:20:00,自由席,JR東日本,E231,500.0,サハE231-501,JR東日本,36.299999999999834,新橋,139.758587,35.666195,JR東日本,渋谷,139.701238,35.658871,JR東日本
541,2018.11.26,1401G,ＪＲ,山手線,普通,,,大崎,外回り,JR東日本,渋谷,JR東日本,大塚,10.0,14:18:00,,14:36:00,,00:18:00,自由席,JR東日本,E231,500.0,モハE231-502,JR東日本,33.33333333333345,渋谷,139.701238,35.658871,JR東日本,大塚,139.728584,35.731412,JR東日本
542,2018.11.26,1425G,ＪＲ,山手線,普通,,,大崎,外回り,JR東日本,大塚,JR東日本,御徒町,7.0,14:54:00,,15:09:00,,00:15:00,自由席,JR東日本,E235,,サハE234-23,JR東日本,28.0000000000001,大塚,139.728584,35.731412,JR東日本,御徒町,139.774727,35.707282,JR東日本
543,2018.11.26,1435G,ＪＲ,山手線,普通,,,大崎,外回り,JR東日本,御徒町,JR東日本,新橋,4.9,15:34:00,,15:43:00,,00:09:00,自由席,JR東日本,E231,,クハE231-542,JR東日本,32.666666666666785,御徒町,139.774727,35.707282,JR東日本,新橋,139.758587,35.666195,JR東日本
544,2018.11.26,G1607,モノレール,東京モノレール羽田空港線,空港快速,,,浜松町,羽田空港第2ビル,東京モノレール,浜松町,東京モノレール,羽田空港国際線ビル,14.0,16:28:00,,16:41:00,,00:13:00,自由席,東京モノレール,,,1008,東京モノレール,64.61538461538406,浜松町,139.756747,35.655666,東京モノレール,羽田空港国際線ビル,139.768206,35.544169,東京モノレール
545,2019.01.10,2044M,ＪＲ,成田線総武線,特急,成田エクスプレス,44.0,成田空港（第１旅客ターミナル）,池袋,JR東日本,成田空港（第１旅客ターミナル）,JR東日本,東京,79.2,18:15:00,,19:17:00,,01:02:00,指定席,JR東日本,E259,,クハE258-14,JR東日本,76.64516129032246,成田空港（第１旅客ターミナル）,140.384644,35.763983,JR東日本,東京,139.766103,35.681391,JR東日本
546,2019.01.10,1981T,ＪＲ,中央線快速,快速,,,東京,高尾,JR東日本,東京,JR東日本,吉祥寺,22.5,19:27:00,,19:56:00,,00:29:00,自由席,JR東日本,E233,0.0,モハE232-253,JR東日本,46.55172413793094,東京,139.766103,35.681391,JR東日本,吉祥寺,139.579765,35.703119,JR東日本
547,2019.01.10,2022H,ＪＲ,中央線快速,快速,,,高尾,東京,JR東日本,吉祥寺,JR東日本,新宿,12.2,21:17:00,,21:33:00,,00:16:00,自由席,JR東日本,E233,0.0,クハE232-503,JR東日本,45.75000000000016,吉祥寺,139.579765,35.703119,JR東日本,新宿,139.700464,35.689729,JR東日本
548,2019.01.10,2373T,ＪＲ,中央・総武線,普通,,,東京,武蔵小金井,JR東日本,新宿,JR東日本,吉祥寺,12.2,23:51:00,,00:08:00,,00:17:00,自由席,JR東日本,E233,0.0,サハE233-538,JR東日本,43.05882352941192,新宿,139.700464,35.689729,JR東日本,吉祥寺,139.579765,35.703119,JR東日本
549,2019.01.11,100,私鉄,京王井の頭線,急行,,,吉祥寺,渋谷,京王,吉祥寺,京王,渋谷,12.7,13:44:00,,14:00:00,,00:16:00,自由席,京王電鉄,,,1053,京王電鉄,47.62499999999969,吉祥寺,139.580306,35.702291,京王,渋谷,139.700872,35.6587,京王
550,2019.01.11,009141,私鉄,東急東横線,急行,,,和光市,元町・中華街,東急,渋谷,東急,日吉,13.6,14:14:00,,14:33:00,,00:19:00,自由席,東京急行電鉄,,,5657,東京急行電鉄,42.947368421052424,渋谷,139.702417,35.659545,東急,日吉,139.646944,35.5539,東急
551,2019.01.11,459152,私鉄,東急目黒線,急行,,,日吉,西高島平,東急,日吉,東急,武蔵小杉,2.8,15:49:00,,15:52:00,,00:03:00,自由席,東京急行電鉄,,,6307-7,東京急行電鉄,56.0000000000002,日吉,139.646944,35.5539,東急,武蔵小杉,139.659652,35.575752,東急
552,2019.01.11,2041M,ＪＲ,横須賀線総武線成田線,特急,成田エクスプレス,41.0,横浜,成田空港（第１旅客ターミナル）,JR東日本,武蔵小杉,JR東日本,成田空港（第１旅客ターミナル）,96.0,16:10:00,,17:29:00,,01:19:00,指定席,JR東日本,E259,,モハE259-514,JR東日本,72.91139240506325,武蔵小杉,139.65963,35.57669,JR東日本,成田空港（第１旅客ターミナル）,140.384644,35.763983,JR東日本
553,2019.01.11,403,私鉄,名鉄常滑線,特急,,,中部国際空港,名鉄岐阜,名鉄,中部国際空港,名鉄,金山,35.7,20:17:00,,20:49:00,,00:32:00,自由席,名古屋鉄道,,,2334,名古屋鉄道,66.93750000000024,中部国際空港,136.816382,34.859262,名鉄,金山,136.9013,35.142871,名鉄
554,2019.01.12,5107F,ＪＲ,東海道線,特別快速,,,豊橋,米原,JR東海,金山,JR東海,名古屋,3.3,08:26:00,4.0,08:30:00,,00:04:00,自由席,JR東海,313,,サハ313-5014,JR東海,49.50000000000017,金山,136.900517,35.142928,JR東海,名古屋,136.881637,35.170694,JR東海
555,2019.01.12,2901D,ＪＲ,関西本線伊勢鉄道線紀勢本線参宮線,快速,みえ,1.0,名古屋,鳥羽,JR東海,名古屋,JR東海,伊勢市,108.4,08:37:00,,10:18:00,,01:41:00,自由席,JR東海,キハ75,,キハ75-3,JR東海,64.39603960396038,名古屋,136.881637,35.170694,JR東海,伊勢市,136.709661,34.49126,JR東海
556,2019.01.12,2916D,ＪＲ,参宮線紀勢本線伊勢鉄道線関西本線,快速,みえ,16.0,鳥羽,名古屋,JR東海,鳥羽,JR東海,名古屋,122.5,14:05:00,,16:03:00,,01:58:00,自由席,JR東海,キハ75,,キハ75-105,JR東海,62.28813559322031,鳥羽,136.84279,34.48651599999999,JR東海,名古屋,136.881637,35.170694,JR東海
557,2019.01.12,3641M,ＪＲ,中央本線,普通,,,名古屋,多治見,JR東海,名古屋,JR東海,金山,3.3,16:09:00,,16:13:00,,00:04:00,自由席,JR東海,211,,クモハ211-5047,JR東海,49.50000000000017,名古屋,136.881637,35.170694,JR東海,金山,136.900517,35.142928,JR東海
558,2019.01.12,LD1836D,地下鉄,名古屋地下鉄名城線,普通,,,ナゴヤドーム前矢田,左回り,名古屋市交通局,金山,名古屋市交通局,伝馬町,3.0,18:55:00,,19:00:00,,00:05:00,自由席,名古屋市交通局,,,2216,名古屋市交通局,36.00000000000128,金山,136.901611,35.14352,名古屋市交通局,伝馬町,136.91038,35.120735,名古屋市交通局
559,2019.01.12,3359F,ＪＲ,東海道線,普通,,,岡崎,岐阜,JR東海,熱田,JR東海,金山,1.9,20:31:00,,20:33:00,,00:02:00,自由席,JR東海,313,,モハ313-10,JR東海,56.999999999995644,熱田,136.910502,35.130028,JR東海,金山,136.900517,35.142928,JR東海
560,2019.01.13,5813F,ＪＲ,東海道線,区間快速,,,武豊,名古屋,JR東海,金山,JR東海,名古屋,3.3,09:00:00,,09:04:00,,00:04:00,自由席,JR東海,313,,サハ313-10,JR東海,49.50000000000017,金山,136.900517,35.142928,JR東海,名古屋,136.881637,35.170694,JR東海
561,2019.01.13,339H,私鉄,あおなみ線,普通,,,名古屋,金城ふ頭,名臨高,名古屋,名臨高,金城ふ頭,15.2,09:30:00,,09:53:00,,00:23:00,自由席,名古屋臨海高速鉄道,,,1106,名古屋臨海高速鉄道,39.65217391304348,名古屋,136.882417,35.168733,名臨高,金城ふ頭,136.849009,35.048775,名臨高
562,2019.01.13,370H,私鉄,あおなみ線,普通,,,金城ふ頭,名古屋,名臨高,金城ふ頭,名臨高,名古屋,15.2,13:14:00,,13:37:00,,00:23:00,自由席,名古屋臨海高速鉄道,,,1601,名古屋臨海高速鉄道,39.65217391304334,金城ふ頭,136.849009,35.048775,名臨高,名古屋,136.882417,35.168733,名臨高
563,2019.01.13,5522F,ＪＲ,東海道線,快速,,,大垣,豊橋,JR東海,名古屋,JR東海,金山,3.3,15:01:00,,15:04:00,,00:03:00,自由席,JR東海,313,,クモハ313-5007,JR東海,66.00000000000023,名古屋,136.881637,35.170694,JR東海,金山,136.900517,35.142928,JR東海
564,2019.01.13,40,私鉄,名鉄常滑線,特急,ミュースカイ,,新鵜沼,中部国際空港,名鉄,金山,名鉄,中部国際空港,35.7,15:24:00,,15:48:00,,00:24:00,指定席,名古屋鉄道,,,2056,名古屋鉄道,89.25000000000033,金山,136.9013,35.142871,名鉄,中部国際空港,136.816382,34.859262,名鉄
565,2019.03.13,2028M,ＪＲ,成田線総武線,特急,成田エクスプレス,28.0,成田空港（第１旅客ターミナル）,池袋,JR東日本,成田空港（第１旅客ターミナル）,JR東日本,東京,79.2,14:18:00,,15:14:00,,00:56:00,指定席,JR東日本,E259,,モハE259-505,JR東日本,84.85714285714292,成田空港（第１旅客ターミナル）,140.384644,35.763983,JR東日本,東京,139.766103,35.681391,JR東日本
566,2019.03.13,19M,ＪＲ,上野東京ライン常磐線,特急,ひたち,19.0,品川,いわき,JR東日本,東京,JR東日本,水戸,121.1,15:53:00,,17:05:00,,01:12:00,指定席,JR東日本,E657,,モハE656-211,JR東日本,100.9166666666668,東京,139.766103,35.681391,JR東日本,水戸,140.47676,36.370911,JR東日本
567,2019.03.14,82M,ＪＲ,常磐線上野東京ライン,特急,ときわ,82.0,高萩,品川,JR東日本,水戸,JR東日本,品川,127.9,16:53:00,,18:23:00,,01:30:00,指定席,JR東日本,E657,,クハE656-14,JR東日本,85.26666666666667,水戸,140.47676,36.370911,JR東日本,品川,139.738999,35.62876,JR東日本
568,2019.03.14,2045G2145G,ＪＲ,山手線,普通,,,大崎,外回り,JR東日本,品川,JR東日本,渋谷,7.2,21:36:00,,21:50:00,,00:14:00,自由席,JR東日本,E235,,サハE235-4608,JR東日本,30.857142857142964,品川,139.738999,35.62876,JR東日本,渋谷,139.701238,35.658871,JR東日本
569,2019.03.14,2121G,ＪＲ,山手線,普通,,,大崎,外回り,JR東日本,渋谷,JR東日本,原宿,1.2,22:02:00,,22:04:00,,00:02:00,自由席,JR東日本,E235,,モハE235-23,JR東日本,36.000000000003006,渋谷,139.701238,35.658871,JR東日本,原宿,139.702592,35.670646,JR東日本
570,2019.03.14,2128G2228G,ＪＲ,山手線,普通,,,大崎,内回り,JR東日本,原宿,JR東日本,品川,8.4,22:06:00,,22:21:00,,00:15:00,自由席,JR東日本,E235,,モハE234-62,JR東日本,33.60000000000012,原宿,139.702592,35.670646,JR東日本,品川,139.738999,35.62876,JR東日本
571,2019.03.15,610G,ＪＲ,山手線,普通,,,大崎,内回り,JR東日本,品川,JR東日本,東京,6.8,06:50:00,,07:02:00,,00:12:00,自由席,JR東日本,E235,,モハE235-77,JR東日本,33.99999999999989,品川,139.738999,35.62876,JR東日本,東京,139.766103,35.681391,JR東日本
572,2019.03.15,4119B,ＪＲ,東北新幹線,新幹線,はやて,119.0,東京,盛岡,JR東日本,東京,JR東日本,大宮,30.3,07:16:00,,07:41:00,,00:25:00,指定席,JR東日本,E2,1000.0,E225-1020,JR東日本,72.71999999999979,東京,139.766103,35.681391,JR東日本,大宮,139.62405,35.906439,JR東日本
573,2019.03.15,300C,ＪＲ,上越新幹線,新幹線,MAXとき,300.0,新潟,東京,JR東日本,大宮,JR東日本,東京,30.3,07:47:00,,08:12:00,,00:25:00,指定席,JR東日本,E4,,E455-119,JR東日本,72.72000000000027,大宮,139.62405,35.906439,JR東日本,東京,139.766103,35.681391,JR東日本
574,2019.03.15,1136M,ＪＲ,東海道線,普通,,,土浦,品川,JR東日本,東京,JR東日本,品川,6.8,08:21:00,,08:30:00,,00:09:00,自由席,JR東日本,E531,,サハE531-2011,JR東日本,45.33333333333309,東京,139.766103,35.681391,JR東日本,品川,139.738999,35.62876,JR東日本
575,2019.03.15,3005M,ＪＲ,東海道線伊東線伊豆急行線,特急,スーパービュー踊り子,5.0,東京,伊豆急下田,JR東日本,品川,伊豆急,河津,150.0,11:08:00,,13:18:00,,02:10:00,指定席,JR東日本,251,,サハ251-2,JR東日本,69.23076923076918,品川,139.738999,35.62876,JR東日本,河津,138.996179,34.747711,伊豆急
576,2019.03.15,3008M,ＪＲ,伊豆急行線伊東線,特急,スーパービュー踊り子,8.0,伊豆急下田,東京,伊豆急,河津,JR東日本,熱海,52.2,14:24:00,,15:32:00,,01:08:00,指定席,JR東日本,251,,モハ250-1,JR東日本,46.05882352941171,河津,138.996179,34.747711,伊豆急,熱海,139.077679,35.103573,JR東日本
577,2019.03.15,453M,ＪＲ,東海道線,普通,,,熱海,浜松,JR東日本,熱海,JR東海,三島,16.1,15:40:00,,15:52:00,,00:12:00,自由席,JR東海,210,,クハ210-5038,JR東海,80.5000000000003,熱海,139.077679,35.103573,JR東日本,三島,138.911133,35.12625300000001,JR東海
578,2019.03.15,671A,ＪＲ,東海道新幹線,新幹線,こだま,671.0,東京,名古屋,JR東海,三島,JR東海,静岡,59.5,17:24:00,,17:51:00,,00:27:00,自由席,JR東海,N700A,2000.0,786-2052,JR東海,132.22222222222192,三島,138.911133,35.12625300000001,JR東海,静岡,138.388579,34.971629,JR東海
579,2019.03.16,759M,ＪＲ,東海道線,普通,,,興津,浜松,JR東海,静岡,JR東海,金谷,32.7,10:42:00,,11:13:00,,00:31:00,自由席,JR東海,313,,クハ312-2312,JR東海,63.29032258064507,静岡,138.388579,34.971629,JR東海,金谷,138.125578,34.819049,JR東海
580,2019.03.16,807,私鉄,大井川鐵道大井川本線,普通,,,金谷,新金谷,大鐵,金谷,大鐵,新金谷,2.3,11:26:00,,11:29:00,,00:03:00,自由席,大井川鐵道,,,C108E101スハフ42 2186,大井川鐵道,46.000000000001386,金谷,138.12605,34.819568,大鐵,新金谷,138.137645,34.825737,大鐵
581,2019.03.16,101,私鉄,大井川鐵道大井川本線,SL急行,かわね路,1.0,新金谷,千頭,大鐵,新金谷,大鐵,家山,14.8,11:52:00,,12:20:00,,00:28:00,指定席,大井川鐵道,,,C108E101オハ35 559,大井川鐵道,31.714285714285648,新金谷,138.137645,34.825737,大鐵,家山,138.077764,34.940071,大鐵
582,2019.03.16,10,私鉄,大井川鐵道大井川本線,普通,,,千頭,金谷,大鐵,家山,大鐵,金谷,17.1,13:27:00,,13:57:00,,00:30:00,自由席,大井川鐵道,,,16103,大井川鐵道,34.200000000000124,家山,138.077764,34.940071,大鐵,金谷,138.12605,34.819568,大鐵
583,2019.03.16,5948M,ＪＲ,東海道線,普通,,,豊橋,興津,JR東海,金谷,JR東海,島田,5.1,14:08:00,,14:13:00,,00:05:00,自由席,JR東海,211,,クモハ211-5611,JR東海,61.200000000000216,金谷,138.125578,34.819049,JR東海,島田,138.173436,34.830159,JR東海
584,2019.03.18,1538E,ＪＲ,東海道線,普通,,,沼津,小金井,JR東日本,根府川,JR東日本,小田原,6.5,06:31:00,,06:39:00,,00:08:00,自由席,JR東日本,E233,3000.0,モハE232-3817,JR東日本,48.74999999999969,根府川,139.138504,35.202455,JR東日本,小田原,139.155772,35.256225,JR東日本
585,2019.03.18,321M,ＪＲ,東海道線,普通,,,東京,沼津,JR東日本,小田原,JR東日本,根府川,6.5,06:45:00,,06:52:00,,00:07:00,自由席,JR東日本,E231,,モハE231-1512,JR東日本,55.714285714285275,小田原,139.155772,35.256225,JR東日本,根府川,139.138504,35.202455,JR東日本
586,2019.03.18,3953M,ＪＲ,千歳線,快速,エアポート,185.0,新千歳空港,小樽,JR北海道,新千歳空港,JR北海道,南千歳,2.6,18:30:00,,18:33:00,,00:03:00,自由席,JR北海道,721,,クハ721-3222,JR北海道,52.00000000000019,新千歳空港,141.680823,42.787546,JR北海道,南千歳,141.675388,42.80804000000001,JR北海道
587,2019.03.18,3964M,ＪＲ,千歳線,快速,エアポート,180.0,小樽,新千歳空港,JR北海道,南千歳,JR北海道,新千歳空港,2.6,18:39:00,,18:42:00,,00:03:00,自由席,JR北海道,733,,サハ733-3210,JR北海道,51.999999999997414,南千歳,141.675388,42.80804000000001,JR北海道,新千歳空港,141.680823,42.787546,JR北海道
588,2019.03.19,9266D,ＪＲ,石勝線,普通,,,夕張,新夕張,JR北海道,夕張,JR北海道,新夕張,16.1,08:28:00,,08:52:00,,00:24:00,自由席,JR北海道,キハ40,,キハ40 351,JR北海道,40.250000000000014,夕張,141.967472,43.050926,JR北海道,新夕張,142.03657,42.936611,JR北海道
589,2019.03.19,4002D,ＪＲ,石勝線,特急,スーパーおおぞら,2.0,釧路,札幌,JR北海道,新夕張,JR北海道,南千歳,43.0,09:40:00,,10:13:00,,00:33:00,自由席,JR北海道,キハ283,,キハ282-104,JR北海道,78.18181818181809,新夕張,142.03657,42.936611,JR北海道,南千歳,141.675388,42.80804000000001,JR北海道
590,2019.03.19,3878M,ＪＲ,千歳線,快速,エアポート,96.0,札幌,新千歳空港,JR北海道,南千歳,JR北海道,新千歳空港,2.6,10:24:00,,10:27:00,,00:03:00,自由席,JR北海道,721,,クハ721-3222,JR北海道,52.00000000000157,南千歳,141.675388,42.80804000000001,JR北海道,新千歳空港,141.680823,42.787546,JR北海道
591,2019.03.19,0240,私鉄,南海電鉄空港線南海電鉄本線,特急,ラピートβ,60.0,関西空港,難波,南海,関西空港,南海,難波,42.8,17:05:00,,17:46:00,,00:41:00,指定席,南海電鉄,,,50001,南海電鉄,62.634146341463385,関西空港,135.243601,34.435848,南海,難波,135.501949,34.66357,南海
592,2019.03.19,388,地下鉄,大阪メトロ堺筋線,普通,,,天下茶屋,北千里,大阪メトロ,日本橋,大阪メトロ,北浜,2.8,20:10:00,,20:15:00,,00:05:00,自由席,大阪市高速電気軌道,,,5409,大阪市高速電気軌道,33.600000000000115,日本橋,135.506635,34.667146,大阪メトロ,北浜,135.506634,34.691588,大阪メトロ
593,2019.03.19,B2004Z,私鉄,京阪本線,特急,,,淀屋橋,出町柳,京阪,北浜,京阪,丹波橋,40.8,20:21:00,,21:02:00,,00:41:00,自由席,京阪電気鉄道,,,9105,京阪電気鉄道,59.70731707317071,北浜,135.50683,34.691799,京阪,丹波橋,135.765457,34.938879,京阪
594,2019.03.19,K1904Z,私鉄,京阪本線,準急,,,淀屋橋,出町柳,京阪,丹波橋,京阪,東福寺,4.8,21:04:00,,21:14:00,,00:10:00,自由席,京阪電気鉄道,,,9703,京阪電気鉄道,28.799999999999642,丹波橋,135.765457,34.938879,京阪,東福寺,135.769998,34.981351,京阪
595,2019.03.19,1662M,ＪＲ,奈良線,普通,,,城陽,京都,JR西日本,東福寺,JR西日本,京都,1.1,21:17:00,,21:20:00,,00:03:00,自由席,JR西日本,205,,モハ205-103,JR西日本,22.00000000000125,東福寺,135.769778,34.981371,JR西日本,京都,135.757748,34.985465,JR西日本
596,2019.03.19,9411A,ＪＲ,東海道新幹線,新幹線,のぞみ,411.0,東京,新大阪,JR西日本,京都,JR西日本,新大阪,39.0,21:33:00,,21:46:00,,00:13:00,自由席,JR東海,700,0.0,727-58,JR東海,180.00000000000065,京都,135.757748,34.985465,JR西日本,新大阪,135.501852,34.734136,JR西日本
597,2019.03.19,2524S,ＪＲ,おおさか東線,普通,,,新大阪,久宝寺,JR西日本,新大阪,JR西日本,久宝寺,20.2,21:55:00,,22:28:00,,00:33:00,自由席,JR西日本,201,,クハ200-92,JR西日本,36.72727272727303,新大阪,135.501852,34.734136,JR西日本,久宝寺,135.583988,34.62255800000001,JR西日本
598,2019.03.19,1875K,ＪＲ,大和路線,普通,,,王寺,ＪＲ難波,JR西日本,久宝寺,JR西日本,ＪＲ難波,10.6,22:34:00,,22:53:00,,00:19:00,自由席,JR西日本,201,,モハ200-266,JR西日本,33.473684210526436,久宝寺,135.583988,34.62255800000001,JR西日本,ＪＲ難波,135.495265,34.666438,JR西日本
599,2019.03.20,1705,私鉄,南海電鉄本線,急行,,,難波,和歌山市,南海,難波,南海,和歌山市,64.2,07:02:00,,08:05:00,,01:03:00,自由席,南海電鉄,,,8359,南海電鉄,61.14285714285713,難波,135.501949,34.66357,南海,和歌山市,135.166538,34.236925,南海
600,2019.03.20,5803,私鉄,南海和歌山港線,普通,,,和歌山市,和歌山港,南海,和歌山市,南海,和歌山港,2.8,08:13:00,,08:17:00,,00:04:00,自由席,南海電鉄,,,7962,南海電鉄,42.00000000000015,和歌山市,135.166538,34.236925,南海,和歌山港,135.146488,34.21732100000001,南海
601,2019.03.20,4005D,ＪＲ,徳島線,特急,剣山,5.0,徳島,阿波池田,JR四国,徳島,JR四国,阿波池田,74.0,12:01:00,,13:16:00,,01:15:00,自由席,JR四国,キハ185,,キハ185 1017,JR四国,59.19999999999996,徳島,134.551391,34.074572,JR四国,阿波池田,133.804669,34.026891,JR四国
602,2019.03.20,44D,ＪＲ,土讃線,特急,南風,14.0,高知,岡山,JR四国,阿波池田,JR四国,宇多津,50.7,13:22:00,,14:05:00,,00:43:00,自由席,JR四国,2000,,2111,JR四国,70.74418604651162,阿波池田,133.804669,34.026891,JR四国,宇多津,133.813686,34.306271,JR四国
603,2019.03.20,138M,ＪＲ,土讃線,快速,サンポート南風リレー,,松山,高松,JR四国,宇多津,JR四国,坂出,4.6,14:10:00,,14:14:00,,00:04:00,自由席,JR四国,7300,,7307,JR四国,69.00000000000024,宇多津,133.813686,34.306271,JR四国,坂出,133.856819,34.313189,JR四国
604,2019.03.20,129M,ＪＲ,土讃線,快速,サンポート南風リレー,,高松,松山,JR四国,坂出,JR四国,宇多津,4.6,14:30:00,,14:34:00,,00:04:00,自由席,JR四国,7000,,7012,JR四国,69.00000000000024,坂出,133.856819,34.313189,JR四国,宇多津,133.813686,34.306271,JR四国
605,2019.03.20,43D,ＪＲ,土讃線,特急,南風,13.0,岡山,宿毛,JR四国,宇多津,JR四国,高知,133.4,14:40:00,,16:39:00,,01:59:00,自由席,JR四国,2000,,2118,JR四国,67.26050420168065,宇多津,133.813686,34.306271,JR四国,高知,133.543522,33.566758,JR四国
606,2019.03.20,261,路面電車,とさでん交通桟橋線,普通,,,高知駅前,桟橋通五丁目,土佐電,高知駅前,土佐電,はりまや橋,0.8,16:51:00,,16:56:00,,00:05:00,自由席,土佐電気鉄道,,,3001C,土佐電気鉄道,9.600000000000035,高知駅前,133.543606,33.56653,土佐電,はりまや橋,133.542852,33.559617,土佐電
607,2019.03.20,287,路面電車,とさでん交通桟橋線,普通,,,高知駅前,桟橋通五丁目,土佐電,はりまや橋,土佐電,桟橋通五丁目,2.4,18:20:00,,18:30:00,,00:10:00,自由席,土佐電気鉄道,,,3001C,土佐電気鉄道,14.399999999999821,はりまや橋,133.542852,33.559617,土佐電,桟橋通五丁目,133.552938,33.540286,土佐電
608,2019.03.20,296,路面電車,とさでん交通桟橋線,普通,,,桟橋通五丁目,高知駅前,土佐電,桟橋通五丁目,土佐電,はりまや橋,2.4,18:42:00,,18:53:00,,00:11:00,自由席,土佐電気鉄道,,,1002,土佐電気鉄道,13.090909090909136,桟橋通五丁目,133.552938,33.540286,土佐電,はりまや橋,133.542852,33.559617,土佐電
609,2019.03.21,98,路面電車,とさでん交通桟橋線,普通,,,桟橋通五丁目,高知駅前,土佐電,はりまや橋,土佐電,高知駅前,0.8,09:48:00,,09:53:00,,00:05:00,自由席,土佐電気鉄道,,,591,土佐電気鉄道,9.600000000000188,はりまや橋,133.542852,33.559617,土佐電,高知駅前,133.543606,33.56653,土佐電
610,2019.03.21,8753D,ＪＲ,土讃線,快速,志国高知 幕末維新号龍馬立志の巻,,高知,窪川,JR四国,高知,JR四国,窪川,72.1,10:14:00,,12:39:00,,02:25:00,指定席,JR四国,キハ185,,キハ185 20キクハ32-501,JR四国,29.83448275862068,高知,133.543522,33.566758,JR四国,窪川,133.137285,33.212656,JR四国
611,2019.03.21,4823D,ＪＲ,予土線,普通,,,窪川,宇和島,JR四国,窪川,JR四国,宇和島,82.2,13:19:00,,15:34:00,,02:15:00,自由席,JR四国,キハ32,,キハ32 4,JR四国,36.53333333333334,窪川,133.137285,33.212656,JR四国,宇和島,132.56746,33.225774,JR四国
612,2019.03.21,1072D,ＪＲ,予讃線内子線,特急,宇和海,22.0,宇和島,松山,JR四国,宇和島,JR四国,松山,96.9,16:03:00,,17:27:00,,01:24:00,自由席,JR四国,2000,,2105,JR四国,69.21428571428584,宇和島,132.56746,33.225774,JR四国,松山,132.751149,33.839954,JR四国
613,2019.03.21,139,路面電車,伊予鉄道１系統,普通,,,松山市駅前,外回り,伊予鉄,松山駅前,伊予鉄,古町,0.8,18:00:00,,18:05:00,,00:05:00,自由席,伊予鉄道,,,2006,伊予鉄道,9.600000000000035,松山駅前,132.752326,33.840765,伊予鉄,古町,132.754998,33.846978,伊予鉄
614,2019.03.21,107,私鉄,伊予鉄道高浜線,普通,,,高浜,横河原,伊予鉄,古町,伊予鉄,松山市,1.8,18:15:00,,18:21:00,,00:06:00,自由席,伊予鉄道,,,3503,伊予鉄道,17.999999999999584,古町,132.754998,33.846978,伊予鉄,松山市,132.762281,33.835656,伊予鉄
615,2019.03.21,173,路面電車,伊予鉄道１系統,普通,,,松山市駅前,外回り,伊予鉄,松山市駅前,伊予鉄,松山駅前,1.3,20:20:00,,20:29:00,,00:09:00,自由席,伊予鉄道,,,2006,伊予鉄道,8.666666666666544,松山市駅前,132.762587,33.836148,伊予鉄,松山駅前,132.752326,33.840765,伊予鉄
616,2019.03.22,31,路面電車,伊予鉄道１系統,普通,,,松山市駅前,外回り,伊予鉄,松山駅前,伊予鉄,古町,0.8,08:40:00,,08:45:00,,00:05:00,自由席,伊予鉄道,,,69,伊予鉄道,9.600000000000035,松山駅前,132.752326,33.840765,伊予鉄,古町,132.754998,33.846978,伊予鉄
617,2019.03.22,6001,路面電車,伊予鉄道５系統,普通,坊っちゃん列車,,古町,道後温泉,伊予鉄,古町,伊予鉄,大街道,2.7,08:57:00,,09:17:00,,00:20:00,自由席,伊予鉄道,,,12,伊予鉄道,8.099999999999964,古町,132.754998,33.846978,伊予鉄,大街道,132.769861,33.841103,伊予鉄
618,2019.03.22,247,路面電車,伊予鉄道２系統,普通,,,松山市駅前,内回り,伊予鉄,大街道,伊予鉄,松山駅前,4.6,11:35:00,,12:00:00,,00:25:00,自由席,伊予鉄道,,,2002,伊予鉄道,11.040000000000004,大街道,132.769861,33.841103,伊予鉄,松山駅前,132.752326,33.840765,伊予鉄
619,2019.03.22,18M,ＪＲ,予讃線,特急,しおかぜ,18.0,松山,岡山,JR四国,松山,JR四国,伊予西条,80.1,12:21:00,,13:25:00,,01:04:00,指定席,JR四国,8600,,8802,JR四国,75.09374999999989,松山,132.751149,33.839954,JR四国,伊予西条,133.188275,33.912584,JR四国
620,2019.03.22,20M,ＪＲ,予讃線瀬戸大橋線,特急,しおかぜ,20.0,松山,岡山,JR四国,伊予西条,JR西日本,児島,106.5,14:26:00,,15:49:00,,01:23:00,指定席,JR四国,8000,,8106,JR四国,76.9879518072289,伊予西条,133.188275,33.912584,JR四国,児島,133.807729,34.462817,JR西日本
621,2019.03.22,3143M,ＪＲ,瀬戸大橋線予讃線,快速,マリンライナー,43.0,岡山,高松,JR西日本,児島,JR四国,高松,44.0,16:06:00,,16:37:00,,00:31:00,自由席,JR四国,223,,クハ222-5002,JR四国,85.16129032258094,児島,133.807729,34.462817,JR西日本,高松,134.046821,34.35075399999999,JR四国
622,2019.03.22,3023D,ＪＲ,高徳線,特急,うずしお,23.0,高松,徳島,JR四国,高松,JR四国,志度,16.3,17:15:00,,17:30:00,,00:15:00,自由席,JR四国,2600,,2652,JR四国,65.20000000000023,高松,134.046821,34.35075399999999,JR四国,志度,134.173144,34.321508,JR四国
623,2019.03.22,1072,私鉄,琴電志度線,普通,,,琴電志度,瓦町,琴電,琴電志度,琴電,瓦町,12.5,17:40:00,,18:15:00,,00:35:00,自由席,高松琴平電気鉄道,,,627,高松琴平電気鉄道,21.428571428571505,琴電志度,134.172528,34.32246,琴電,瓦町,134.052529,34.338827,琴電
624,2019.03.22,256,私鉄,琴電琴平線,普通,,,滝宮,高松築港,琴電,瓦町,琴電,高松築港,1.7,18:23:00,,18:28:00,,00:05:00,自由席,高松琴平電気鉄道,,,1201,高松琴平電気鉄道,20.400000000000073,瓦町,134.052529,34.338827,琴電,高松築港,134.049507,34.35079,琴電
625,2019.03.23,3005D,ＪＲ,高徳線,特急,うずしお,5.0,高松,徳島,JR四国,高松,JR四国,池谷,64.2,08:24:00,,09:23:00,,00:59:00,自由席,JR四国,N2000,,2458,JR四国,65.28813559322039,高松,134.046821,34.35075399999999,JR四国,池谷,134.529097,34.152783,JR四国
626,2019.03.23,4956D,ＪＲ,鳴門線,普通,,,徳島,鳴門,JR四国,池谷,JR四国,鳴門,8.5,09:40:00,,09:58:00,,00:18:00,自由席,JR四国,1500,,1502,JR四国,28.333333333333183,池谷,134.529097,34.152783,JR四国,鳴門,134.608355,34.179131,JR四国
627,2019.03.23,4961D,ＪＲ,鳴門線,普通,,,鳴門,徳島,JR四国,鳴門,JR四国,徳島,18.8,10:05:00,,10:48:00,,00:43:00,自由席,JR四国,1500,,1502,JR四国,26.232558139534877,鳴門,134.608355,34.179131,JR四国,徳島,134.551391,34.074572,JR四国
628,2019.03.23,3012D,ＪＲ,高徳線,特急,うずしお,12.0,徳島,高松,JR四国,徳島,JR四国,高松,74.5,11:31:00,,12:34:00,,01:03:00,自由席,JR四国,N2000,,2424,JR四国,70.95238095238093,徳島,134.551391,34.074572,JR四国,高松,134.046821,34.35075399999999,JR四国
629,2019.03.23,3132M,ＪＲ,予讃線,快速,マリンライナー,32.0,高松,岡山,JR四国,高松,JR四国,坂出,21.3,12:40:00,,12:54:00,,00:14:00,自由席,JR四国,223,,クモハ223-5002,JR四国,91.28571428571462,高松,134.046821,34.35075399999999,JR四国,坂出,133.856819,34.313189,JR四国
630,2019.03.23,1235M,ＪＲ,予讃線,普通,,,高松,琴平,JR四国,坂出,JR四国,丸亀,7.1,12:59:00,,13:07:00,,00:08:00,自由席,JR四国,7300,,7303,JR四国,53.24999999999912,坂出,133.856819,34.313189,JR四国,丸亀,133.793887,34.292414,JR四国
631,2019.03.23,18M,ＪＲ,予讃線,特急,しおかぜ,18.0,松山,岡山,JR四国,丸亀,JR四国,宇多津,2.6,14:28:00,,14:32:00,,00:04:00,自由席,JR四国,8000,,8305,JR四国,39.00000000000014,丸亀,133.793887,34.292414,JR四国,宇多津,133.813686,34.306271,JR四国
632,2019.03.23,1018M,ＪＲ,予讃線,特急,いしづち,18.0,宇多津,高松,JR四国,宇多津,JR四国,高松,25.9,14:34:00,,14:55:00,,00:21:00,自由席,JR四国,2600,,2601,JR四国,73.9999999999997,宇多津,133.813686,34.306271,JR四国,高松,134.046821,34.35075399999999,JR四国
633,2019.03.23,3019D,ＪＲ,高徳線,特急,うずしお,19.0,高松,徳島,JR四国,高松,JR四国,徳島,74.5,15:12:00,,16:20:00,,01:08:00,自由席,JR四国,N2000,,2458,JR四国,65.73529411764714,高松,134.046821,34.35075399999999,JR四国,徳島,134.551391,34.074572,JR四国
634,2019.03.23,5051D,ＪＲ,牟岐線,特急,むろと,1.0,徳島,牟岐,JR四国,徳島,JR四国,南小松島,10.9,19:33:00,,19:45:00,,00:12:00,指定席,JR四国,キハ185,,キハ185 18,JR四国,54.5000000000002,徳島,134.551391,34.074572,JR四国,南小松島,134.586994,34.005634,JR四国
635,2019.03.23,580D,ＪＲ,牟岐線,普通,,,阿南,徳島,JR四国,南小松島,JR四国,徳島,10.9,19:46:00,,20:06:00,,00:20:00,自由席,JR四国,1500,,1563,JR四国,32.699999999999854,南小松島,134.586994,34.005634,JR四国,徳島,134.551391,34.074572,JR四国
636,2019.03.24,1205D1204D,私鉄,京急空港線京急本線,エアポート急行,,,羽田空港国内線ターミナル,新逗子,京急,羽田空港国内線ターミナル,京急,横浜,20.7,12:13:00,,12:42:00,,00:29:00,自由席,京浜急行電鉄,,,1927,京浜急行電鉄,42.82758620689646,羽田空港国内線ターミナル,139.785962,35.549809,京急,横浜,139.623055,35.466066,京急
637,2019.03.24,705122,私鉄,東急東横線,急行,,,元町・中華街,和光市,東急,横浜,東急,日吉,10.6,12:49:00,,13:00:00,,00:11:00,自由席,東京急行電鉄,,,7432,東京急行電鉄,57.81818181818202,横浜,139.622299,35.466372,東急,日吉,139.646944,35.5539,東急
638,2019.03.24,590132,私鉄,東急目黒線,急行,,,日吉,浦和美園,東急,日吉,東急,武蔵小杉,2.8,13:04:00,,13:07:00,,00:03:00,自由席,東京急行電鉄,,,2707,東京急行電鉄,55.999999999997215,日吉,139.646944,35.5539,東急,武蔵小杉,139.659652,35.575752,東急
639,2019.03.24,102142,私鉄,東急東横線,急行,,,元町・中華街,和光市,東急,武蔵小杉,東急,中目黒,8.6,14:49:00,,15:01:00,,00:12:00,自由席,東京急行電鉄,,,6655,東京急行電鉄,43.00000000000015,武蔵小杉,139.659652,35.575752,東急,中目黒,139.698621,35.643854,東急
640,2019.03.24,B1502S,地下鉄,東京メトロ日比谷線,普通,,,中目黒,東武動物公園,東京メトロ,中目黒,東京メトロ,秋葉原,13.5,15:05:00,,15:36:00,,00:31:00,自由席,東京メトロ,,,13403,東京メトロ,26.129032258064473,中目黒,139.698621,35.643854,東京メトロ,秋葉原,139.775459,35.698162,東京メトロ
641,2019.03.24,1705C,ＪＲ,中央・総武線,普通,,,津田沼,中野,JR東日本,秋葉原,JR東日本,御茶ノ水,0.9,17:47:00,,17:49:00,,00:02:00,自由席,JR東日本,E231,,モハE231-106,JR東日本,27.000000000000096,秋葉原,139.773288,35.698619,JR東日本,御茶ノ水,139.764955,35.699605,JR東日本
642,2019.03.24,1803H,ＪＲ,中央線快速,中央特快,,,東京,河口湖,JR東日本,御茶ノ水,JR東日本,三鷹,21.5,18:13:00,,18:36:00,,00:23:00,自由席,JR東日本,E233,,モハE232-251,JR東日本,56.086956521738934,御茶ノ水,139.764955,35.699605,JR東日本,三鷹,139.560325,35.702683,JR東日本
643,2019.03.24,9592M,ＪＲ,中央本線,快速,ホリデー快速ビューやまなし,,小淵沢,新宿,JR東日本,三鷹,JR東日本,新宿,13.8,18:39:00,,18:55:00,,00:16:00,自由席,JR東日本,215,,サハ215-103,JR東日本,51.749999999999154,三鷹,139.560325,35.702683,JR東日本,新宿,139.700464,35.689729,JR東日本
644,2019.03.24,2863Y,ＪＲ,湘南新宿ライン,快速,,,籠原,小田原,JR東日本,新宿,JR東日本,武蔵小杉,20.6,22:00:00,,22:19:00,,00:19:00,自由席,JR東日本,E231,,モハE231-3521,JR東日本,65.05263157894706,新宿,139.700464,35.689729,JR東日本,武蔵小杉,139.65963,35.57669,JR東日本
645,2019.03.25,016111,私鉄,東急東横線,各駅停車,,,和光市,菊名,東急,武蔵小杉,東急,日吉,2.8,11:21:00,,11:27:00,,00:06:00,自由席,東京急行電鉄,,,5671,東京急行電鉄,28.0000000000001,武蔵小杉,139.659652,35.575752,東急,日吉,139.646944,35.5539,東急
646,2019.03.25,588132,私鉄,東急目黒線,各駅停車,,,日吉,赤羽岩淵,東急,日吉,東急,武蔵小杉,2.8,13:13:00,,13:17:00,,00:04:00,自由席,東京急行電鉄,,,2804,東京急行電鉄,42.00000000000015,日吉,139.646944,35.5539,東急,武蔵小杉,139.659652,35.575752,東急
647,2019.03.25,2031M,ＪＲ,横須賀線総武線成田線,特急,成田エクスプレス,31.0,大船,成田空港（第１旅客ターミナル）,JR東日本,武蔵小杉,JR東日本,成田空港（第１旅客ターミナル）,96.0,13:40:00,,14:57:00,,01:17:00,指定席,JR東日本,E259,,クハE258-8,JR東日本,74.80519480519476,武蔵小杉,139.65963,35.57669,JR東日本,成田空港（第１旅客ターミナル）,140.384644,35.763983,JR東日本
