station_name_x,lon_x,lat_x,company_name_r_x,station_name_y,lon_y,lat_y,company_name_r_y,type,service,distance,seat
成田空港（第１旅客ターミナル）,140.384644,35.763983,JR東日本,品川,139.738999,35.62876,JR東日本,ＪＲ,特急,86,指定席
品川,139.73809,35.628284,京急,羽田空港国内線ターミナル,139.785962,35.549809,京急,私鉄,快特,14.5,自由席
羽田空港第１ビル,139.784653,35.549163,東京モノレール,新整備場,139.786777,35.542773,東京モノレール,モノレール,普通,0.8,自由席
新整備場,139.786777,35.542773,東京モノレール,羽田空港国際線ビル,139.768206,35.544169,東京モノレール,モノレール,普通,2.2,自由席
羽田空港国際線ビル,139.768206,35.544169,東京モノレール,浜松町,139.756747,35.655666,東京モノレール,モノレール,空港快速,14,自由席
浜松町,139.757135,35.655391,JR東日本,上野,139.777043,35.71379,JR東日本,ＪＲ,普通,6.7,自由席
上野,139.777043,35.71379,JR東日本,池袋,139.711086,35.730256,JR東日本,ＪＲ,普通,8.7,自由席
池袋,139.711086,35.730256,JR東日本,品川,139.738999,35.62876,JR東日本,ＪＲ,普通,15.4,自由席
品川,139.738999,35.62876,JR東日本,秋葉原,139.773288,35.698619,JR東日本,ＪＲ,普通,8.8,自由席
秋葉原,139.773288,35.698619,JR東日本,品川,139.738999,35.62876,JR東日本,ＪＲ,普通,8.8,自由席
品川,139.738999,35.62876,JR東日本,新横浜,139.617348,35.506824,JR東日本,ＪＲ,新幹線,22,自由席
新横浜,139.617348,35.506824,JR東日本,品川,139.738999,35.62876,JR東日本,ＪＲ,新幹線,22,自由席
品川,139.738999,35.62876,JR東日本,秋葉原,139.773288,35.698619,JR東日本,ＪＲ,快速,8.8,自由席
秋葉原,139.773288,35.698619,JR東日本,品川,139.738999,35.62876,JR東日本,ＪＲ,快速,8.8,自由席
品川,139.738999,35.62876,JR東日本,成田空港（第１旅客ターミナル）,140.384644,35.763983,JR東日本,ＪＲ,特急,86,指定席
成田空港（第１旅客ターミナル）,140.384644,35.763983,JR東日本,品川,139.738999,35.62876,JR東日本,ＪＲ,特急,86,指定席
品川,139.738999,35.62876,JR東日本,秋葉原,139.773288,35.698619,JR東日本,ＪＲ,普通,8.8,自由席
秋葉原,139.773288,35.698619,JR東日本,上野,139.777043,35.71379,JR東日本,ＪＲ,普通,1.6,自由席
上野,139.777043,35.71379,JR東日本,秋葉原,139.773288,35.698619,JR東日本,ＪＲ,普通,1.6,自由席
秋葉原,139.773288,35.698619,JR東日本,品川,139.738999,35.62876,JR東日本,ＪＲ,普通,8.8,自由席
品川,139.738999,35.62876,JR東日本,有楽町,139.763806,35.675441,JR東日本,ＪＲ,普通,6,自由席
日比谷,139.76017,35.67459,東京メトロ,築地,139.772603,35.668115,東京メトロ,地下鉄,普通,1.4,自由席
築地,139.772603,35.668115,東京メトロ,銀座,139.763965,35.671989,東京メトロ,地下鉄,普通,1,自由席
銀座,139.763965,35.671989,東京メトロ,新橋,139.758432,35.667434,東京メトロ,地下鉄,普通,0.9,自由席
新橋,139.758587,35.666195,JR東日本,品川,139.738999,35.62876,JR東日本,ＪＲ,普通,4.9,自由席
品川,139.738999,35.62876,JR東日本,京都,135.757748,34.985465,JR西日本,ＪＲ,新幹線,506.8,指定席
二条城前,135.750473,35.011892,京都市交通局,京都市役所前,135.768829,35.011003,京都市交通局,地下鉄,普通,1.7,自由席
京都,135.757748,34.985465,JR西日本,姫路,134.690769,34.827659,JR西日本,ＪＲ,新幹線,130.7,指定席
姫路,134.690769,34.827659,JR西日本,広島,132.475593,34.397446,JR西日本,ＪＲ,新幹線,249.9,指定席
広島駅,132.475403,34.396296,広電,袋町,132.456214,34.391187,広電,路面電車,普通,2.6,自由席
袋町,132.456214,34.391187,広電,広島駅,132.475403,34.396296,広電,路面電車,普通,2.6,自由席
広島,132.475593,34.397446,JR西日本,博多,130.420622,33.590002,JR西日本,ＪＲ,新幹線,280.7,指定席
博多,130.420622,33.590002,JR西日本,熊本,130.688499,32.789207,JR九州,ＪＲ,新幹線,118.4,指定席
熊本駅前,130.690398,32.790377,熊本市交通局,熊本城・市役所前,130.707028,32.802967,熊本市交通局,路面電車,普通,2.8,自由席
熊本城・市役所前,130.707028,32.802967,熊本市交通局,熊本駅前,130.690398,32.790377,熊本市交通局,路面電車,普通,2.8,自由席
熊本,130.688499,32.789207,JR九州,博多,130.420622,33.590002,JR西日本,ＪＲ,新幹線,118.4,指定席
博多,130.420622,33.590002,JR九州,長崎,129.870515,32.753085,JR九州,ＪＲ,特急,153.9,自由席
長崎駅前,129.871874,32.75238,長崎電気軌道,市民会館,129.88065,32.74942,長崎電気軌道,路面電車,普通,0.9,自由席
メディカルセンター,129.87241,32.740523,長崎電気軌道,大浦天主堂,129.87078,32.736408,長崎電気軌道,路面電車,普通,0.4,自由席
大浦天主堂,129.87078,32.736408,長崎電気軌道,新地中華街,129.874942,32.742869,長崎電気軌道,路面電車,普通,0.8,自由席
新地中華街,129.874942,32.742869,長崎電気軌道,長崎駅前,129.871874,32.75238,長崎電気軌道,路面電車,普通,1.3,自由席
長崎,129.870515,32.753085,JR九州,博多,130.420622,33.590002,JR九州,ＪＲ,特急,153.9,指定席
博多,130.420622,33.590002,JR西日本,鹿児島中央,130.541789,31.583727,JR九州,ＪＲ,新幹線,288.9,指定席
鹿児島中央,130.541789,31.583727,JR九州,吉松,130.738104,32.012026,JR九州,ＪＲ,特急,68.5,指定席
吉松,130.738104,32.012026,JR九州,人吉,130.753797,32.216142,JR九州,ＪＲ,普通,35,指定席
人吉,130.753797,32.216142,JR九州,熊本,130.688499,32.789207,JR九州,ＪＲ,特急,87.5,指定席
熊本駅前,130.690398,32.790377,熊本市交通局,水道町,130.712564,32.80239,熊本市交通局,路面電車,普通,3.3,自由席
水道町,130.712564,32.80239,熊本市交通局,熊本城・市役所前,130.707028,32.802967,熊本市交通局,路面電車,普通,0.5,自由席
熊本城・市役所前,130.707028,32.802967,熊本市交通局,熊本駅前,130.690398,32.790377,熊本市交通局,路面電車,普通,2.8,自由席
熊本,130.688499,32.789207,JR九州,博多,130.420622,33.590002,JR西日本,ＪＲ,新幹線,118.4,自由席
博多,130.420622,33.590002,JR西日本,小倉,130.882678,33.886756,JR九州,ＪＲ,新幹線,67.2,自由席
小倉,130.882678,33.886756,JR九州,博多,130.420622,33.590002,JR西日本,ＪＲ,新幹線,67.2,自由席
博多,130.42085,33.590204,福岡市交通局,福岡空港,130.448501,33.59718,福岡市交通局,地下鉄,普通,3.3,自由席
空港第２ビル（第２旅客ターミナル）,140.387163,35.773693,京成,日暮里,139.771287,35.727908,京成,私鉄,空港快速,61,指定席
日暮里,139.771287,35.727908,JR東日本,池袋,139.711086,35.730256,JR東日本,ＪＲ,普通,6.5,自由席
池袋,139.711086,35.730256,JR東日本,日暮里,139.771287,35.727908,JR東日本,ＪＲ,普通,6.5,自由席
日暮里,139.771287,35.727908,JR東日本,浜松町,139.757135,35.655391,JR東日本,ＪＲ,普通,8.9,自由席
浜松町,139.756747,35.655666,東京モノレール,羽田空港国際線ビル,139.768206,35.544169,東京モノレール,モノレール,空港快速,14,自由席
羽田空港国際線ビル,139.768206,35.544169,東京モノレール,新整備場,139.786777,35.542773,東京モノレール,モノレール,普通,2.2,自由席
新整備場,139.786777,35.542773,東京モノレール,羽田空港国際線ビル,139.768206,35.544169,東京モノレール,モノレール,普通,2.2,自由席
成田空港（第１旅客ターミナル）,140.384644,35.763983,JR東日本,東京,139.766103,35.681391,JR東日本,ＪＲ,特急,79.2,指定席
東京,139.766103,35.681391,JR東日本,仙台,140.882158,38.260027,JR東日本,ＪＲ,新幹線,351.8,指定席
仙台,140.882158,38.260027,JR東日本,松島海岸,141.058523,38.368529,JR東日本,ＪＲ,普通,22.7,自由席
松島海岸,141.058523,38.368529,JR東日本,あおば通,140.878514,38.260749,JR東日本,ＪＲ,普通,23.2,自由席
仙台,140.882158,38.260027,JR東日本,秋田,140.129931,39.716748,JR東日本,ＪＲ,新幹線,310.8,指定席
秋田,140.129931,39.716748,JR東日本,弘前,140.485016,40.599723,JR東日本,ＪＲ,快速,210.2,指定席
弘前,140.485016,40.599723,JR東日本,新青森,140.693472,40.8275,JR東日本,ＪＲ,特急,33.5,指定席
新青森,140.693472,40.8275,JR東日本,新函館北斗,140.646525,41.9054,JR北海道,ＪＲ,新幹線,148.8,指定席
新函館北斗,140.646525,41.9054,JR北海道,函館,140.726413,41.773709,JR北海道,ＪＲ,普通,17.9,自由席
函館駅前,140.727997,41.77264,函館市電,十字街,140.718513,41.763998,函館市電,路面電車,普通,1.3,自由席
十字街,140.718513,41.763998,函館市電,函館駅前,140.727997,41.77264,函館市電,路面電車,普通,1.3,自由席
函館,140.726413,41.773709,JR北海道,新函館北斗,140.646525,41.9054,JR北海道,ＪＲ,普通,17.9,自由席
新函館北斗,140.646525,41.9054,JR北海道,仙台,140.882158,38.260027,JR東日本,ＪＲ,新幹線,510.7,指定席
仙台,140.882158,38.260027,JR東日本,古川,140.967876,38.571192,JR東日本,ＪＲ,新幹線,43.2,指定席
古川,140.967876,38.571192,JR東日本,鳴子温泉,140.715939,38.743193,JR東日本,ＪＲ,普通,35.5,自由席
鳴子温泉,140.715939,38.743193,JR東日本,新庄,140.306064,38.76256,JR東日本,ＪＲ,普通,49.2,自由席
新庄,140.306064,38.76256,JR東日本,東京,139.766103,35.681391,JR東日本,ＪＲ,新幹線,421.4,自由席
東京,139.766103,35.681391,JR東日本,新橋,139.758587,35.666195,JR東日本,ＪＲ,特別快速,1.9,自由席
有楽町,139.763806,35.675441,JR東日本,新橋,139.758587,35.666195,JR東日本,ＪＲ,普通,1.1,自由席
新橋,139.758587,35.666195,JR東日本,浜松町,139.757135,35.655391,JR東日本,ＪＲ,普通,1.2,自由席
浜松町,139.756747,35.655666,東京モノレール,羽田空港第２ビル,139.787979,35.550734,東京モノレール,モノレール,区間快速,17.8,自由席
成田空港（第１旅客ターミナル）,140.384644,35.763983,JR東日本,品川,139.738999,35.62876,JR東日本,ＪＲ,特急,86,指定席
品川,139.738999,35.62876,JR東日本,神田,139.770641,35.691173,JR東日本,ＪＲ,普通,8.1,自由席
神田,139.770641,35.691173,JR東日本,新宿,139.700464,35.689729,JR東日本,ＪＲ,中央特快,9,自由席
千駄ケ谷,139.711644,35.681231,JR東日本,新宿,139.700464,35.689729,JR東日本,ＪＲ,普通,1.7,自由席
新宿,139.700464,35.689729,JR東日本,品川,139.738999,35.62876,JR東日本,ＪＲ,普通,10.6,自由席
品川,139.738999,35.62876,JR東日本,大船,139.531127,35.353466,JR東日本,ＪＲ,普通,39.7,自由席
大船,139.531367,35.352359,湘南モノレール,湘南江の島,139.487794,35.311867,湘南モノレール,モノレール,普通,6.6,自由席
湘南海岸公園,139.4833,35.315203,江ノ電,鎌倉高校前,139.500535,35.306698,江ノ電,私鉄,普通,2,自由席
鎌倉高校前,139.500535,35.306698,江ノ電,七里ヶ浜,139.510101,35.306243,江ノ電,私鉄,普通,0.9,自由席
七里ヶ浜,139.510101,35.306243,江ノ電,鎌倉,139.550121,35.318491,江ノ電,私鉄,普通,4.4,自由席
鎌倉,139.550428,35.318793,JR東日本,品川,139.738999,35.62876,JR東日本,ＪＲ,普通,47.1,グリーン車
品川,139.738999,35.62876,JR東日本,熱海,139.077679,35.103573,JR東日本,ＪＲ,特急,97.8,指定席
熱海,139.077679,35.103573,JR東日本,三島,138.911133,35.126253,JR東海,ＪＲ,普通,16.1,自由席
三島,138.911369,35.125946,いずはこ,伊豆長岡,138.947539,35.039907,いずはこ,私鉄,普通,11.4,自由席
沼津,138.860104,35.103011,JR東海,熱海,139.077679,35.103573,JR東日本,ＪＲ,普通,21.6,自由席
熱海,139.077679,35.103573,JR東日本,小田原,139.155772,35.256225,JR東日本,ＪＲ,快速,20.7,自由席
小田原,139.155772,35.256225,JR東日本,熱海,139.077679,35.103573,JR東日本,ＪＲ,快速,20.7,自由席
熱海,139.077679,35.103573,JR東日本,横浜,139.622704,35.466195,JR東日本,ＪＲ,特急,75.8,指定席
横浜,139.622704,35.466195,JR東日本,品川,139.738999,35.62876,JR東日本,ＪＲ,普通,22,自由席
品川,139.738999,35.62876,JR東日本,東京,139.766103,35.681391,JR東日本,ＪＲ,普通,6.8,自由席
東京,139.766103,35.681391,JR東日本,高崎,139.012354,36.322239,JR東日本,ＪＲ,新幹線,105,指定席
高崎,139.012354,36.322239,JR東日本,新前橋,139.046924,36.378936,JR東日本,ＪＲ,SL快速,7.3,指定席
新前橋,139.046924,36.378936,JR東日本,高崎,139.012354,36.322239,JR東日本,ＪＲ,普通,7.3,自由席
高崎,139.012354,36.322239,JR東日本,大宮,139.62405,35.906439,JR東日本,ＪＲ,新幹線,74.7,指定席
大宮,139.62254,35.90751,埼玉新都市交通,鉄道博物館,139.617796,35.920271,埼玉新都市交通,新交通,普通,1.5,自由席
鉄道博物館,139.617796,35.920271,埼玉新都市交通,大宮,139.62254,35.90751,埼玉新都市交通,新交通,普通,1.5,自由席
大宮,139.62405,35.906439,JR東日本,東京,139.766103,35.681391,JR東日本,ＪＲ,普通,30.3,自由席
東京,139.766103,35.681391,JR東日本,秋葉原,139.773288,35.698619,JR東日本,ＪＲ,普通,2,自由席
秋葉原,139.773288,35.698619,JR東日本,品川,139.738999,35.62876,JR東日本,ＪＲ,普通,8.8,自由席
品川,139.738999,35.62876,JR東日本,成田空港（第１旅客ターミナル）,140.384644,35.763983,JR東日本,ＪＲ,特急,86,指定席
中部国際空港,136.816382,34.859262,名鉄,名鉄名古屋,136.884187,35.169252,名鉄,私鉄,空港特急,39.3,指定席
名古屋,136.881637,35.170694,JR東海,新大阪,135.501852,34.734136,JR西日本,ＪＲ,新幹線,186.6,グリーン車
新大阪,135.501852,34.734136,JR西日本,大阪,135.495188,34.702398,JR西日本,ＪＲ,普通,3.8,自由席
大阪,135.495188,34.702398,JR西日本,大阪城公園,135.534482,34.68858,JR西日本,ＪＲ,普通,5,自由席
森ノ宮,135.533996,34.680412,JR西日本,桜ノ宮,135.520944,34.704976,JR西日本,ＪＲ,普通,3.5,自由席
桜ノ宮,135.520944,34.704976,JR西日本,天満,135.512233,34.704923,JR西日本,ＪＲ,普通,0.8,自由席
天満,135.512233,34.704923,JR西日本,大阪,135.495188,34.702398,JR西日本,ＪＲ,普通,1.6,自由席
大阪,135.495188,34.702398,JR西日本,新大阪,135.501852,34.734136,JR西日本,ＪＲ,快速,3.8,自由席
新大阪,135.501852,34.734136,JR西日本,京都,135.757748,34.985465,JR西日本,ＪＲ,新快速,39,自由席
京都,135.757748,34.985465,JR西日本,新大阪,135.501852,34.734136,JR西日本,ＪＲ,特急,39,自由席
新大阪,135.501852,34.734136,JR西日本,京都,135.757748,34.985465,JR西日本,ＪＲ,L特急,39,自由席
京都,135.757748,34.985465,JR西日本,稲荷,135.770707,34.966758,JR西日本,ＪＲ,普通,2.7,自由席
稲荷,135.770707,34.966758,JR西日本,木幡,135.798901,34.924962,JR西日本,ＪＲ,普通,7.9,自由席
木幡,135.796047,34.925859,京阪,宇治,135.806229,34.894678,京阪,私鉄,普通,3.7,自由席
宇治,135.800629,34.890437,JR西日本,奈良,135.818935,34.680482,JR西日本,ＪＲ,みやこ路快速,26.8,自由席
奈良,135.818935,34.680482,JR西日本,新今宮,135.501076,34.650149,JR西日本,ＪＲ,大和路快速,38.5,自由席
新今宮,135.500302,34.650429,南海,難波,135.501949,34.66357,南海,私鉄,普通,1.4,自由席
なんば,135.500277,34.666316,大阪メトロ,新大阪,135.498558,34.732919,大阪メトロ,地下鉄,普通,7.6,自由席
新大阪,135.501852,34.734136,JR西日本,岡山,133.918552,34.666572,JR西日本,ＪＲ,新幹線,180.3,自由席
岡山,133.918552,34.666572,JR西日本,高松,134.046821,34.350754,JR四国,ＪＲ,快速,71.8,自由席
高松築港,134.049507,34.35079,琴電,栗林公園,134.051063,34.328586,琴電,私鉄,普通,2.9,自由席
栗林公園北口,134.041561,34.334188,JR四国,高松,134.046821,34.350754,JR四国,ＪＲ,普通,3.2,自由席
高松,134.046821,34.350754,JR四国,岡山,133.918552,34.666572,JR西日本,ＪＲ,快速,71.8,自由席
岡山,133.918552,34.666572,JR西日本,姫路,134.690769,34.827659,JR西日本,ＪＲ,新幹線,88.6,自由席
姫路,134.690769,34.827659,JR西日本,三ノ宮,135.195058,34.694766,JR西日本,ＪＲ,新快速,57.3,自由席
三ノ宮,135.195058,34.694766,JR西日本,新大阪,135.501852,34.734136,JR西日本,ＪＲ,新快速,34.4,自由席
新大阪,135.501852,34.734136,JR西日本,大阪,135.495188,34.702398,JR西日本,ＪＲ,普通,3.8,自由席
大阪,135.495188,34.702398,JR西日本,福島,135.486563,34.697167,JR西日本,ＪＲ,普通,1,自由席
福島,135.486563,34.697167,JR西日本,大阪,135.495188,34.702398,JR西日本,ＪＲ,普通,1,自由席
大阪,135.495188,34.702398,JR西日本,新大阪,135.501852,34.734136,JR西日本,ＪＲ,普通,3.8,自由席
新大阪,135.501852,34.734136,JR西日本,浜松,137.734759,34.703866,JR東海,ＪＲ,新幹線,295.5,指定席
浜松,137.734759,34.703866,JR東海,名古屋,136.881637,35.170694,JR東海,ＪＲ,新幹線,108.9,自由席
名鉄名古屋,136.884187,35.169252,名鉄,神宮前,136.912485,35.125857,名鉄,私鉄,普通,5.8,自由席
神宮前,136.912485,35.125857,名鉄,名鉄名古屋,136.884187,35.169252,名鉄,私鉄,急行,5.8,自由席
市役所,136.905379,35.18156,名古屋市交通局,久屋大通,136.908156,35.173784,名古屋市交通局,地下鉄,普通,0.9,自由席
久屋大通,136.908156,35.173784,名古屋市交通局,名古屋,136.883925,35.171252,名古屋市交通局,地下鉄,普通,2.4,自由席
名古屋,136.882417,35.168733,名臨高,金城ふ頭,136.849009,35.048775,名臨高,私鉄,普通,15.2,自由席
金城ふ頭,136.849009,35.048775,名臨高,名古屋,136.882417,35.168733,名臨高,私鉄,普通,15.2,自由席
名鉄名古屋,136.884187,35.169252,名鉄,中部国際空港,136.816382,34.859262,名鉄,私鉄,空港特急,39.3,指定席
羽田空港国際線ターミナル,139.768968,35.544676,京急,品川,139.73809,35.628284,京急,私鉄,快特,12.5,自由席
品川,139.738999,35.62876,JR東日本,新橋,139.758587,35.666195,JR東日本,ＪＲ,普通,4.9,自由席
新橋,139.759451,35.665577,東京都交通局,東銀座,139.767253,35.669464,東京都交通局,地下鉄,普通,0.9,自由席
築地,139.772603,35.668115,東京メトロ,銀座,139.763965,35.671989,東京メトロ,地下鉄,普通,1,自由席
銀座,139.763965,35.671989,東京メトロ,東京,139.764708,35.681753,東京メトロ,地下鉄,普通,1.1,自由席
東京,139.766103,35.681391,JR東日本,品川,139.738999,35.62876,JR東日本,ＪＲ,普通,6.8,自由席
品川,139.738999,35.62876,JR東日本,田町,139.747575,35.645736,JR東日本,ＪＲ,普通,2.2,自由席
田町,139.747575,35.645736,JR東日本,品川,139.738999,35.62876,JR東日本,ＪＲ,普通,2.2,自由席
品川,139.738999,35.62876,JR東日本,東京,139.766103,35.681391,JR東日本,ＪＲ,新幹線,6.8,自由席
東京,139.766103,35.681391,JR東日本,三島,138.911133,35.126253,JR東海,ＪＲ,新幹線,120.7,グリーン車
三島,138.911133,35.126253,JR東海,沼津,138.860104,35.103011,JR東海,ＪＲ,普通,5.5,自由席
伊豆長岡,138.947539,35.039907,いずはこ,三島,138.911369,35.125946,いずはこ,私鉄,普通,11.4,自由席
三島,138.911133,35.126253,JR東海,沼津,138.860104,35.103011,JR東海,ＪＲ,普通,5.5,自由席
沼津,138.860104,35.103011,JR東海,横浜,139.622704,35.466195,JR東日本,ＪＲ,寝台特急,97.4,ノビノビ席
横浜,139.622704,35.466195,JR東日本,東神奈川,139.633466,35.47804,JR東日本,ＪＲ,普通,6.1,自由席
東神奈川,139.633466,35.47804,JR東日本,新横浜,139.617348,35.506824,JR東日本,ＪＲ,普通,1.8,自由席
新横浜,139.617348,35.506824,JR東日本,三島,138.911133,35.126253,JR東海,ＪＲ,新幹線,91.9,グリーン車
沼津,138.860104,35.103011,JR東海,三島,138.911133,35.126253,JR東海,ＪＲ,普通,5.5,自由席
三島,138.911369,35.125946,いずはこ,伊豆長岡,138.947539,35.039907,いずはこ,私鉄,普通,11.4,自由席
沼津,138.860104,35.103011,JR東海,清水,138.488958,35.023248,JR東海,ＪＲ,快速,42.8,指定席
清水,138.488958,35.023248,JR東海,沼津,138.860104,35.103011,JR東海,ＪＲ,普通,42.8,自由席
沼津,138.860104,35.103011,JR東海,静岡,138.388579,34.971629,JR東海,ＪＲ,普通,54,自由席
静岡,138.388579,34.971629,JR東海,新大阪,135.501852,34.734136,JR西日本,ＪＲ,新幹線,372.4,グリーン車
新大阪,135.501852,34.734136,JR西日本,京都,135.757748,34.985465,JR西日本,ＪＲ,特急,39,自由席
京都,135.757748,34.985465,JR西日本,宇治,135.800629,34.890437,JR西日本,ＪＲ,みやこ路快速,14.9,自由席
宇治,135.800629,34.890437,JR西日本,木幡,135.798901,34.924962,JR西日本,ＪＲ,普通,4.3,自由席
木幡,135.796047,34.925859,京阪,中書島,135.760174,34.926875,京阪,私鉄,普通,3.9,自由席
中書島,135.760174,34.926875,京阪,京橋,135.532182,34.697052,京阪,私鉄,特急,36.7,自由席
京橋,135.534253,34.696047,JR西日本,天王寺,135.514124,34.647243,JR西日本,ＪＲ,普通,6.5,自由席
天王寺,135.514124,34.647243,JR西日本,新今宮,135.501076,34.650149,JR西日本,ＪＲ,普通,1,自由席
新今宮,135.500302,34.650429,南海,難波,135.501949,34.66357,南海,私鉄,普通,1.4,自由席
なんば,135.500277,34.666316,大阪メトロ,新大阪,135.498558,34.732919,大阪メトロ,地下鉄,普通,7.6,自由席
新大阪,135.501852,34.734136,JR西日本,広島,132.475593,34.397446,JR西日本,ＪＲ,新幹線,341.6,グリーン車
紙屋町東,132.458167,34.395101,広電,広島駅,132.475403,34.396296,広電,私鉄,普通,2.1,自由席
広島,132.475593,34.397446,JR西日本,博多,130.420622,33.590002,JR西日本,ＪＲ,新幹線,280.7,グリーン車
博多,130.42085,33.590204,福岡市交通局,天神,130.39906,33.591346,福岡市交通局,地下鉄,普通,2.5,自由席
天神,130.39906,33.591346,福岡市交通局,博多,130.42085,33.590204,福岡市交通局,地下鉄,普通,2.5,自由席
博多,130.420622,33.590002,JR西日本,新大阪,135.501852,34.734136,JR西日本,ＪＲ,新幹線,622.3,グリーン車
新大阪,135.501852,34.734136,JR西日本,大阪,135.495188,34.702398,JR西日本,ＪＲ,普通,3.8,自由席
大阪,135.495188,34.702398,JR西日本,新大阪,135.501852,34.734136,JR西日本,ＪＲ,特急,3.8,自由席
新大阪,135.501852,34.734136,JR西日本,石山,135.900228,34.97987,JR西日本,ＪＲ,新快速,53.5,自由席
京阪石山,135.901289,34.978937,京阪,近江神宮前,135.855807,35.028194,京阪,私鉄,普通,7.5,自由席
近江神宮前,135.855807,35.028194,京阪,びわ湖浜大津,135.863982,35.011283,京阪,私鉄,普通,2.4,自由席
びわ湖浜大津,135.863982,35.011283,京阪,三条京阪,135.773773,35.009278,京都市交通局,私鉄,普通,10.9,自由席
三条,135.772274,35.009114,京阪,出町柳,135.77244,35.029613,京阪,私鉄,特急,2.3,自由席
出町柳,135.77244,35.029613,京阪,祇園四条,135.771961,35.003689,京阪,私鉄,特急,3,自由席
河原町,135.769463,35.003765,阪急,淡路,135.516527,34.738827,阪急,私鉄,特急,41.1,自由席
淡路,135.516527,34.738827,阪急,日本橋,135.506635,34.667146,大阪メトロ,私鉄,普通,8.4,自由席
新今宮,135.501076,34.650149,JR西日本,大阪,135.495188,34.702398,JR西日本,ＪＲ,区間快速,10,自由席
大阪,135.495188,34.702398,JR西日本,新大阪,135.501852,34.734136,JR西日本,ＪＲ,普通,3.8,自由席
新大阪,135.501852,34.734136,JR西日本,金沢,136.648166,36.578117,JR西日本,ＪＲ,特急,263.8,グリーン車
金沢,136.648166,36.578117,JR西日本,東京,139.766103,35.681391,JR東日本,ＪＲ,新幹線,450.5,グリーン車
有楽町,139.763806,35.675441,JR東日本,秋葉原,139.773288,35.698619,JR東日本,ＪＲ,普通,2.8,自由席
秋葉原,139.773288,35.698619,JR東日本,東京,139.766103,35.681391,JR東日本,ＪＲ,普通,2,自由席
東京,139.766103,35.681391,JR東日本,御茶ノ水,139.764955,35.699605,JR東日本,ＪＲ,快速,2.6,自由席
神保町,139.757606,35.695966,東京メトロ,三越前,139.773594,35.687101,東京メトロ,地下鉄,普通,2.4,自由席
三越前,139.773594,35.687101,東京メトロ,京橋,139.770126,35.676856,東京メトロ,地下鉄,普通,1.3,自由席
東京,139.766103,35.681391,JR東日本,桶川,139.564274,35.998375,JR東日本,ＪＲ,普通,42.1,グリーン車
桶川,139.564274,35.998375,JR東日本,大宮,139.62405,35.906439,JR東日本,ＪＲ,快速,11.8,指定席
大宮,139.62405,35.906439,JR東日本,新宿,139.700464,35.689729,JR東日本,ＪＲ,普通,27.4,グリーン車
新宿,139.700464,35.689729,JR東日本,立川,139.413704,35.698202,JR東日本,ＪＲ,特急,27.2,グリーン車
立川,139.413704,35.698202,JR東日本,新宿,139.700464,35.689729,JR東日本,ＪＲ,特急,27.2,指定席
新宿,139.700464,35.689729,JR東日本,東京,139.766103,35.681391,JR東日本,ＪＲ,特急,10.3,グリーン車
東京,139.766103,35.681391,JR東日本,横浜,139.622704,35.466195,JR東日本,ＪＲ,特急,28.8,グリーン車
横浜,139.622704,35.466195,JR東日本,東京,139.766103,35.681391,JR東日本,ＪＲ,特急,28.8,グリーン車
東京,139.766103,35.681391,JR東日本,上野,139.777043,35.71379,JR東日本,ＪＲ,普通,3.6,グリーン車
上野,139.777043,35.71379,JR東日本,東京,139.766103,35.681391,JR東日本,ＪＲ,普通,3.6,自由席
東京,139.766103,35.681391,JR東日本,成田空港（第１旅客ターミナル）,140.384644,35.763983,JR東日本,ＪＲ,特急,79.2,グリーン車
成田空港（第１旅客ターミナル）,140.384644,35.763983,京成,日暮里,139.771287,35.727908,京成,私鉄,特急,62,指定席
日暮里,139.771287,35.727908,JR東日本,東京,139.766103,35.681391,JR東日本,ＪＲ,普通,5.8,自由席
東京,139.766103,35.681391,JR東日本,新木場,139.827402,35.646172,JR東日本,ＪＲ,普通,7.4,自由席
新木場,139.827402,35.646172,東京臨海高速鉄道,国際展示場,139.791617,35.63441,東京臨海高速鉄道,私鉄,普通,3.5,自由席
国際展示場,139.791617,35.63441,東京臨海高速鉄道,池袋,139.711086,35.730256,JR東日本,ＪＲ,快速,22.1,自由席
池袋,139.710678,35.730924,東武,大山,139.702589,35.748398,東武,私鉄,普通,3,自由席
要町,139.698715,35.73323,東京メトロ,豊洲,139.79621,35.654908,東京メトロ,地下鉄,普通,14.8,自由席
新豊洲,139.789996,35.648718,ゆりかもめ,有明,139.793269,35.634596,ゆりかもめ,新交通,普通,2,自由席
有明,139.793269,35.634596,ゆりかもめ,新豊洲,139.789996,35.648718,ゆりかもめ,新交通,普通,2,自由席
新豊洲,139.789996,35.648718,ゆりかもめ,有明,139.793269,35.634596,ゆりかもめ,新交通,普通,2,自由席
国際展示場,139.791617,35.63441,東京臨海高速鉄道,大崎,139.728439,35.619772,東京臨海高速鉄道,私鉄,普通,8.7,自由席
大崎,139.728439,35.619772,JR東日本,東京,139.766103,35.681391,JR東日本,ＪＲ,普通,8.8,自由席
東京,139.766103,35.681391,JR東日本,川崎,139.697485,35.531311,JR東日本,ＪＲ,普通,18.2,自由席
川崎,139.697485,35.531311,JR東日本,東京,139.766103,35.681391,JR東日本,ＪＲ,快速,18.2,自由席
東京,139.764708,35.681753,東京メトロ,大手町,139.7662,35.686564,東京メトロ,地下鉄,普通,0.6,自由席
大手町,139.7662,35.686564,東京メトロ,神保町,139.757606,35.695966,東京メトロ,地下鉄,普通,1.7,自由席
神保町,139.75812,35.695492,東京都交通局,岩本町,139.775866,35.695534,東京都交通局,地下鉄,各駅停車,1.7,自由席
秋葉原,139.773288,35.698619,JR東日本,東京,139.766103,35.681391,JR東日本,ＪＲ,普通,2,自由席
東京,139.766103,35.681391,JR東日本,新潟,139.060869,37.912299,JR東日本,ＪＲ,新幹線,333.9,指定席
新潟,139.060869,37.912299,JR東日本,咲花,139.29095,37.735003,JR東日本,ＪＲ,SL快速,35.2,指定席
咲花,139.29095,37.735003,JR東日本,新津,139.121445,37.800383,JR東日本,ＪＲ,普通,20,自由席
新津,139.121445,37.800383,JR東日本,新潟,139.060869,37.912299,JR東日本,ＪＲ,普通,15.2,自由席
新潟,139.060869,37.912299,JR東日本,越後湯沢,138.809227,36.935799,JR東日本,ＪＲ,新幹線,134.7,指定席
越後湯沢,138.809227,36.935799,JR東日本,新潟,139.060869,37.912299,JR東日本,ＪＲ,新幹線,134.7,指定席
新潟,139.060869,37.912299,JR東日本,上越妙高,138.249476,37.081813,トキてつ,ＪＲ,特急,146.7,指定席
上越妙高,138.249476,37.081813,トキてつ,長野,138.189101,36.643307,JR東日本,ＪＲ,新幹線,59.5,指定席
長野,138.188396,36.644341,長電,善光寺下,138.193513,36.658673,長電,私鉄,普通,1.6,自由席
長野,138.189101,36.643307,JR東日本,大宮,139.62405,35.906439,JR東日本,ＪＲ,新幹線,192.1,指定席
大宮,139.62405,35.906439,JR東日本,長野,138.189101,36.643307,JR東日本,ＪＲ,新幹線,192.1,指定席
長野,138.189101,36.643307,JR東日本,松本,137.96445,36.230393,JR東日本,ＪＲ,L特急,62.7,指定席
松本,137.96445,36.230393,JR東日本,上諏訪,138.116306,36.046618,JR東日本,ＪＲ,特急,33.5,指定席
上諏訪,138.116306,36.046618,JR東日本,松本,137.96445,36.230393,JR東日本,ＪＲ,普通,33.5,自由席
松本,137.96445,36.230393,JR東日本,塩尻,137.947961,36.114364,JR東日本,ＪＲ,普通,13.3,自由席
塩尻,137.947961,36.114364,JR東日本,奈良井,137.816195,35.969476,JR東海,ＪＲ,普通,21.1,自由席
奈良井,137.816195,35.969476,JR東海,塩尻,137.947961,36.114364,JR東日本,ＪＲ,普通,21.1,自由席
塩尻,137.947961,36.114364,JR東日本,松本,137.96445,36.230393,JR東日本,ＪＲ,普通,13.3,自由席
松本,137.96445,36.230393,JR東日本,信濃大町,137.861674,36.50031,JR東日本,ＪＲ,普通,35.1,自由席
立山,137.445234,36.583253,富山地鉄,電鉄富山,137.214163,36.700757,富山地鉄,私鉄,普通,34,自由席
富山駅,137.2128801,36.70161021,富山地鉄,丸の内,137.208896,36.692563,富山地鉄,路面電車,普通,1.1,自由席
富山,137.213091,36.701384,JR東海,高山,137.251301,36.140574,JR東海,ＪＲ,L特急,89.4,指定席
高山,137.251301,36.140574,JR東海,飛騨古川,137.189681,36.236727,JR東海,ＪＲ,普通,14.9,自由席
飛騨古川,137.189681,36.236727,JR東海,高山,137.251301,36.140574,JR東海,ＪＲ,L特急,14.9,自由席
高山,137.251301,36.140574,JR東海,名古屋,136.881637,35.170694,JR東海,ＪＲ,L特急,166.7,指定席
名鉄名古屋,136.884187,35.169252,名鉄,神宮前,136.912485,35.125857,名鉄,私鉄,普通,5.8,自由席
熱田,136.910502,35.130028,JR東海,金山,136.900517,35.142928,JR東海,ＪＲ,普通,1.9,自由席
金山,136.900517,35.142928,JR東海,名古屋,136.881637,35.170694,JR東海,ＪＲ,普通,3.3,自由席
名古屋,136.881637,35.170694,JR東海,塩尻,137.947961,36.114364,JR東日本,ＪＲ,L特急,174.8,指定席
塩尻,137.947961,36.114364,JR東日本,松本,137.96445,36.230393,JR東日本,ＪＲ,特急,13.3,指定席
松本,137.96445,36.230393,JR東日本,新宿,139.700464,35.689729,JR東日本,ＪＲ,特急,225.1,指定席
新宿,139.700464,35.689729,JR東日本,品川,139.738999,35.62876,JR東日本,ＪＲ,普通,10.6,自由席
品川,139.738999,35.62876,JR東日本,浜松町,139.757135,35.655391,JR東日本,ＪＲ,快速,3.7,自由席
浜松町,139.756747,35.655666,東京モノレール,新整備場,139.786777,35.542773,東京モノレール,モノレール,普通,16.2,自由席
新整備場,139.786777,35.542773,東京モノレール,浜松町,139.756747,35.655666,東京モノレール,モノレール,普通,16.2,自由席
浜松町,139.757135,35.655391,JR東日本,川崎,139.697485,35.531311,JR東日本,ＪＲ,普通,15.1,自由席
川崎,139.697485,35.531311,JR東日本,品川,139.738999,35.62876,JR東日本,ＪＲ,普通,11.4,自由席
品川,139.738999,35.62876,JR東日本,御徒町,139.774727,35.707282,JR東日本,ＪＲ,普通,9.8,自由席
御徒町,139.774727,35.707282,JR東日本,品川,139.738999,35.62876,JR東日本,ＪＲ,普通,9.8,自由席
品川,139.738999,35.62876,JR東日本,目白,139.706228,35.720476,JR東日本,ＪＲ,普通,14.2,自由席
落合南長崎,139.683303,35.723608,東京都交通局,新宿,139.698812,35.68869,東京都交通局,地下鉄,普通,5.9,自由席
新宿,139.700464,35.689729,JR東日本,池袋,139.711086,35.730256,JR東日本,ＪＲ,普通,4.8,自由席
池袋,139.711086,35.730256,JR東日本,日暮里,139.771287,35.727908,JR東日本,ＪＲ,普通,6.5,自由席
日暮里,139.771287,35.727908,JR東日本,池袋,139.711086,35.730256,JR東日本,ＪＲ,普通,6.5,自由席
池袋,139.711086,35.730256,東京メトロ,大手町,139.7662,35.686564,東京メトロ,地下鉄,普通,8.1,自由席
大手町,139.7662,35.686564,東京メトロ,神保町,139.757606,35.695966,東京メトロ,地下鉄,普通,1.7,自由席
神保町,139.75812,35.695492,東京都交通局,岩本町,139.775866,35.695534,東京都交通局,地下鉄,各駅停車,1.7,自由席
秋葉原,139.773288,35.698619,JR東日本,御徒町,139.774727,35.707282,JR東日本,ＪＲ,普通,1,自由席
御徒町,139.774727,35.707282,JR東日本,池袋,139.711086,35.730256,JR東日本,ＪＲ,普通,9.3,自由席
池袋,139.711086,35.730256,JR東日本,天王洲アイル,139.750793,35.620562,東京臨海高速鉄道,ＪＲ,普通,17.8,自由席
天王洲アイル,139.750675,35.622908,東京モノレール,新整備場,139.786777,35.542773,東京モノレール,モノレール,普通,12.2,自由席
新整備場,139.786777,35.542773,東京モノレール,羽田空港国際線ビル,139.768206,35.544169,東京モノレール,モノレール,普通,2.2,自由席
羽田空港国際線ビル,139.768206,35.544169,東京モノレール,浜松町,139.756747,35.655666,東京モノレール,モノレール,空港快速,14,自由席
浜松町,139.757135,35.655391,JR東日本,東京,139.766103,35.681391,JR東日本,ＪＲ,快速,3.1,自由席
東京,139.766103,35.681391,JR東日本,秋葉原,139.773288,35.698619,JR東日本,ＪＲ,快速,2,自由席
秋葉原,139.773288,35.698619,JR東日本,池袋,139.711086,35.730256,JR東日本,ＪＲ,普通,10.3,自由席
池袋,139.711461,35.72913,西武,西所沢,139.455959,35.789303,西武,私鉄,急行,27.2,自由席
西所沢,139.455959,35.789303,西武,西武球場前,139.41966,35.77093,西武,私鉄,臨時各駅停車,4.2,自由席
西武球場前,139.41966,35.77093,西武,所沢,139.473324,35.786627,西武,私鉄,臨時快速,6.6,自由席
所沢,139.473324,35.786627,西武,池袋,139.711461,35.72913,西武,私鉄,急行,24.8,自由席
池袋,139.711086,35.730256,JR東日本,田端,139.761229,35.737781,JR東日本,ＪＲ,普通,5.2,自由席
田端,139.761229,35.737781,JR東日本,上野,139.777043,35.71379,JR東日本,ＪＲ,快速,3.5,自由席
上野,139.777043,35.71379,JR東日本,大宮,139.62405,35.906439,JR東日本,ＪＲ,新幹線,26.7,自由席
大宮,139.62254,35.90751,埼玉新都市交通,鉄道博物館,139.617796,35.920271,埼玉新都市交通,新交通,普通,1.5,自由席
鉄道博物館,139.617796,35.920271,埼玉新都市交通,大宮,139.62254,35.90751,埼玉新都市交通,新交通,普通,1.5,自由席
大宮,139.62405,35.906439,JR東日本,上野,139.777043,35.71379,JR東日本,ＪＲ,新幹線,26.7,自由席
上野,139.777043,35.71379,JR東日本,田端,139.761229,35.737781,JR東日本,ＪＲ,快速,3.5,自由席
田端,139.761229,35.737781,JR東日本,池袋,139.711086,35.730256,JR東日本,ＪＲ,普通,5.2,自由席
池袋,139.711086,35.730256,東京メトロ,新宿三丁目,139.704895,35.690847,東京メトロ,地下鉄,急行,5.3,自由席
新宿,139.700464,35.689729,JR東日本,池袋,139.711086,35.730256,JR東日本,ＪＲ,普通,4.8,自由席
池袋,139.711086,35.730256,JR東日本,成田空港（第１旅客ターミナル）,140.384644,35.763983,JR東日本,ＪＲ,特急,101.4,指定席
羽田空港国際線ターミナル,139.768968,35.544676,京急,京急蒲田,139.723681,35.560796,京急,私鉄,エアポート急行,4.5,自由席
京急蒲田,139.723681,35.560796,京急,横浜,139.623055,35.466066,京急,私鉄,普通,14.2,自由席
横浜,139.621768,35.465852,相鉄,二俣川,139.532207,35.463335,相鉄,私鉄,急行,10.5,自由席
二俣川,139.532207,35.463335,相鉄,湘南台,139.467031,35.396642,相鉄,私鉄,各駅停車,11.3,自由席
湘南台,139.467031,35.396642,相鉄,横浜,139.621768,35.465852,相鉄,私鉄,快速,21.8,自由席
横浜,139.622704,35.466195,JR東日本,川崎,139.697485,35.531311,JR東日本,ＪＲ,普通,10.6,自由席
川崎,139.697485,35.531311,JR東日本,東京,139.766103,35.681391,JR東日本,ＪＲ,普通,18.2,自由席
名古屋,136.883925,35.171252,名古屋市交通局,栄,136.908031,35.16999,名古屋市交通局,地下鉄,普通,2.4,自由席
栄,136.908031,35.16999,名古屋市交通局,名古屋,136.883925,35.171252,名古屋市交通局,地下鉄,普通,2.4,自由席
名古屋,136.881637,35.170694,JR東海,河原田,136.598527,34.910684,JR東海,ＪＲ,快速,44.1,自由席
河原田,136.599031,34.910952,伊勢鉄道,鈴鹿サーキット稲生,136.555154,34.841053,伊勢鉄道,私鉄,普通,9.1,自由席
鈴鹿サーキット稲生,136.555154,34.841053,伊勢鉄道,名古屋,136.881637,35.170694,JR東海,ＪＲ,特急,53.2,指定席
名古屋,136.882417,35.168733,名臨高,荒子川公園,136.861148,35.104569,名臨高,私鉄,普通,8.2,自由席
荒子川公園,136.861148,35.104569,名臨高,名古屋,136.882417,35.168733,名臨高,私鉄,普通,8.2,自由席
名古屋,136.881637,35.170694,JR東海,品川,139.738999,35.62876,JR東日本,ＪＲ,新幹線,359.2,指定席
品川,139.738999,35.62876,JR東日本,上野,139.777043,35.71379,JR東日本,ＪＲ,普通,10.4,自由席
上野,139.777122,35.711482,東京メトロ,浅草,139.797592,35.710733,東京メトロ,地下鉄,普通,2.2,自由席
浅草,139.797592,35.710733,東京メトロ,末広町,139.771713,35.702972,東京メトロ,地下鉄,普通,3.3,自由席
秋葉原,139.773288,35.698619,JR東日本,新橋,139.758587,35.666195,JR東日本,ＪＲ,普通,3.9,自由席
新橋,139.758587,35.666195,JR東日本,川崎,139.697485,35.531311,JR東日本,ＪＲ,普通,16.3,自由席
川崎,139.697485,35.531311,JR東日本,蒲田,139.716032,35.562517,JR東日本,ＪＲ,快速,3.8,自由席
蒲田,139.716032,35.562517,JR東日本,秋葉原,139.773288,35.698619,JR東日本,ＪＲ,快速,16.4,自由席
秋葉原,139.773288,35.698619,JR東日本,代々木,139.702042,35.683061,JR東日本,ＪＲ,普通,7.9,自由席
代々木,139.702042,35.683061,JR東日本,渋谷,139.701238,35.658871,JR東日本,ＪＲ,普通,2.7,自由席
渋谷,139.701238,35.658871,JR東日本,代々木,139.702042,35.683061,JR東日本,ＪＲ,普通,2.7,自由席
代々木,139.702042,35.683061,JR東日本,新宿,139.700464,35.689729,JR東日本,ＪＲ,普通,0.7,自由席
新宿,139.700464,35.689729,JR東日本,代々木,139.702042,35.683061,JR東日本,ＪＲ,普通,0.7,自由席
代々木,139.702042,35.683061,JR東日本,渋谷,139.701238,35.658871,JR東日本,ＪＲ,普通,2.7,自由席
渋谷,139.701238,35.658871,JR東日本,品川,139.738999,35.62876,JR東日本,ＪＲ,普通,7.2,自由席
品川,139.738999,35.62876,JR東日本,蒲田,139.716032,35.562517,JR東日本,ＪＲ,普通,7.6,自由席
蒲田,139.716032,35.562517,JR東日本,川崎,139.697485,35.531311,JR東日本,ＪＲ,普通,3.8,自由席
川崎,139.697485,35.531311,JR東日本,品川,139.738999,35.62876,JR東日本,ＪＲ,普通,3.8,自由席
品川,139.73809,35.628284,京急,羽田空港国際線ターミナル,139.768968,35.544676,京急,私鉄,エアポート急行,12.5,自由席
那覇空港,127.652214,26.206515,沖縄都市モノレール,旭橋,127.675515,26.21191,沖縄都市モノレール,モノレール,普通,5.4,自由席
旭橋,127.675515,26.21191,沖縄都市モノレール,首里,127.725492,26.219191,沖縄都市モノレール,モノレール,普通,7.5,自由席
儀保,127.719039,26.224663,沖縄都市モノレール,牧志,127.69255,26.217248,沖縄都市モノレール,モノレール,普通,4.2,自由席
美栄橋,127.684328,26.219245,沖縄都市モノレール,旭橋,127.675515,26.21191,沖縄都市モノレール,モノレール,普通,1.3,自由席
旭橋,127.675515,26.21191,沖縄都市モノレール,那覇空港,127.652214,26.206515,沖縄都市モノレール,モノレール,普通,5.4,自由席
関西空港,135.243419,34.436,JR西日本,新大阪,135.501852,34.734136,JR西日本,ＪＲ,特急,60.8,自由席
新大阪,135.498558,34.732919,大阪メトロ,なんば,135.500277,34.666316,大阪メトロ,地下鉄,普通,7.6,自由席
なんば,135.500277,34.666316,大阪メトロ,新大阪,135.498558,34.732919,大阪メトロ,地下鉄,普通,7.6,自由席
新大阪,135.501852,34.734136,JR西日本,京都,135.757748,34.985465,JR西日本,ＪＲ,新快速,39,自由席
京都,135.757748,34.985465,JR西日本,新大阪,135.501852,34.734136,JR西日本,ＪＲ,新快速,39,自由席
羽田空港国内線ターミナル,139.785962,35.549809,京急,品川,139.73809,35.628284,京急,私鉄,エアポート急行,14.5,自由席
品川,139.738999,35.62876,JR東日本,東京,139.766103,35.681391,JR東日本,ＪＲ,普通,6.8,自由席
東京,139.766103,35.681391,JR東日本,秋葉原,139.773288,35.698619,JR東日本,ＪＲ,普通,2,自由席
秋葉原,139.773288,35.698619,JR東日本,池袋,139.711086,35.730256,JR東日本,ＪＲ,普通,10.3,自由席
池袋,139.711086,35.730256,東京メトロ,東京,139.764708,35.681753,東京メトロ,地下鉄,普通,8.7,自由席
東京,139.766103,35.681391,JR東日本,出雲市,132.756518,35.360694,JR西日本,ＪＲ,寝台特急,953.6,A寝台
出雲市,132.756518,35.360694,JR西日本,松江,133.063871,35.463947,JR西日本,ＪＲ,普通,32.7,自由席
松江しんじ湖温泉,133.046039,35.46731,ばたでん,川跡,132.776411,35.395127,ばたでん,私鉄,普通,29,自由席
川跡,132.776411,35.395127,ばたでん,雲州平田,132.823685,35.432312,ばたでん,私鉄,普通,6,自由席
雲州平田,132.823685,35.432312,ばたでん,川跡,132.776411,35.395127,ばたでん,私鉄,普通,6,自由席
川跡,132.776411,35.395127,ばたでん,出雲大社前,132.687531,35.393245,ばたでん,私鉄,普通,8.3,自由席
出雲大社前,132.687531,35.393245,ばたでん,川跡,132.776411,35.395127,ばたでん,私鉄,普通,8.3,自由席
川跡,132.776411,35.395127,ばたでん,電鉄出雲市,132.75777,35.36113,ばたでん,私鉄,普通,4.9,自由席
出雲市,132.756518,35.360694,JR西日本,米子,133.33657,35.42327,JR西日本,ＪＲ,特急,61.6,自由席
米子,133.33657,35.42327,JR西日本,境港,133.222762,35.545002,JR西日本,ＪＲ,普通,17.9,自由席
境港,133.222762,35.545002,JR西日本,米子空港,133.247372,35.502321,JR西日本,ＪＲ,普通,5.2,自由席
羽田空港国内線ターミナル,139.785962,35.549809,京急,京急川崎,139.700893,35.53285,京急,私鉄,エアポート急行,10.3,自由席
川崎,139.697485,35.531311,JR東日本,武蔵小杉,139.65963,35.57669,JR東日本,ＪＲ,普通,7.5,自由席
武蔵小杉,139.65963,35.57669,JR東日本,新宿,139.700464,35.689729,JR東日本,ＪＲ,特別快速,20.6,自由席
新宿,139.700464,35.689729,JR東日本,御茶ノ水,139.764955,35.699605,JR東日本,ＪＲ,快速,7.7,自由席
秋葉原,139.773288,35.698619,JR東日本,東京,139.766103,35.681391,JR東日本,ＪＲ,普通,2,自由席
東京,139.766103,35.681391,JR東日本,川崎,139.697485,35.531311,JR東日本,ＪＲ,普通,18.2,自由席
川崎,139.697485,35.531311,JR東日本,品川,139.738999,35.62876,JR東日本,ＪＲ,普通,11.4,自由席
品川,139.738999,35.62876,JR東日本,成田空港（第１旅客ターミナル）,140.384644,35.763983,JR東日本,ＪＲ,普通快速,86,自由席
羽田空港国際線ビル,139.768206,35.544169,東京モノレール,浜松町,139.756747,35.655666,東京モノレール,モノレール,普通,14,自由席
浜松町,139.757135,35.655391,JR東日本,品川,139.738999,35.62876,JR東日本,ＪＲ,普通,3.7,自由席
品川,139.738999,35.62876,JR東日本,川崎,139.697485,35.531311,JR東日本,ＪＲ,普通,11.4,グリーン車
川崎,139.697485,35.531311,JR東日本,東京,139.766103,35.681391,JR東日本,ＪＲ,普通,18.2,自由席
東京,139.766103,35.681391,JR東日本,秋葉原,139.773288,35.698619,JR東日本,ＪＲ,普通,2,自由席
秋葉原,139.773288,35.698619,JR東日本,御茶ノ水,139.764955,35.699605,JR東日本,ＪＲ,普通,0.9,自由席
御茶ノ水,139.764955,35.699605,JR東日本,新宿,139.700464,35.689729,JR東日本,ＪＲ,快速,7.7,自由席
新宿,139.700464,35.689729,JR東日本,池袋,139.711086,35.730256,JR東日本,ＪＲ,普通,4.8,自由席
池袋,139.711086,35.730256,JR東日本,上野,139.777043,35.71379,JR東日本,ＪＲ,普通,8.7,自由席
上野,139.777122,35.711482,東京メトロ,末広町,139.771713,35.702972,東京メトロ,地下鉄,普通,1.1,自由席
秋葉原,139.773288,35.698619,JR東日本,東京,139.766103,35.681391,JR東日本,ＪＲ,普通,2,自由席
東京,139.766103,35.681391,JR東日本,川崎,139.697485,35.531311,JR東日本,ＪＲ,普通,18.2,グリーン車
川崎,139.697485,35.531311,JR東日本,東京,139.766103,35.681391,JR東日本,ＪＲ,普通,18.2,グリーン車
東京,139.766103,35.681391,JR東日本,新函館北斗,140.646525,41.9054,JR北海道,ＪＲ,新幹線,862.5,グリーン車
新函館北斗,140.646525,41.9054,JR北海道,東室蘭,141.026411,42.349374,JR北海道,ＪＲ,特急,171.6,グリーン車
東室蘭,141.026411,42.349374,JR北海道,母恋,140.990018,42.317295,JR北海道,ＪＲ,普通,5.9,自由席
室蘭,140.97571,42.317864,JR北海道,東室蘭,141.026411,42.349374,JR北海道,ＪＲ,普通,7,自由席
東室蘭,141.026411,42.349374,JR北海道,札幌,141.350768,43.068612,JR北海道,ＪＲ,特急,129.2,グリーン車
札幌,141.350768,43.068612,JR北海道,石狩当別,141.513764,43.22208,JR北海道,ＪＲ,普通,27.5,自由席
石狩当別,141.513764,43.22208,JR北海道,新十津川,141.874172,43.545575,JR北海道,ＪＲ,普通,50.6,自由席
滝川,141.900807,43.555278,JR北海道,旭川,142.357803,43.763492,JR北海道,ＪＲ,特急,53.3,グリーン車
旭川,142.357803,43.763492,JR北海道,稚内,141.676999,45.416995,JR北海道,ＪＲ,特急,259.4,グリーン車
稚内,141.676999,45.416995,JR北海道,旭川,142.357803,43.763492,JR北海道,ＪＲ,特急,259.4,グリーン車
旭川,142.357803,43.763492,JR北海道,滝川,141.900807,43.555278,JR北海道,ＪＲ,特急,53.3,グリーン車
滝川,141.900807,43.555278,JR北海道,東鹿越,142.523472,43.164011,JR北海道,ＪＲ,普通,94.8,自由席
東鹿越,142.523472,43.164011,JR北海道,新得,142.832432,43.082501,JR北海道,ＪＲ,代行バス,41.5,自由席
新得,142.832432,43.082501,JR北海道,釧路,144.381983,42.990584,JR北海道,ＪＲ,特急,172.1,グリーン車
釧路,144.381983,42.990584,JR北海道,根室,145.582707,43.326923,JR北海道,ＪＲ,普通,135.4,自由席
根室,145.582707,43.326923,JR北海道,釧路,144.381983,42.990584,JR北海道,ＪＲ,普通,135.4,自由席
釧路,144.381983,42.990584,JR北海道,網走,144.254156,44.019873,JR北海道,ＪＲ,快速,169.1,自由席
網走,144.254156,44.019873,JR北海道,女満別,144.170665,43.915886,JR北海道,ＪＲ,普通,15.9,自由席
女満別,144.170665,43.915886,JR北海道,札幌,141.350768,43.068612,JR北海道,ＪＲ,特急,358.6,グリーン車
札幌,141.350768,43.068612,JR北海道,新千歳空港,141.680823,42.787546,JR北海道,ＪＲ,快速,46.6,指定席
羽田空港国内線ターミナル,139.785962,35.549809,京急,京急蒲田,139.723681,35.560796,京急,私鉄,エアポート急行,6.5,自由席
京急蒲田,139.723681,35.560796,京急,品川,139.73809,35.628284,京急,私鉄,快特,8,自由席
品川,139.738999,35.62876,JR東日本,恵比寿,139.71007,35.646685,JR東日本,ＪＲ,普通,5.6,自由席
恵比寿,139.708988,35.647332,東京メトロ,中目黒,139.698621,35.643854,東京メトロ,地下鉄,普通,1,自由席
中目黒,139.698621,35.643854,東急,武蔵小杉,139.659652,35.575752,東急,私鉄,急行,8.6,自由席
武蔵小杉,139.65963,35.57669,JR東日本,川崎,139.697485,35.531311,JR東日本,ＪＲ,普通,7.5,自由席
川崎,139.697485,35.531311,JR東日本,品川,139.738999,35.62876,JR東日本,ＪＲ,快速,11.4,グリーン車
品川,139.738999,35.62876,JR東日本,成田空港（第１旅客ターミナル）,140.384644,35.763983,JR東日本,ＪＲ,特急,86,グリーン車
羽田空港国際線ターミナル,139.768968,35.544676,京急,京急蒲田,139.723681,35.560796,京急,私鉄,エアポート急行,4.5,自由席
京急蒲田,139.723681,35.560796,京急,品川,139.73809,35.628284,京急,私鉄,快特,8,自由席
品川,139.73809,35.628284,京急,京急蒲田,139.723681,35.560796,京急,私鉄,快特,8,自由席
京急蒲田,139.723681,35.560796,京急,羽田空港国内線ターミナル,139.785962,35.549809,京急,私鉄,エアポート急行,6.5,自由席
福岡空港,130.448501,33.59718,福岡市交通局,博多,130.42085,33.590204,福岡市交通局,地下鉄,普通,3.3,自由席
博多,130.420622,33.590002,JR西日本,久留米,130.501408,33.319778,JR九州,ＪＲ,新幹線,35.7,指定席
久留米,130.501408,33.319778,JR九州,博多,130.420622,33.590002,JR西日本,ＪＲ,新幹線,35.7,指定席
博多,130.420622,33.590002,JR西日本,大分,131.606595,33.232794,JR九州,ＪＲ,特急,200.1,指定席
大分,131.606595,33.232794,JR九州,博多,130.420622,33.590002,JR九州,ＪＲ,特急,200.1,指定席
博多,130.420622,33.590002,JR九州,香椎,130.444063,33.659228,JR九州,ＪＲ,区間快速,8.4,自由席
香椎,130.444063,33.659228,JR九州,博多,130.420622,33.590002,JR九州,ＪＲ,特急,8.4,指定席
博多,130.420622,33.590002,JR西日本,博多南,130.436997,33.517955,JR西日本,ＪＲ,特急,8.5,自由席
博多南,130.436997,33.517955,JR西日本,博多,130.420622,33.590002,JR西日本,ＪＲ,特急,8.5,自由席
博多,130.420622,33.590002,JR西日本,熊本,130.688499,32.789207,JR九州,ＪＲ,新幹線,118.4,指定席
熊本,130.688499,32.789207,JR九州,鹿児島中央,130.541789,31.583727,JR九州,ＪＲ,新幹線,170.5,指定席
鹿児島中央,130.541789,31.583727,JR九州,宮崎,131.431975,31.915742,JR九州,ＪＲ,特急,125.9,指定席
宮崎,131.431975,31.915742,JR九州,鹿児島中央,130.541789,31.583727,JR九州,ＪＲ,特急,125.9,指定席
鹿児島中央,130.541789,31.583727,JR九州,川内,130.31213,31.813726,JR九州,ＪＲ,普通,46.1,自由席
川内,130.31213,31.813726,肥薩おれんじ鉄道,出水,130.357803,32.089275,肥薩おれんじ鉄道,私鉄,快速,51.3,指定席
出水,130.357803,32.089275,肥薩おれんじ鉄道,新八代,130.634919,32.517888,JR九州,私鉄,快速,68.4,指定席
新八代,130.634919,32.517888,JR九州,熊本,130.688499,32.789207,JR九州,ＪＲ,新幹線,32.9,自由席
熊本,130.688499,32.789207,JR九州,鹿児島中央,130.541789,31.583727,JR九州,ＪＲ,新幹線,170.5,指定席
鹿児島中央,130.541789,31.583727,JR九州,吉松,130.738104,32.012026,JR九州,ＪＲ,特急,68.5,指定席
吉松,130.738104,32.012026,JR九州,人吉,130.753797,32.216142,JR九州,ＪＲ,普通,35,指定席
人吉,130.753797,32.216142,JR九州,熊本,130.688499,32.789207,JR九州,ＪＲ,SL快速,87.5,指定席
熊本,130.688499,32.789207,JR九州,鹿児島中央,130.541789,31.583727,JR九州,ＪＲ,新幹線,170.5,指定席
羽田空港国内線ターミナル,139.785962,35.549809,京急,京急蒲田,139.723681,35.560796,京急,私鉄,エアポート急行,6.5,自由席
京急蒲田,139.723681,35.560796,京急,品川,139.73809,35.628284,京急,私鉄,快特,8,自由席
品川,139.738999,35.62876,JR東日本,秋葉原,139.773288,35.698619,JR東日本,ＪＲ,快速,8.8,自由席
秋葉原,139.773288,35.698619,JR東日本,品川,139.738999,35.62876,JR東日本,ＪＲ,普通,8.8,自由席
品川,139.738999,35.62876,JR東日本,川崎,139.697485,35.531311,JR東日本,ＪＲ,普通,11.4,自由席
川崎,139.697485,35.531311,JR東日本,品川,139.738999,35.62876,JR東日本,ＪＲ,普通,11.4,自由席
品川,139.73809,35.628284,京急,京成高砂,139.866875,35.750932,京成,私鉄,快特エアポート快特快特,19.5,自由席
京成高砂,139.866875,35.750932,京成,成田空港（第１旅客ターミナル）,140.384644,35.763983,京成,私鉄,特急,56.6,自由席
羽田空港国際線ビル,139.768206,35.544169,東京モノレール,浜松町,139.756747,35.655666,東京モノレール,モノレール,区間快速,14,自由席
浜松町,139.757135,35.655391,JR東日本,秋葉原,139.773288,35.698619,JR東日本,ＪＲ,普通,5.1,自由席
秋葉原,139.773288,35.698619,JR東日本,上野,139.777043,35.71379,JR東日本,ＪＲ,普通,1.6,自由席
上野,139.777043,35.71379,JR東日本,大宮,139.62405,35.906439,JR東日本,ＪＲ,特急,26.7,自由席
大宮,139.62254,35.90751,埼玉新都市交通,鉄道博物館,139.617796,35.920271,埼玉新都市交通,新交通,普通,1.5,自由席
鉄道博物館,139.617796,35.920271,埼玉新都市交通,大宮,139.62254,35.90751,埼玉新都市交通,新交通,普通,1.5,自由席
大宮,139.62405,35.906439,JR東日本,武蔵浦和,139.647974,35.846047,JR東日本,ＪＲ,普通,7.4,自由席
武蔵浦和,139.647974,35.846047,JR東日本,赤羽,139.720928,35.778026,JR東日本,ＪＲ,快速,10.6,自由席
赤羽,139.720928,35.778026,JR東日本,秋葉原,139.773288,35.698619,JR東日本,ＪＲ,快速,11.2,自由席
秋葉原,139.773288,35.698619,JR東日本,水道橋,139.754312,35.702039,JR東日本,ＪＲ,普通,1.7,自由席
水道橋,139.754312,35.702039,JR東日本,御茶ノ水,139.764955,35.699605,JR東日本,ＪＲ,普通,0.8,自由席
御茶ノ水,139.764955,35.699605,JR東日本,東京,139.766103,35.681391,JR東日本,ＪＲ,快速,2.6,自由席
東京,139.766103,35.681391,JR東日本,錦糸町,139.814136,35.696802,JR東日本,ＪＲ,快速,4.8,自由席
錦糸町,139.814136,35.696802,JR東日本,秋葉原,139.773288,35.698619,JR東日本,ＪＲ,普通,3.4,自由席
秋葉原,139.773288,35.698619,JR東日本,代々木,139.702042,35.683061,JR東日本,ＪＲ,普通,7.9,自由席
代々木,139.702042,35.683061,JR東日本,渋谷,139.701238,35.658871,JR東日本,ＪＲ,普通,2.7,自由席
渋谷,139.702417,35.659545,東急,元町・中華街,139.650446,35.44243,横浜高速鉄道,私鉄,特急,28.3,自由席
元町・中華街,139.650446,35.44243,横浜高速鉄道,みなとみらい,139.632386,35.458028,横浜高速鉄道,私鉄,特急,2.4,自由席
みなとみらい,139.632386,35.458028,横浜高速鉄道,渋谷,139.702417,35.659545,東急,私鉄,急行,25.9,自由席
渋谷,139.701,35.659066,東京メトロ,新橋,139.758432,35.667434,東京メトロ,地下鉄,普通,6.3,自由席
新橋,139.759644,35.665503,ゆりかもめ,台場,139.771435,35.625908,ゆりかもめ,新交通,普通,7.8,自由席
台場,139.771435,35.625908,ゆりかもめ,新橋,139.759644,35.665503,ゆりかもめ,新交通,普通,7.8,自由席
新橋,139.758587,35.666195,JR東日本,池袋,139.711086,35.730256,JR東日本,ＪＲ,普通,14.2,自由席
池袋,139.711086,35.730256,JR東日本,新木場,139.827402,35.646172,東京臨海高速鉄道,ＪＲ,快速普通,25.6,自由席
新木場,139.826254,35.645832,東京メトロ,豊洲,139.79621,35.654908,東京メトロ,地下鉄,普通,3.2,自由席
豊洲,139.795414,35.653792,ゆりかもめ,台場,139.771435,35.625908,ゆりかもめ,新交通,普通,6.9,自由席
台場,139.771435,35.625908,ゆりかもめ,新橋,139.759644,35.665503,ゆりかもめ,新交通,普通,7.8,自由席
新橋,139.758587,35.666195,JR東日本,我孫子,140.010466,35.87279,JR東日本,ＪＲ,快速,39,自由席
我孫子,140.010466,35.87279,JR東日本,成田,140.313853,35.777796,JR東日本,ＪＲ,普通,32.9,自由席
京成成田,140.315473,35.776308,京成,東成田,140.387225,35.770091,京成,私鉄,快速,7.1,自由席
東成田,140.387225,35.770091,芝山鉄道,芝山千代田,140.399215,35.754248,芝山鉄道,私鉄,普通,2.2,自由席
芝山千代田,140.399215,35.754248,芝山鉄道,東成田,140.387225,35.770091,芝山鉄道,私鉄,普通,2.2,自由席
空港第２ビル（第２旅客ターミナル）,140.387871,35.773327,JR東日本,新宿,139.700464,35.689729,JR東日本,ＪＲ,特急,95.6,指定席
新宿,139.700464,35.689729,JR東日本,四ツ谷,139.730644,35.686041,JR東日本,ＪＲ,青梅特快,3.7,自由席
四ツ谷,139.730644,35.686041,JR東日本,吉祥寺,139.579765,35.703119,JR東日本,ＪＲ,快速,15.9,自由席
吉祥寺,139.579765,35.703119,JR東日本,三鷹,139.560325,35.702683,JR東日本,ＪＲ,普通,1.6,自由席
三鷹,139.560325,35.702683,JR東日本,立川,139.413704,35.698202,JR東日本,ＪＲ,快速,13.4,自由席
立川,139.413704,35.698202,JR東日本,八王子,139.338998,35.655555,JR東日本,ＪＲ,中央特快,9.9,自由席
八王子,139.338998,35.655555,JR東日本,立川,139.413704,35.698202,JR東日本,ＪＲ,特急,9.9,自由席
立川,139.413704,35.698202,JR東日本,八王子,139.338998,35.655555,JR東日本,ＪＲ,特急,9.9,自由席
八王子,139.338998,35.655555,JR東日本,大月,138.942729,35.613222,JR東日本,ＪＲ,特急,40.4,指定席
大月,138.942248,35.612938,富士急,河口湖,138.768852,35.498231,富士急,私鉄,特急,26.6,自由席
河口湖,138.768852,35.498231,富士急,下吉田,138.80366,35.497909,富士急,私鉄,普通,5.5,自由席
下吉田,138.80366,35.497909,富士急,河口湖,138.768852,35.498231,富士急,私鉄,普通,5.5,自由席
河口湖,138.768852,35.498231,富士急,大月,138.942248,35.612938,富士急,私鉄,快速,26.6,自由席
大月,138.942729,35.613222,JR東日本,甲府,138.569015,35.667054,JR東日本,ＪＲ,特急,46.3,指定席
甲府,138.569015,35.667054,JR東日本,静岡,138.388579,34.971629,JR東海,ＪＲ,特急,122.4,指定席
静岡,138.388579,34.971629,JR東海,新大阪,135.501852,34.734136,JR西日本,ＪＲ,新幹線,372.4,指定席
新大阪,135.501852,34.734136,JR西日本,福知山,135.118564,35.296143,JR西日本,ＪＲ,特急,118,指定席
福知山,135.117996,35.296931,丹鉄,天橋立,135.182456,35.557729,丹鉄,私鉄,特急,34.8,自由席
天橋立,135.182456,35.557729,丹鉄,福知山,135.117996,35.296931,丹鉄,私鉄,特急,34.8,自由席
福知山,135.118564,35.296143,JR西日本,二条,135.741701,35.010978,JR西日本,ＪＲ,特急,84.3,自由席
二条,135.741701,35.010978,JR西日本,嵯峨嵐山,135.68127,35.018698,JR西日本,ＪＲ,普通,6.1,自由席
トロッコ嵐山,135.670252,35.017162,嵯峨野トロッコ,トロッコ亀岡,135.606751,35.01314,嵯峨野トロッコ,私鉄,嵯峨野,6.3,立席
トロッコ亀岡,135.606751,35.01314,嵯峨野トロッコ,トロッコ嵯峨,135.680704,35.018656,嵯峨野トロッコ,私鉄,嵯峨野,7.3,指定席
嵯峨嵐山,135.68127,35.018698,JR西日本,二条,135.741701,35.010978,JR西日本,ＪＲ,普通,6.1,自由席
二条,135.741668,35.012028,京都市交通局,京都市役所前,135.768829,35.011003,京都市交通局,地下鉄,普通,2.5,自由席
三条,135.772274,35.009114,京阪,東福寺,135.769998,34.981351,京阪,私鉄,準急,3.2,自由席
東福寺,135.769778,34.981371,JR西日本,宇治,135.800629,34.890437,JR西日本,ＪＲ,みやこ路快速,13.8,自由席
宇治,135.800629,34.890437,JR西日本,奈良,135.818935,34.680482,JR西日本,ＪＲ,みやこ路快速,26.8,自由席
西ノ京,135.783186,34.670652,近鉄,京都,135.756442,34.984726,近鉄,私鉄,普通,37.4,自由席
京都,135.757748,34.985465,JR西日本,二条,135.741701,35.010978,JR西日本,ＪＲ,快速,4.2,自由席
二条,135.741668,35.012028,京都市交通局,三条京阪,135.773773,35.009278,京都市交通局,地下鉄,普通,3,自由席
三条,135.772274,35.009114,京阪,淀屋橋,135.501648,34.692456,京阪,私鉄,特急,49.3,自由席
淀屋橋,135.500972,34.692289,大阪メトロ,本町,135.498982,34.681936,大阪メトロ,地下鉄,普通,0.9,自由席
本町,135.498982,34.681936,大阪メトロ,なんば,135.500277,34.666316,大阪メトロ,地下鉄,普通,1.9,自由席
なんば,135.500277,34.666316,大阪メトロ,天王寺,135.51374,34.646554,大阪メトロ,地下鉄,普通,3.4,自由席
天王寺,135.514124,34.647243,JR西日本,新大阪,135.501852,34.734136,JR西日本,ＪＲ,特急,14.8,指定席
新大阪,135.498558,34.732919,大阪メトロ,本町,135.498982,34.681936,大阪メトロ,地下鉄,普通,5.7,自由席
本町,135.498982,34.681936,大阪メトロ,新大阪,135.498558,34.732919,大阪メトロ,地下鉄,普通,5.7,自由席
新大阪,135.501852,34.734136,JR西日本,東京,139.766103,35.681391,JR東日本,ＪＲ,新幹線,552.6,指定席
東京,139.766103,35.681391,JR東日本,新宿,139.700464,35.689729,JR東日本,ＪＲ,快速,10.3,自由席
新宿,139.700464,35.689729,JR東日本,吉祥寺,139.579765,35.703119,JR東日本,ＪＲ,快速,12.2,自由席
吉祥寺,139.579765,35.703119,JR東日本,新宿,139.700464,35.689729,JR東日本,ＪＲ,普通,12.2,自由席
都庁前,139.69257,35.690551,東京都交通局,新宿,139.698812,35.68869,東京都交通局,地下鉄,普通,0.8,自由席
新宿,139.700464,35.689729,JR東日本,蘇我,140.130767,35.582065,JR東日本,ＪＲ,特急,50.2,指定席
蘇我,140.130767,35.582065,JR東日本,東京,139.766103,35.681391,JR東日本,ＪＲ,特急,43,指定席
東京,139.766103,35.681391,JR東日本,新宿,139.700464,35.689729,JR東日本,ＪＲ,快速,10.3,自由席
都庁前,139.69257,35.690551,東京都交通局,新宿西口,139.699155,35.693315,東京都交通局,地下鉄,普通,0.8,自由席
新宿,139.700464,35.689729,JR東日本,池袋,139.711086,35.730256,JR東日本,ＪＲ,普通,4.8,自由席
池袋,139.711086,35.730256,JR東日本,新宿,139.700464,35.689729,JR東日本,ＪＲ,快速,4.8,自由席
新宿,139.698812,35.68869,東京都交通局,都庁前,139.69257,35.690551,東京都交通局,地下鉄,普通,0.8,自由席
都庁前,139.69257,35.690551,東京都交通局,汐留,139.760642,35.663703,東京都交通局,地下鉄,普通,9.5,自由席
新橋,139.758432,35.667434,東京メトロ,末広町,139.771713,35.702972,東京メトロ,地下鉄,普通,4.7,自由席
岩本町,139.775866,35.695534,東京都交通局,森下,139.797042,35.68796,東京都交通局,地下鉄,各駅停車,2.2,自由席
森下,139.797042,35.68796,東京都交通局,汐留,139.760642,35.663703,東京都交通局,地下鉄,普通,6.4,自由席
新橋,139.758587,35.666195,JR東日本,川崎,139.697485,35.531311,JR東日本,ＪＲ,普通,16.3,自由席
川崎,139.697485,35.531311,JR東日本,新橋,139.758587,35.666195,JR東日本,ＪＲ,普通,16.3,自由席
新橋,139.758587,35.666195,JR東日本,秋葉原,139.773288,35.698619,JR東日本,ＪＲ,普通,3.9,自由席
秋葉原,139.773288,35.698619,JR東日本,東京,139.766103,35.681391,JR東日本,ＪＲ,普通,2,自由席
東京,139.766103,35.681391,JR東日本,新橋,139.758587,35.666195,JR東日本,ＪＲ,普通,1.9,自由席
新橋,139.758587,35.666195,JR東日本,渋谷,139.701238,35.658871,JR東日本,ＪＲ,普通,12.1,自由席
渋谷,139.701238,35.658871,JR東日本,大塚,139.728584,35.731412,JR東日本,ＪＲ,普通,10,自由席
大塚,139.728584,35.731412,JR東日本,御徒町,139.774727,35.707282,JR東日本,ＪＲ,普通,7,自由席
御徒町,139.774727,35.707282,JR東日本,新橋,139.758587,35.666195,JR東日本,ＪＲ,普通,4.9,自由席
浜松町,139.756747,35.655666,東京モノレール,羽田空港国際線ビル,139.768206,35.544169,東京モノレール,モノレール,空港快速,14,自由席
成田空港（第１旅客ターミナル）,140.384644,35.763983,JR東日本,東京,139.766103,35.681391,JR東日本,ＪＲ,特急,79.2,指定席
東京,139.766103,35.681391,JR東日本,吉祥寺,139.579765,35.703119,JR東日本,ＪＲ,快速,22.5,自由席
吉祥寺,139.579765,35.703119,JR東日本,新宿,139.700464,35.689729,JR東日本,ＪＲ,快速,12.2,自由席
新宿,139.700464,35.689729,JR東日本,吉祥寺,139.579765,35.703119,JR東日本,ＪＲ,普通,12.2,自由席
吉祥寺,139.580306,35.702291,京王,渋谷,139.700872,35.6587,京王,私鉄,急行,12.7,自由席
渋谷,139.702417,35.659545,東急,日吉,139.646944,35.5539,東急,私鉄,急行,13.6,自由席
日吉,139.646944,35.5539,東急,武蔵小杉,139.659652,35.575752,東急,私鉄,急行,2.8,自由席
武蔵小杉,139.65963,35.57669,JR東日本,成田空港（第１旅客ターミナル）,140.384644,35.763983,JR東日本,ＪＲ,特急,96,指定席
中部国際空港,136.816382,34.859262,名鉄,金山,136.9013,35.142871,名鉄,私鉄,特急,35.7,自由席
金山,136.900517,35.142928,JR東海,名古屋,136.881637,35.170694,JR東海,ＪＲ,特別快速,3.3,自由席
名古屋,136.881637,35.170694,JR東海,伊勢市,136.709661,34.49126,JR東海,ＪＲ,快速,108.4,自由席
鳥羽,136.84279,34.486516,JR東海,名古屋,136.881637,35.170694,JR東海,ＪＲ,快速,122.5,自由席
名古屋,136.881637,35.170694,JR東海,金山,136.900517,35.142928,JR東海,ＪＲ,普通,3.3,自由席
金山,136.901611,35.14352,名古屋市交通局,伝馬町,136.91038,35.120735,名古屋市交通局,地下鉄,普通,3,自由席
熱田,136.910502,35.130028,JR東海,金山,136.900517,35.142928,JR東海,ＪＲ,普通,1.9,自由席
金山,136.900517,35.142928,JR東海,名古屋,136.881637,35.170694,JR東海,ＪＲ,区間快速,3.3,自由席
名古屋,136.882417,35.168733,名臨高,金城ふ頭,136.849009,35.048775,名臨高,私鉄,普通,15.2,自由席
金城ふ頭,136.849009,35.048775,名臨高,名古屋,136.882417,35.168733,名臨高,私鉄,普通,15.2,自由席
名古屋,136.881637,35.170694,JR東海,金山,136.900517,35.142928,JR東海,ＪＲ,快速,3.3,自由席
金山,136.9013,35.142871,名鉄,中部国際空港,136.816382,34.859262,名鉄,私鉄,特急,35.7,指定席
成田空港（第１旅客ターミナル）,140.384644,35.763983,JR東日本,東京,139.766103,35.681391,JR東日本,ＪＲ,特急,79.2,指定席
東京,139.766103,35.681391,JR東日本,水戸,140.47676,36.370911,JR東日本,ＪＲ,特急,121.1,指定席
水戸,140.47676,36.370911,JR東日本,品川,139.738999,35.62876,JR東日本,ＪＲ,特急,127.9,指定席
品川,139.738999,35.62876,JR東日本,渋谷,139.701238,35.658871,JR東日本,ＪＲ,普通,7.2,自由席
渋谷,139.701238,35.658871,JR東日本,原宿,139.702592,35.670646,JR東日本,ＪＲ,普通,1.2,自由席
原宿,139.702592,35.670646,JR東日本,品川,139.738999,35.62876,JR東日本,ＪＲ,普通,8.4,自由席
品川,139.738999,35.62876,JR東日本,東京,139.766103,35.681391,JR東日本,ＪＲ,普通,6.8,自由席
東京,139.766103,35.681391,JR東日本,大宮,139.62405,35.906439,JR東日本,ＪＲ,新幹線,30.3,指定席
大宮,139.62405,35.906439,JR東日本,東京,139.766103,35.681391,JR東日本,ＪＲ,新幹線,30.3,指定席
東京,139.766103,35.681391,JR東日本,品川,139.738999,35.62876,JR東日本,ＪＲ,普通,6.8,自由席
品川,139.738999,35.62876,JR東日本,河津,138.996179,34.747711,伊豆急,ＪＲ,特急,150,指定席
河津,138.996179,34.747711,伊豆急,熱海,139.077679,35.103573,JR東日本,ＪＲ,特急,52.2,指定席
熱海,139.077679,35.103573,JR東日本,三島,138.911133,35.126253,JR東海,ＪＲ,普通,16.1,自由席
三島,138.911133,35.126253,JR東海,静岡,138.388579,34.971629,JR東海,ＪＲ,新幹線,59.5,自由席
静岡,138.388579,34.971629,JR東海,金谷,138.125578,34.819049,JR東海,ＪＲ,普通,32.7,自由席
金谷,138.12605,34.819568,大鐵,新金谷,138.137645,34.825737,大鐵,私鉄,普通,2.3,自由席
新金谷,138.137645,34.825737,大鐵,家山,138.077764,34.940071,大鐵,私鉄,SL急行,14.8,指定席
家山,138.077764,34.940071,大鐵,金谷,138.12605,34.819568,大鐵,私鉄,普通,17.1,自由席
金谷,138.125578,34.819049,JR東海,島田,138.173436,34.830159,JR東海,ＪＲ,普通,5.1,自由席
根府川,139.138504,35.202455,JR東日本,小田原,139.155772,35.256225,JR東日本,ＪＲ,普通,6.5,自由席
小田原,139.155772,35.256225,JR東日本,根府川,139.138504,35.202455,JR東日本,ＪＲ,普通,6.5,自由席
新千歳空港,141.680823,42.787546,JR北海道,南千歳,141.675388,42.80804,JR北海道,ＪＲ,快速,2.6,自由席
南千歳,141.675388,42.80804,JR北海道,新千歳空港,141.680823,42.787546,JR北海道,ＪＲ,快速,2.6,自由席
夕張,141.967472,43.050926,JR北海道,新夕張,142.03657,42.936611,JR北海道,ＪＲ,普通,16.1,自由席
新夕張,142.03657,42.936611,JR北海道,南千歳,141.675388,42.80804,JR北海道,ＪＲ,特急,43,自由席
南千歳,141.675388,42.80804,JR北海道,新千歳空港,141.680823,42.787546,JR北海道,ＪＲ,快速,2.6,自由席
関西空港,135.243601,34.435848,南海,難波,135.501949,34.66357,南海,私鉄,特急,42.8,指定席
日本橋,135.506635,34.667146,大阪メトロ,北浜,135.506634,34.691588,大阪メトロ,地下鉄,普通,2.8,自由席
北浜,135.50683,34.691799,京阪,丹波橋,135.765457,34.938879,京阪,私鉄,特急,40.8,自由席
丹波橋,135.765457,34.938879,京阪,東福寺,135.769998,34.981351,京阪,私鉄,準急,4.8,自由席
東福寺,135.769778,34.981371,JR西日本,京都,135.757748,34.985465,JR西日本,ＪＲ,普通,1.1,自由席
京都,135.757748,34.985465,JR西日本,新大阪,135.501852,34.734136,JR西日本,ＪＲ,新幹線,39,自由席
新大阪,135.501852,34.734136,JR西日本,久宝寺,135.583988,34.622558,JR西日本,ＪＲ,普通,20.2,自由席
久宝寺,135.583988,34.622558,JR西日本,ＪＲ難波,135.495265,34.666438,JR西日本,ＪＲ,普通,10.6,自由席
難波,135.501949,34.66357,南海,和歌山市,135.166538,34.236925,南海,私鉄,急行,64.2,自由席
和歌山市,135.166538,34.236925,南海,和歌山港,135.146488,34.217321,南海,私鉄,普通,2.8,自由席
徳島,134.551391,34.074572,JR四国,阿波池田,133.804669,34.026891,JR四国,ＪＲ,特急,74,自由席
阿波池田,133.804669,34.026891,JR四国,宇多津,133.813686,34.306271,JR四国,ＪＲ,特急,50.7,自由席
宇多津,133.813686,34.306271,JR四国,坂出,133.856819,34.313189,JR四国,ＪＲ,快速,4.6,自由席
坂出,133.856819,34.313189,JR四国,宇多津,133.813686,34.306271,JR四国,ＪＲ,快速,4.6,自由席
宇多津,133.813686,34.306271,JR四国,高知,133.543522,33.566758,JR四国,ＪＲ,特急,133.4,自由席
高知駅前,133.543606,33.56653,土佐電,はりまや橋,133.542852,33.559617,土佐電,路面電車,普通,0.8,自由席
はりまや橋,133.542852,33.559617,土佐電,桟橋通五丁目,133.552938,33.540286,土佐電,路面電車,普通,2.4,自由席
桟橋通五丁目,133.552938,33.540286,土佐電,はりまや橋,133.542852,33.559617,土佐電,路面電車,普通,2.4,自由席
はりまや橋,133.542852,33.559617,土佐電,高知駅前,133.543606,33.56653,土佐電,路面電車,普通,0.8,自由席
高知,133.543522,33.566758,JR四国,窪川,133.137285,33.212656,JR四国,ＪＲ,快速,72.1,指定席
窪川,133.137285,33.212656,JR四国,宇和島,132.56746,33.225774,JR四国,ＪＲ,普通,82.2,自由席
宇和島,132.56746,33.225774,JR四国,松山,132.751149,33.839954,JR四国,ＪＲ,特急,96.9,自由席
松山駅前,132.752326,33.840765,伊予鉄,古町,132.754998,33.846978,伊予鉄,路面電車,普通,0.8,自由席
古町,132.754998,33.846978,伊予鉄,松山市,132.762281,33.835656,伊予鉄,私鉄,普通,1.8,自由席
松山市駅前,132.762587,33.836148,伊予鉄,松山駅前,132.752326,33.840765,伊予鉄,路面電車,普通,1.3,自由席
松山駅前,132.752326,33.840765,伊予鉄,古町,132.754998,33.846978,伊予鉄,路面電車,普通,0.8,自由席
古町,132.754998,33.846978,伊予鉄,大街道,132.769861,33.841103,伊予鉄,路面電車,普通,2.7,自由席
大街道,132.769861,33.841103,伊予鉄,松山駅前,132.752326,33.840765,伊予鉄,路面電車,普通,4.6,自由席
松山,132.751149,33.839954,JR四国,伊予西条,133.188275,33.912584,JR四国,ＪＲ,特急,80.1,指定席
伊予西条,133.188275,33.912584,JR四国,児島,133.807729,34.462817,JR西日本,ＪＲ,特急,106.5,指定席
児島,133.807729,34.462817,JR西日本,高松,134.046821,34.350754,JR四国,ＪＲ,快速,44,自由席
高松,134.046821,34.350754,JR四国,志度,134.173144,34.321508,JR四国,ＪＲ,特急,16.3,自由席
琴電志度,134.172528,34.32246,琴電,瓦町,134.052529,34.338827,琴電,私鉄,普通,12.5,自由席
瓦町,134.052529,34.338827,琴電,高松築港,134.049507,34.35079,琴電,私鉄,普通,1.7,自由席
高松,134.046821,34.350754,JR四国,池谷,134.529097,34.152783,JR四国,ＪＲ,特急,64.2,自由席
池谷,134.529097,34.152783,JR四国,鳴門,134.608355,34.179131,JR四国,ＪＲ,普通,8.5,自由席
鳴門,134.608355,34.179131,JR四国,徳島,134.551391,34.074572,JR四国,ＪＲ,普通,18.8,自由席
徳島,134.551391,34.074572,JR四国,高松,134.046821,34.350754,JR四国,ＪＲ,特急,74.5,自由席
高松,134.046821,34.350754,JR四国,坂出,133.856819,34.313189,JR四国,ＪＲ,快速,21.3,自由席
坂出,133.856819,34.313189,JR四国,丸亀,133.793887,34.292414,JR四国,ＪＲ,普通,7.1,自由席
丸亀,133.793887,34.292414,JR四国,宇多津,133.813686,34.306271,JR四国,ＪＲ,特急,2.6,自由席
宇多津,133.813686,34.306271,JR四国,高松,134.046821,34.350754,JR四国,ＪＲ,特急,25.9,自由席
高松,134.046821,34.350754,JR四国,徳島,134.551391,34.074572,JR四国,ＪＲ,特急,74.5,自由席
徳島,134.551391,34.074572,JR四国,南小松島,134.586994,34.005634,JR四国,ＪＲ,特急,10.9,指定席
南小松島,134.586994,34.005634,JR四国,徳島,134.551391,34.074572,JR四国,ＪＲ,普通,10.9,自由席
羽田空港国内線ターミナル,139.785962,35.549809,京急,横浜,139.623055,35.466066,京急,私鉄,エアポート急行,20.7,自由席
横浜,139.622299,35.466372,東急,日吉,139.646944,35.5539,東急,私鉄,急行,10.6,自由席
日吉,139.646944,35.5539,東急,武蔵小杉,139.659652,35.575752,東急,私鉄,急行,2.8,自由席
武蔵小杉,139.659652,35.575752,東急,中目黒,139.698621,35.643854,東急,私鉄,急行,8.6,自由席
中目黒,139.698621,35.643854,東京メトロ,秋葉原,139.775459,35.698162,東京メトロ,地下鉄,普通,13.5,自由席
秋葉原,139.773288,35.698619,JR東日本,御茶ノ水,139.764955,35.699605,JR東日本,ＪＲ,普通,0.9,自由席
御茶ノ水,139.764955,35.699605,JR東日本,三鷹,139.560325,35.702683,JR東日本,ＪＲ,中央特快,21.5,自由席
三鷹,139.560325,35.702683,JR東日本,新宿,139.700464,35.689729,JR東日本,ＪＲ,快速,13.8,自由席
新宿,139.700464,35.689729,JR東日本,武蔵小杉,139.65963,35.57669,JR東日本,ＪＲ,快速,20.6,自由席
武蔵小杉,139.659652,35.575752,東急,日吉,139.646944,35.5539,東急,私鉄,各駅停車,2.8,自由席
日吉,139.646944,35.5539,東急,武蔵小杉,139.659652,35.575752,東急,私鉄,各駅停車,2.8,自由席
武蔵小杉,139.65963,35.57669,JR東日本,成田空港（第１旅客ターミナル）,140.384644,35.763983,JR東日本,ＪＲ,特急,96,指定席
品川,139.738999,35.62876,JR東日本,成田空港（第１旅客ターミナル）,140.384644,35.763983,JR東日本,ＪＲ,特急,86,指定席
羽田空港国内線ターミナル,139.785962,35.549809,京急,品川,139.73809,35.628284,京急,私鉄,快特,14.5,自由席
新整備場,139.786777,35.542773,東京モノレール,羽田空港第１ビル,139.784653,35.549163,東京モノレール,モノレール,普通,0.8,自由席
羽田空港国際線ビル,139.768206,35.544169,東京モノレール,新整備場,139.786777,35.542773,東京モノレール,モノレール,普通,2.2,自由席
浜松町,139.756747,35.655666,東京モノレール,羽田空港国際線ビル,139.768206,35.544169,東京モノレール,モノレール,空港快速,14,自由席
上野,139.777043,35.71379,JR東日本,浜松町,139.757135,35.655391,JR東日本,ＪＲ,普通,6.7,自由席
池袋,139.711086,35.730256,JR東日本,上野,139.777043,35.71379,JR東日本,ＪＲ,普通,8.7,自由席
品川,139.738999,35.62876,JR東日本,池袋,139.711086,35.730256,JR東日本,ＪＲ,普通,15.4,自由席
秋葉原,139.773288,35.698619,JR東日本,品川,139.738999,35.62876,JR東日本,ＪＲ,普通,8.8,自由席
品川,139.738999,35.62876,JR東日本,秋葉原,139.773288,35.698619,JR東日本,ＪＲ,普通,8.8,自由席
新横浜,139.617348,35.506824,JR東日本,品川,139.738999,35.62876,JR東日本,ＪＲ,新幹線,22,自由席
品川,139.738999,35.62876,JR東日本,新横浜,139.617348,35.506824,JR東日本,ＪＲ,新幹線,22,自由席
秋葉原,139.773288,35.698619,JR東日本,品川,139.738999,35.62876,JR東日本,ＪＲ,快速,8.8,自由席
品川,139.738999,35.62876,JR東日本,秋葉原,139.773288,35.698619,JR東日本,ＪＲ,快速,8.8,自由席
成田空港（第１旅客ターミナル）,140.384644,35.763983,JR東日本,品川,139.738999,35.62876,JR東日本,ＪＲ,特急,86,指定席
品川,139.738999,35.62876,JR東日本,成田空港（第１旅客ターミナル）,140.384644,35.763983,JR東日本,ＪＲ,特急,86,指定席
秋葉原,139.773288,35.698619,JR東日本,品川,139.738999,35.62876,JR東日本,ＪＲ,普通,8.8,自由席
上野,139.777043,35.71379,JR東日本,秋葉原,139.773288,35.698619,JR東日本,ＪＲ,普通,1.6,自由席
秋葉原,139.773288,35.698619,JR東日本,上野,139.777043,35.71379,JR東日本,ＪＲ,普通,1.6,自由席
品川,139.738999,35.62876,JR東日本,秋葉原,139.773288,35.698619,JR東日本,ＪＲ,普通,8.8,自由席
有楽町,139.763806,35.675441,JR東日本,品川,139.738999,35.62876,JR東日本,ＪＲ,普通,6,自由席
築地,139.772603,35.668115,東京メトロ,日比谷,139.76017,35.67459,東京メトロ,地下鉄,普通,1.4,自由席
銀座,139.763965,35.671989,東京メトロ,築地,139.772603,35.668115,東京メトロ,地下鉄,普通,1,自由席
新橋,139.758432,35.667434,東京メトロ,銀座,139.763965,35.671989,東京メトロ,地下鉄,普通,0.9,自由席
品川,139.738999,35.62876,JR東日本,新橋,139.758587,35.666195,JR東日本,ＪＲ,普通,4.9,自由席
京都,135.757748,34.985465,JR西日本,品川,139.738999,35.62876,JR東日本,ＪＲ,新幹線,506.8,指定席
京都市役所前,135.768829,35.011003,京都市交通局,二条城前,135.750473,35.011892,京都市交通局,地下鉄,普通,1.7,自由席
姫路,134.690769,34.827659,JR西日本,京都,135.757748,34.985465,JR西日本,ＪＲ,新幹線,130.7,指定席
広島,132.475593,34.397446,JR西日本,姫路,134.690769,34.827659,JR西日本,ＪＲ,新幹線,249.9,指定席
袋町,132.456214,34.391187,広電,広島駅,132.475403,34.396296,広電,路面電車,普通,2.6,自由席
広島駅,132.475403,34.396296,広電,袋町,132.456214,34.391187,広電,路面電車,普通,2.6,自由席
博多,130.420622,33.590002,JR西日本,広島,132.475593,34.397446,JR西日本,ＪＲ,新幹線,280.7,指定席
熊本,130.688499,32.789207,JR九州,博多,130.420622,33.590002,JR西日本,ＪＲ,新幹線,118.4,指定席
熊本城・市役所前,130.707028,32.802967,熊本市交通局,熊本駅前,130.690398,32.790377,熊本市交通局,路面電車,普通,2.8,自由席
熊本駅前,130.690398,32.790377,熊本市交通局,熊本城・市役所前,130.707028,32.802967,熊本市交通局,路面電車,普通,2.8,自由席
博多,130.420622,33.590002,JR西日本,熊本,130.688499,32.789207,JR九州,ＪＲ,新幹線,118.4,指定席
長崎,129.870515,32.753085,JR九州,博多,130.420622,33.590002,JR九州,ＪＲ,特急,153.9,自由席
市民会館,129.88065,32.74942,長崎電気軌道,長崎駅前,129.871874,32.75238,長崎電気軌道,路面電車,普通,0.9,自由席
大浦天主堂,129.87078,32.736408,長崎電気軌道,メディカルセンター,129.87241,32.740523,長崎電気軌道,路面電車,普通,0.4,自由席
新地中華街,129.874942,32.742869,長崎電気軌道,大浦天主堂,129.87078,32.736408,長崎電気軌道,路面電車,普通,0.8,自由席
長崎駅前,129.871874,32.75238,長崎電気軌道,新地中華街,129.874942,32.742869,長崎電気軌道,路面電車,普通,1.3,自由席
博多,130.420622,33.590002,JR九州,長崎,129.870515,32.753085,JR九州,ＪＲ,特急,153.9,指定席
鹿児島中央,130.541789,31.583727,JR九州,博多,130.420622,33.590002,JR西日本,ＪＲ,新幹線,288.9,指定席
吉松,130.738104,32.012026,JR九州,鹿児島中央,130.541789,31.583727,JR九州,ＪＲ,特急,68.5,指定席
人吉,130.753797,32.216142,JR九州,吉松,130.738104,32.012026,JR九州,ＪＲ,普通,35,指定席
熊本,130.688499,32.789207,JR九州,人吉,130.753797,32.216142,JR九州,ＪＲ,特急,87.5,指定席
水道町,130.712564,32.80239,熊本市交通局,熊本駅前,130.690398,32.790377,熊本市交通局,路面電車,普通,3.3,自由席
熊本城・市役所前,130.707028,32.802967,熊本市交通局,水道町,130.712564,32.80239,熊本市交通局,路面電車,普通,0.5,自由席
熊本駅前,130.690398,32.790377,熊本市交通局,熊本城・市役所前,130.707028,32.802967,熊本市交通局,路面電車,普通,2.8,自由席
博多,130.420622,33.590002,JR西日本,熊本,130.688499,32.789207,JR九州,ＪＲ,新幹線,118.4,自由席
小倉,130.882678,33.886756,JR九州,博多,130.420622,33.590002,JR西日本,ＪＲ,新幹線,67.2,自由席
博多,130.420622,33.590002,JR西日本,小倉,130.882678,33.886756,JR九州,ＪＲ,新幹線,67.2,自由席
福岡空港,130.448501,33.59718,福岡市交通局,博多,130.42085,33.590204,福岡市交通局,地下鉄,普通,3.3,自由席
日暮里,139.771287,35.727908,京成,空港第２ビル（第２旅客ターミナル）,140.387163,35.773693,京成,私鉄,空港快速,61,指定席
池袋,139.711086,35.730256,JR東日本,日暮里,139.771287,35.727908,JR東日本,ＪＲ,普通,6.5,自由席
日暮里,139.771287,35.727908,JR東日本,池袋,139.711086,35.730256,JR東日本,ＪＲ,普通,6.5,自由席
浜松町,139.757135,35.655391,JR東日本,日暮里,139.771287,35.727908,JR東日本,ＪＲ,普通,8.9,自由席
羽田空港国際線ビル,139.768206,35.544169,東京モノレール,浜松町,139.756747,35.655666,東京モノレール,モノレール,空港快速,14,自由席
新整備場,139.786777,35.542773,東京モノレール,羽田空港国際線ビル,139.768206,35.544169,東京モノレール,モノレール,普通,2.2,自由席
羽田空港国際線ビル,139.768206,35.544169,東京モノレール,新整備場,139.786777,35.542773,東京モノレール,モノレール,普通,2.2,自由席
東京,139.766103,35.681391,JR東日本,成田空港（第１旅客ターミナル）,140.384644,35.763983,JR東日本,ＪＲ,特急,79.2,指定席
仙台,140.882158,38.260027,JR東日本,東京,139.766103,35.681391,JR東日本,ＪＲ,新幹線,351.8,指定席
松島海岸,141.058523,38.368529,JR東日本,仙台,140.882158,38.260027,JR東日本,ＪＲ,普通,22.7,自由席
あおば通,140.878514,38.260749,JR東日本,松島海岸,141.058523,38.368529,JR東日本,ＪＲ,普通,23.2,自由席
秋田,140.129931,39.716748,JR東日本,仙台,140.882158,38.260027,JR東日本,ＪＲ,新幹線,310.8,指定席
弘前,140.485016,40.599723,JR東日本,秋田,140.129931,39.716748,JR東日本,ＪＲ,快速,210.2,指定席
新青森,140.693472,40.8275,JR東日本,弘前,140.485016,40.599723,JR東日本,ＪＲ,特急,33.5,指定席
新函館北斗,140.646525,41.9054,JR北海道,新青森,140.693472,40.8275,JR東日本,ＪＲ,新幹線,148.8,指定席
函館,140.726413,41.773709,JR北海道,新函館北斗,140.646525,41.9054,JR北海道,ＪＲ,普通,17.9,自由席
十字街,140.718513,41.763998,函館市電,函館駅前,140.727997,41.77264,函館市電,路面電車,普通,1.3,自由席
函館駅前,140.727997,41.77264,函館市電,十字街,140.718513,41.763998,函館市電,路面電車,普通,1.3,自由席
新函館北斗,140.646525,41.9054,JR北海道,函館,140.726413,41.773709,JR北海道,ＪＲ,普通,17.9,自由席
仙台,140.882158,38.260027,JR東日本,新函館北斗,140.646525,41.9054,JR北海道,ＪＲ,新幹線,510.7,指定席
古川,140.967876,38.571192,JR東日本,仙台,140.882158,38.260027,JR東日本,ＪＲ,新幹線,43.2,指定席
鳴子温泉,140.715939,38.743193,JR東日本,古川,140.967876,38.571192,JR東日本,ＪＲ,普通,35.5,自由席
新庄,140.306064,38.76256,JR東日本,鳴子温泉,140.715939,38.743193,JR東日本,ＪＲ,普通,49.2,自由席
東京,139.766103,35.681391,JR東日本,新庄,140.306064,38.76256,JR東日本,ＪＲ,新幹線,421.4,自由席
新橋,139.758587,35.666195,JR東日本,東京,139.766103,35.681391,JR東日本,ＪＲ,特別快速,1.9,自由席
新橋,139.758587,35.666195,JR東日本,有楽町,139.763806,35.675441,JR東日本,ＪＲ,普通,1.1,自由席
浜松町,139.757135,35.655391,JR東日本,新橋,139.758587,35.666195,JR東日本,ＪＲ,普通,1.2,自由席
羽田空港第２ビル,139.787979,35.550734,東京モノレール,浜松町,139.756747,35.655666,東京モノレール,モノレール,区間快速,17.8,自由席
品川,139.738999,35.62876,JR東日本,成田空港（第１旅客ターミナル）,140.384644,35.763983,JR東日本,ＪＲ,特急,86,指定席
神田,139.770641,35.691173,JR東日本,品川,139.738999,35.62876,JR東日本,ＪＲ,普通,8.1,自由席
新宿,139.700464,35.689729,JR東日本,神田,139.770641,35.691173,JR東日本,ＪＲ,中央特快,9,自由席
新宿,139.700464,35.689729,JR東日本,千駄ケ谷,139.711644,35.681231,JR東日本,ＪＲ,普通,1.7,自由席
品川,139.738999,35.62876,JR東日本,新宿,139.700464,35.689729,JR東日本,ＪＲ,普通,10.6,自由席
大船,139.531127,35.353466,JR東日本,品川,139.738999,35.62876,JR東日本,ＪＲ,普通,39.7,自由席
湘南江の島,139.487794,35.311867,湘南モノレール,大船,139.531367,35.352359,湘南モノレール,モノレール,普通,6.6,自由席
鎌倉高校前,139.500535,35.306698,江ノ電,湘南海岸公園,139.4833,35.315203,江ノ電,私鉄,普通,2,自由席
七里ヶ浜,139.510101,35.306243,江ノ電,鎌倉高校前,139.500535,35.306698,江ノ電,私鉄,普通,0.9,自由席
鎌倉,139.550121,35.318491,江ノ電,七里ヶ浜,139.510101,35.306243,江ノ電,私鉄,普通,4.4,自由席
品川,139.738999,35.62876,JR東日本,鎌倉,139.550428,35.318793,JR東日本,ＪＲ,普通,47.1,グリーン車
熱海,139.077679,35.103573,JR東日本,品川,139.738999,35.62876,JR東日本,ＪＲ,特急,97.8,指定席
三島,138.911133,35.126253,JR東海,熱海,139.077679,35.103573,JR東日本,ＪＲ,普通,16.1,自由席
伊豆長岡,138.947539,35.039907,いずはこ,三島,138.911369,35.125946,いずはこ,私鉄,普通,11.4,自由席
熱海,139.077679,35.103573,JR東日本,沼津,138.860104,35.103011,JR東海,ＪＲ,普通,21.6,自由席
小田原,139.155772,35.256225,JR東日本,熱海,139.077679,35.103573,JR東日本,ＪＲ,快速,20.7,自由席
熱海,139.077679,35.103573,JR東日本,小田原,139.155772,35.256225,JR東日本,ＪＲ,快速,20.7,自由席
横浜,139.622704,35.466195,JR東日本,熱海,139.077679,35.103573,JR東日本,ＪＲ,特急,75.8,指定席
品川,139.738999,35.62876,JR東日本,横浜,139.622704,35.466195,JR東日本,ＪＲ,普通,22,自由席
東京,139.766103,35.681391,JR東日本,品川,139.738999,35.62876,JR東日本,ＪＲ,普通,6.8,自由席
高崎,139.012354,36.322239,JR東日本,東京,139.766103,35.681391,JR東日本,ＪＲ,新幹線,105,指定席
新前橋,139.046924,36.378936,JR東日本,高崎,139.012354,36.322239,JR東日本,ＪＲ,SL快速,7.3,指定席
高崎,139.012354,36.322239,JR東日本,新前橋,139.046924,36.378936,JR東日本,ＪＲ,普通,7.3,自由席
大宮,139.62405,35.906439,JR東日本,高崎,139.012354,36.322239,JR東日本,ＪＲ,新幹線,74.7,指定席
鉄道博物館,139.617796,35.920271,埼玉新都市交通,大宮,139.62254,35.90751,埼玉新都市交通,新交通,普通,1.5,自由席
大宮,139.62254,35.90751,埼玉新都市交通,鉄道博物館,139.617796,35.920271,埼玉新都市交通,新交通,普通,1.5,自由席
東京,139.766103,35.681391,JR東日本,大宮,139.62405,35.906439,JR東日本,ＪＲ,普通,30.3,自由席
秋葉原,139.773288,35.698619,JR東日本,東京,139.766103,35.681391,JR東日本,ＪＲ,普通,2,自由席
品川,139.738999,35.62876,JR東日本,秋葉原,139.773288,35.698619,JR東日本,ＪＲ,普通,8.8,自由席
成田空港（第１旅客ターミナル）,140.384644,35.763983,JR東日本,品川,139.738999,35.62876,JR東日本,ＪＲ,特急,86,指定席
名鉄名古屋,136.884187,35.169252,名鉄,中部国際空港,136.816382,34.859262,名鉄,私鉄,空港特急,39.3,指定席
新大阪,135.501852,34.734136,JR西日本,名古屋,136.881637,35.170694,JR東海,ＪＲ,新幹線,186.6,グリーン車
大阪,135.495188,34.702398,JR西日本,新大阪,135.501852,34.734136,JR西日本,ＪＲ,普通,3.8,自由席
大阪城公園,135.534482,34.68858,JR西日本,大阪,135.495188,34.702398,JR西日本,ＪＲ,普通,5,自由席
桜ノ宮,135.520944,34.704976,JR西日本,森ノ宮,135.533996,34.680412,JR西日本,ＪＲ,普通,3.5,自由席
天満,135.512233,34.704923,JR西日本,桜ノ宮,135.520944,34.704976,JR西日本,ＪＲ,普通,0.8,自由席
大阪,135.495188,34.702398,JR西日本,天満,135.512233,34.704923,JR西日本,ＪＲ,普通,1.6,自由席
新大阪,135.501852,34.734136,JR西日本,大阪,135.495188,34.702398,JR西日本,ＪＲ,快速,3.8,自由席
京都,135.757748,34.985465,JR西日本,新大阪,135.501852,34.734136,JR西日本,ＪＲ,新快速,39,自由席
新大阪,135.501852,34.734136,JR西日本,京都,135.757748,34.985465,JR西日本,ＪＲ,特急,39,自由席
京都,135.757748,34.985465,JR西日本,新大阪,135.501852,34.734136,JR西日本,ＪＲ,L特急,39,自由席
稲荷,135.770707,34.966758,JR西日本,京都,135.757748,34.985465,JR西日本,ＪＲ,普通,2.7,自由席
木幡,135.798901,34.924962,JR西日本,稲荷,135.770707,34.966758,JR西日本,ＪＲ,普通,7.9,自由席
宇治,135.806229,34.894678,京阪,木幡,135.796047,34.925859,京阪,私鉄,普通,3.7,自由席
奈良,135.818935,34.680482,JR西日本,宇治,135.800629,34.890437,JR西日本,ＪＲ,みやこ路快速,26.8,自由席
新今宮,135.501076,34.650149,JR西日本,奈良,135.818935,34.680482,JR西日本,ＪＲ,大和路快速,38.5,自由席
難波,135.501949,34.66357,南海,新今宮,135.500302,34.650429,南海,私鉄,普通,1.4,自由席
新大阪,135.498558,34.732919,大阪メトロ,なんば,135.500277,34.666316,大阪メトロ,地下鉄,普通,7.6,自由席
岡山,133.918552,34.666572,JR西日本,新大阪,135.501852,34.734136,JR西日本,ＪＲ,新幹線,180.3,自由席
高松,134.046821,34.350754,JR四国,岡山,133.918552,34.666572,JR西日本,ＪＲ,快速,71.8,自由席
栗林公園,134.051063,34.328586,琴電,高松築港,134.049507,34.35079,琴電,私鉄,普通,2.9,自由席
高松,134.046821,34.350754,JR四国,栗林公園北口,134.041561,34.334188,JR四国,ＪＲ,普通,3.2,自由席
岡山,133.918552,34.666572,JR西日本,高松,134.046821,34.350754,JR四国,ＪＲ,快速,71.8,自由席
姫路,134.690769,34.827659,JR西日本,岡山,133.918552,34.666572,JR西日本,ＪＲ,新幹線,88.6,自由席
三ノ宮,135.195058,34.694766,JR西日本,姫路,134.690769,34.827659,JR西日本,ＪＲ,新快速,57.3,自由席
新大阪,135.501852,34.734136,JR西日本,三ノ宮,135.195058,34.694766,JR西日本,ＪＲ,新快速,34.4,自由席
大阪,135.495188,34.702398,JR西日本,新大阪,135.501852,34.734136,JR西日本,ＪＲ,普通,3.8,自由席
福島,135.486563,34.697167,JR西日本,大阪,135.495188,34.702398,JR西日本,ＪＲ,普通,1,自由席
大阪,135.495188,34.702398,JR西日本,福島,135.486563,34.697167,JR西日本,ＪＲ,普通,1,自由席
新大阪,135.501852,34.734136,JR西日本,大阪,135.495188,34.702398,JR西日本,ＪＲ,普通,3.8,自由席
浜松,137.734759,34.703866,JR東海,新大阪,135.501852,34.734136,JR西日本,ＪＲ,新幹線,295.5,指定席
名古屋,136.881637,35.170694,JR東海,浜松,137.734759,34.703866,JR東海,ＪＲ,新幹線,108.9,自由席
神宮前,136.912485,35.125857,名鉄,名鉄名古屋,136.884187,35.169252,名鉄,私鉄,普通,5.8,自由席
名鉄名古屋,136.884187,35.169252,名鉄,神宮前,136.912485,35.125857,名鉄,私鉄,急行,5.8,自由席
久屋大通,136.908156,35.173784,名古屋市交通局,市役所,136.905379,35.18156,名古屋市交通局,地下鉄,普通,0.9,自由席
名古屋,136.883925,35.171252,名古屋市交通局,久屋大通,136.908156,35.173784,名古屋市交通局,地下鉄,普通,2.4,自由席
金城ふ頭,136.849009,35.048775,名臨高,名古屋,136.882417,35.168733,名臨高,私鉄,普通,15.2,自由席
名古屋,136.882417,35.168733,名臨高,金城ふ頭,136.849009,35.048775,名臨高,私鉄,普通,15.2,自由席
中部国際空港,136.816382,34.859262,名鉄,名鉄名古屋,136.884187,35.169252,名鉄,私鉄,空港特急,39.3,指定席
品川,139.73809,35.628284,京急,羽田空港国際線ターミナル,139.768968,35.544676,京急,私鉄,快特,12.5,自由席
新橋,139.758587,35.666195,JR東日本,品川,139.738999,35.62876,JR東日本,ＪＲ,普通,4.9,自由席
東銀座,139.767253,35.669464,東京都交通局,新橋,139.759451,35.665577,東京都交通局,地下鉄,普通,0.9,自由席
銀座,139.763965,35.671989,東京メトロ,築地,139.772603,35.668115,東京メトロ,地下鉄,普通,1,自由席
東京,139.764708,35.681753,東京メトロ,銀座,139.763965,35.671989,東京メトロ,地下鉄,普通,1.1,自由席
品川,139.738999,35.62876,JR東日本,東京,139.766103,35.681391,JR東日本,ＪＲ,普通,6.8,自由席
田町,139.747575,35.645736,JR東日本,品川,139.738999,35.62876,JR東日本,ＪＲ,普通,2.2,自由席
品川,139.738999,35.62876,JR東日本,田町,139.747575,35.645736,JR東日本,ＪＲ,普通,2.2,自由席
東京,139.766103,35.681391,JR東日本,品川,139.738999,35.62876,JR東日本,ＪＲ,新幹線,6.8,自由席
三島,138.911133,35.126253,JR東海,東京,139.766103,35.681391,JR東日本,ＪＲ,新幹線,120.7,グリーン車
沼津,138.860104,35.103011,JR東海,三島,138.911133,35.126253,JR東海,ＪＲ,普通,5.5,自由席
三島,138.911369,35.125946,いずはこ,伊豆長岡,138.947539,35.039907,いずはこ,私鉄,普通,11.4,自由席
沼津,138.860104,35.103011,JR東海,三島,138.911133,35.126253,JR東海,ＪＲ,普通,5.5,自由席
横浜,139.622704,35.466195,JR東日本,沼津,138.860104,35.103011,JR東海,ＪＲ,寝台特急,97.4,ノビノビ席
東神奈川,139.633466,35.47804,JR東日本,横浜,139.622704,35.466195,JR東日本,ＪＲ,普通,6.1,自由席
新横浜,139.617348,35.506824,JR東日本,東神奈川,139.633466,35.47804,JR東日本,ＪＲ,普通,1.8,自由席
三島,138.911133,35.126253,JR東海,新横浜,139.617348,35.506824,JR東日本,ＪＲ,新幹線,91.9,グリーン車
三島,138.911133,35.126253,JR東海,沼津,138.860104,35.103011,JR東海,ＪＲ,普通,5.5,自由席
伊豆長岡,138.947539,35.039907,いずはこ,三島,138.911369,35.125946,いずはこ,私鉄,普通,11.4,自由席
清水,138.488958,35.023248,JR東海,沼津,138.860104,35.103011,JR東海,ＪＲ,快速,42.8,指定席
沼津,138.860104,35.103011,JR東海,清水,138.488958,35.023248,JR東海,ＪＲ,普通,42.8,自由席
静岡,138.388579,34.971629,JR東海,沼津,138.860104,35.103011,JR東海,ＪＲ,普通,54,自由席
新大阪,135.501852,34.734136,JR西日本,静岡,138.388579,34.971629,JR東海,ＪＲ,新幹線,372.4,グリーン車
京都,135.757748,34.985465,JR西日本,新大阪,135.501852,34.734136,JR西日本,ＪＲ,特急,39,自由席
宇治,135.800629,34.890437,JR西日本,京都,135.757748,34.985465,JR西日本,ＪＲ,みやこ路快速,14.9,自由席
木幡,135.798901,34.924962,JR西日本,宇治,135.800629,34.890437,JR西日本,ＪＲ,普通,4.3,自由席
中書島,135.760174,34.926875,京阪,木幡,135.796047,34.925859,京阪,私鉄,普通,3.9,自由席
京橋,135.532182,34.697052,京阪,中書島,135.760174,34.926875,京阪,私鉄,特急,36.7,自由席
天王寺,135.514124,34.647243,JR西日本,京橋,135.534253,34.696047,JR西日本,ＪＲ,普通,6.5,自由席
新今宮,135.501076,34.650149,JR西日本,天王寺,135.514124,34.647243,JR西日本,ＪＲ,普通,1,自由席
難波,135.501949,34.66357,南海,新今宮,135.500302,34.650429,南海,私鉄,普通,1.4,自由席
新大阪,135.498558,34.732919,大阪メトロ,なんば,135.500277,34.666316,大阪メトロ,地下鉄,普通,7.6,自由席
広島,132.475593,34.397446,JR西日本,新大阪,135.501852,34.734136,JR西日本,ＪＲ,新幹線,341.6,グリーン車
広島駅,132.475403,34.396296,広電,紙屋町東,132.458167,34.395101,広電,私鉄,普通,2.1,自由席
博多,130.420622,33.590002,JR西日本,広島,132.475593,34.397446,JR西日本,ＪＲ,新幹線,280.7,グリーン車
天神,130.39906,33.591346,福岡市交通局,博多,130.42085,33.590204,福岡市交通局,地下鉄,普通,2.5,自由席
博多,130.42085,33.590204,福岡市交通局,天神,130.39906,33.591346,福岡市交通局,地下鉄,普通,2.5,自由席
新大阪,135.501852,34.734136,JR西日本,博多,130.420622,33.590002,JR西日本,ＪＲ,新幹線,622.3,グリーン車
大阪,135.495188,34.702398,JR西日本,新大阪,135.501852,34.734136,JR西日本,ＪＲ,普通,3.8,自由席
新大阪,135.501852,34.734136,JR西日本,大阪,135.495188,34.702398,JR西日本,ＪＲ,特急,3.8,自由席
石山,135.900228,34.97987,JR西日本,新大阪,135.501852,34.734136,JR西日本,ＪＲ,新快速,53.5,自由席
近江神宮前,135.855807,35.028194,京阪,京阪石山,135.901289,34.978937,京阪,私鉄,普通,7.5,自由席
びわ湖浜大津,135.863982,35.011283,京阪,近江神宮前,135.855807,35.028194,京阪,私鉄,普通,2.4,自由席
三条京阪,135.773773,35.009278,京都市交通局,びわ湖浜大津,135.863982,35.011283,京阪,私鉄,普通,10.9,自由席
出町柳,135.77244,35.029613,京阪,三条,135.772274,35.009114,京阪,私鉄,特急,2.3,自由席
祇園四条,135.771961,35.003689,京阪,出町柳,135.77244,35.029613,京阪,私鉄,特急,3,自由席
淡路,135.516527,34.738827,阪急,河原町,135.769463,35.003765,阪急,私鉄,特急,41.1,自由席
日本橋,135.506635,34.667146,大阪メトロ,淡路,135.516527,34.738827,阪急,私鉄,普通,8.4,自由席
大阪,135.495188,34.702398,JR西日本,新今宮,135.501076,34.650149,JR西日本,ＪＲ,区間快速,10,自由席
新大阪,135.501852,34.734136,JR西日本,大阪,135.495188,34.702398,JR西日本,ＪＲ,普通,3.8,自由席
金沢,136.648166,36.578117,JR西日本,新大阪,135.501852,34.734136,JR西日本,ＪＲ,特急,263.8,グリーン車
東京,139.766103,35.681391,JR東日本,金沢,136.648166,36.578117,JR西日本,ＪＲ,新幹線,450.5,グリーン車
秋葉原,139.773288,35.698619,JR東日本,有楽町,139.763806,35.675441,JR東日本,ＪＲ,普通,2.8,自由席
東京,139.766103,35.681391,JR東日本,秋葉原,139.773288,35.698619,JR東日本,ＪＲ,普通,2,自由席
御茶ノ水,139.764955,35.699605,JR東日本,東京,139.766103,35.681391,JR東日本,ＪＲ,快速,2.6,自由席
三越前,139.773594,35.687101,東京メトロ,神保町,139.757606,35.695966,東京メトロ,地下鉄,普通,2.4,自由席
京橋,139.770126,35.676856,東京メトロ,三越前,139.773594,35.687101,東京メトロ,地下鉄,普通,1.3,自由席
桶川,139.564274,35.998375,JR東日本,東京,139.766103,35.681391,JR東日本,ＪＲ,普通,42.1,グリーン車
大宮,139.62405,35.906439,JR東日本,桶川,139.564274,35.998375,JR東日本,ＪＲ,快速,11.8,指定席
新宿,139.700464,35.689729,JR東日本,大宮,139.62405,35.906439,JR東日本,ＪＲ,普通,27.4,グリーン車
立川,139.413704,35.698202,JR東日本,新宿,139.700464,35.689729,JR東日本,ＪＲ,特急,27.2,グリーン車
新宿,139.700464,35.689729,JR東日本,立川,139.413704,35.698202,JR東日本,ＪＲ,特急,27.2,指定席
東京,139.766103,35.681391,JR東日本,新宿,139.700464,35.689729,JR東日本,ＪＲ,特急,10.3,グリーン車
横浜,139.622704,35.466195,JR東日本,東京,139.766103,35.681391,JR東日本,ＪＲ,特急,28.8,グリーン車
東京,139.766103,35.681391,JR東日本,横浜,139.622704,35.466195,JR東日本,ＪＲ,特急,28.8,グリーン車
上野,139.777043,35.71379,JR東日本,東京,139.766103,35.681391,JR東日本,ＪＲ,普通,3.6,グリーン車
東京,139.766103,35.681391,JR東日本,上野,139.777043,35.71379,JR東日本,ＪＲ,普通,3.6,自由席
成田空港（第１旅客ターミナル）,140.384644,35.763983,JR東日本,東京,139.766103,35.681391,JR東日本,ＪＲ,特急,79.2,グリーン車
日暮里,139.771287,35.727908,京成,成田空港（第１旅客ターミナル）,140.384644,35.763983,京成,私鉄,特急,62,指定席
東京,139.766103,35.681391,JR東日本,日暮里,139.771287,35.727908,JR東日本,ＪＲ,普通,5.8,自由席
新木場,139.827402,35.646172,JR東日本,東京,139.766103,35.681391,JR東日本,ＪＲ,普通,7.4,自由席
国際展示場,139.791617,35.63441,東京臨海高速鉄道,新木場,139.827402,35.646172,東京臨海高速鉄道,私鉄,普通,3.5,自由席
池袋,139.711086,35.730256,JR東日本,国際展示場,139.791617,35.63441,東京臨海高速鉄道,ＪＲ,快速,22.1,自由席
大山,139.702589,35.748398,東武,池袋,139.710678,35.730924,東武,私鉄,普通,3,自由席
豊洲,139.79621,35.654908,東京メトロ,要町,139.698715,35.73323,東京メトロ,地下鉄,普通,14.8,自由席
有明,139.793269,35.634596,ゆりかもめ,新豊洲,139.789996,35.648718,ゆりかもめ,新交通,普通,2,自由席
新豊洲,139.789996,35.648718,ゆりかもめ,有明,139.793269,35.634596,ゆりかもめ,新交通,普通,2,自由席
有明,139.793269,35.634596,ゆりかもめ,新豊洲,139.789996,35.648718,ゆりかもめ,新交通,普通,2,自由席
大崎,139.728439,35.619772,東京臨海高速鉄道,国際展示場,139.791617,35.63441,東京臨海高速鉄道,私鉄,普通,8.7,自由席
東京,139.766103,35.681391,JR東日本,大崎,139.728439,35.619772,JR東日本,ＪＲ,普通,8.8,自由席
川崎,139.697485,35.531311,JR東日本,東京,139.766103,35.681391,JR東日本,ＪＲ,普通,18.2,自由席
東京,139.766103,35.681391,JR東日本,川崎,139.697485,35.531311,JR東日本,ＪＲ,快速,18.2,自由席
大手町,139.7662,35.686564,東京メトロ,東京,139.764708,35.681753,東京メトロ,地下鉄,普通,0.6,自由席
神保町,139.757606,35.695966,東京メトロ,大手町,139.7662,35.686564,東京メトロ,地下鉄,普通,1.7,自由席
岩本町,139.775866,35.695534,東京都交通局,神保町,139.75812,35.695492,東京都交通局,地下鉄,各駅停車,1.7,自由席
東京,139.766103,35.681391,JR東日本,秋葉原,139.773288,35.698619,JR東日本,ＪＲ,普通,2,自由席
新潟,139.060869,37.912299,JR東日本,東京,139.766103,35.681391,JR東日本,ＪＲ,新幹線,333.9,指定席
咲花,139.29095,37.735003,JR東日本,新潟,139.060869,37.912299,JR東日本,ＪＲ,SL快速,35.2,指定席
新津,139.121445,37.800383,JR東日本,咲花,139.29095,37.735003,JR東日本,ＪＲ,普通,20,自由席
新潟,139.060869,37.912299,JR東日本,新津,139.121445,37.800383,JR東日本,ＪＲ,普通,15.2,自由席
越後湯沢,138.809227,36.935799,JR東日本,新潟,139.060869,37.912299,JR東日本,ＪＲ,新幹線,134.7,指定席
新潟,139.060869,37.912299,JR東日本,越後湯沢,138.809227,36.935799,JR東日本,ＪＲ,新幹線,134.7,指定席
上越妙高,138.249476,37.081813,トキてつ,新潟,139.060869,37.912299,JR東日本,ＪＲ,特急,146.7,指定席
長野,138.189101,36.643307,JR東日本,上越妙高,138.249476,37.081813,トキてつ,ＪＲ,新幹線,59.5,指定席
善光寺下,138.193513,36.658673,長電,長野,138.188396,36.644341,長電,私鉄,普通,1.6,自由席
大宮,139.62405,35.906439,JR東日本,長野,138.189101,36.643307,JR東日本,ＪＲ,新幹線,192.1,指定席
長野,138.189101,36.643307,JR東日本,大宮,139.62405,35.906439,JR東日本,ＪＲ,新幹線,192.1,指定席
松本,137.96445,36.230393,JR東日本,長野,138.189101,36.643307,JR東日本,ＪＲ,L特急,62.7,指定席
上諏訪,138.116306,36.046618,JR東日本,松本,137.96445,36.230393,JR東日本,ＪＲ,特急,33.5,指定席
松本,137.96445,36.230393,JR東日本,上諏訪,138.116306,36.046618,JR東日本,ＪＲ,普通,33.5,自由席
塩尻,137.947961,36.114364,JR東日本,松本,137.96445,36.230393,JR東日本,ＪＲ,普通,13.3,自由席
奈良井,137.816195,35.969476,JR東海,塩尻,137.947961,36.114364,JR東日本,ＪＲ,普通,21.1,自由席
塩尻,137.947961,36.114364,JR東日本,奈良井,137.816195,35.969476,JR東海,ＪＲ,普通,21.1,自由席
松本,137.96445,36.230393,JR東日本,塩尻,137.947961,36.114364,JR東日本,ＪＲ,普通,13.3,自由席
信濃大町,137.861674,36.50031,JR東日本,松本,137.96445,36.230393,JR東日本,ＪＲ,普通,35.1,自由席
電鉄富山,137.214163,36.700757,富山地鉄,立山,137.445234,36.583253,富山地鉄,私鉄,普通,34,自由席
丸の内,137.208896,36.692563,富山地鉄,富山駅,137.2128801,36.70161021,富山地鉄,路面電車,普通,1.1,自由席
高山,137.251301,36.140574,JR東海,富山,137.213091,36.701384,JR東海,ＪＲ,L特急,89.4,指定席
飛騨古川,137.189681,36.236727,JR東海,高山,137.251301,36.140574,JR東海,ＪＲ,普通,14.9,自由席
高山,137.251301,36.140574,JR東海,飛騨古川,137.189681,36.236727,JR東海,ＪＲ,L特急,14.9,自由席
名古屋,136.881637,35.170694,JR東海,高山,137.251301,36.140574,JR東海,ＪＲ,L特急,166.7,指定席
神宮前,136.912485,35.125857,名鉄,名鉄名古屋,136.884187,35.169252,名鉄,私鉄,普通,5.8,自由席
金山,136.900517,35.142928,JR東海,熱田,136.910502,35.130028,JR東海,ＪＲ,普通,1.9,自由席
名古屋,136.881637,35.170694,JR東海,金山,136.900517,35.142928,JR東海,ＪＲ,普通,3.3,自由席
塩尻,137.947961,36.114364,JR東日本,名古屋,136.881637,35.170694,JR東海,ＪＲ,L特急,174.8,指定席
松本,137.96445,36.230393,JR東日本,塩尻,137.947961,36.114364,JR東日本,ＪＲ,特急,13.3,指定席
新宿,139.700464,35.689729,JR東日本,松本,137.96445,36.230393,JR東日本,ＪＲ,特急,225.1,指定席
品川,139.738999,35.62876,JR東日本,新宿,139.700464,35.689729,JR東日本,ＪＲ,普通,10.6,自由席
浜松町,139.757135,35.655391,JR東日本,品川,139.738999,35.62876,JR東日本,ＪＲ,快速,3.7,自由席
新整備場,139.786777,35.542773,東京モノレール,浜松町,139.756747,35.655666,東京モノレール,モノレール,普通,16.2,自由席
浜松町,139.756747,35.655666,東京モノレール,新整備場,139.786777,35.542773,東京モノレール,モノレール,普通,16.2,自由席
川崎,139.697485,35.531311,JR東日本,浜松町,139.757135,35.655391,JR東日本,ＪＲ,普通,15.1,自由席
品川,139.738999,35.62876,JR東日本,川崎,139.697485,35.531311,JR東日本,ＪＲ,普通,11.4,自由席
御徒町,139.774727,35.707282,JR東日本,品川,139.738999,35.62876,JR東日本,ＪＲ,普通,9.8,自由席
品川,139.738999,35.62876,JR東日本,御徒町,139.774727,35.707282,JR東日本,ＪＲ,普通,9.8,自由席
目白,139.706228,35.720476,JR東日本,品川,139.738999,35.62876,JR東日本,ＪＲ,普通,14.2,自由席
新宿,139.698812,35.68869,東京都交通局,落合南長崎,139.683303,35.723608,東京都交通局,地下鉄,普通,5.9,自由席
池袋,139.711086,35.730256,JR東日本,新宿,139.700464,35.689729,JR東日本,ＪＲ,普通,4.8,自由席
日暮里,139.771287,35.727908,JR東日本,池袋,139.711086,35.730256,JR東日本,ＪＲ,普通,6.5,自由席
池袋,139.711086,35.730256,JR東日本,日暮里,139.771287,35.727908,JR東日本,ＪＲ,普通,6.5,自由席
大手町,139.7662,35.686564,東京メトロ,池袋,139.711086,35.730256,東京メトロ,地下鉄,普通,8.1,自由席
神保町,139.757606,35.695966,東京メトロ,大手町,139.7662,35.686564,東京メトロ,地下鉄,普通,1.7,自由席
岩本町,139.775866,35.695534,東京都交通局,神保町,139.75812,35.695492,東京都交通局,地下鉄,各駅停車,1.7,自由席
御徒町,139.774727,35.707282,JR東日本,秋葉原,139.773288,35.698619,JR東日本,ＪＲ,普通,1,自由席
池袋,139.711086,35.730256,JR東日本,御徒町,139.774727,35.707282,JR東日本,ＪＲ,普通,9.3,自由席
天王洲アイル,139.750793,35.620562,東京臨海高速鉄道,池袋,139.711086,35.730256,JR東日本,ＪＲ,普通,17.8,自由席
新整備場,139.786777,35.542773,東京モノレール,天王洲アイル,139.750675,35.622908,東京モノレール,モノレール,普通,12.2,自由席
羽田空港国際線ビル,139.768206,35.544169,東京モノレール,新整備場,139.786777,35.542773,東京モノレール,モノレール,普通,2.2,自由席
浜松町,139.756747,35.655666,東京モノレール,羽田空港国際線ビル,139.768206,35.544169,東京モノレール,モノレール,空港快速,14,自由席
東京,139.766103,35.681391,JR東日本,浜松町,139.757135,35.655391,JR東日本,ＪＲ,快速,3.1,自由席
秋葉原,139.773288,35.698619,JR東日本,東京,139.766103,35.681391,JR東日本,ＪＲ,快速,2,自由席
池袋,139.711086,35.730256,JR東日本,秋葉原,139.773288,35.698619,JR東日本,ＪＲ,普通,10.3,自由席
西所沢,139.455959,35.789303,西武,池袋,139.711461,35.72913,西武,私鉄,急行,27.2,自由席
西武球場前,139.41966,35.77093,西武,西所沢,139.455959,35.789303,西武,私鉄,臨時各駅停車,4.2,自由席
所沢,139.473324,35.786627,西武,西武球場前,139.41966,35.77093,西武,私鉄,臨時快速,6.6,自由席
池袋,139.711461,35.72913,西武,所沢,139.473324,35.786627,西武,私鉄,急行,24.8,自由席
田端,139.761229,35.737781,JR東日本,池袋,139.711086,35.730256,JR東日本,ＪＲ,普通,5.2,自由席
上野,139.777043,35.71379,JR東日本,田端,139.761229,35.737781,JR東日本,ＪＲ,快速,3.5,自由席
大宮,139.62405,35.906439,JR東日本,上野,139.777043,35.71379,JR東日本,ＪＲ,新幹線,26.7,自由席
鉄道博物館,139.617796,35.920271,埼玉新都市交通,大宮,139.62254,35.90751,埼玉新都市交通,新交通,普通,1.5,自由席
大宮,139.62254,35.90751,埼玉新都市交通,鉄道博物館,139.617796,35.920271,埼玉新都市交通,新交通,普通,1.5,自由席
上野,139.777043,35.71379,JR東日本,大宮,139.62405,35.906439,JR東日本,ＪＲ,新幹線,26.7,自由席
田端,139.761229,35.737781,JR東日本,上野,139.777043,35.71379,JR東日本,ＪＲ,快速,3.5,自由席
池袋,139.711086,35.730256,JR東日本,田端,139.761229,35.737781,JR東日本,ＪＲ,普通,5.2,自由席
新宿三丁目,139.704895,35.690847,東京メトロ,池袋,139.711086,35.730256,東京メトロ,地下鉄,急行,5.3,自由席
池袋,139.711086,35.730256,JR東日本,新宿,139.700464,35.689729,JR東日本,ＪＲ,普通,4.8,自由席
成田空港（第１旅客ターミナル）,140.384644,35.763983,JR東日本,池袋,139.711086,35.730256,JR東日本,ＪＲ,特急,101.4,指定席
京急蒲田,139.723681,35.560796,京急,羽田空港国際線ターミナル,139.768968,35.544676,京急,私鉄,エアポート急行,4.5,自由席
横浜,139.623055,35.466066,京急,京急蒲田,139.723681,35.560796,京急,私鉄,普通,14.2,自由席
二俣川,139.532207,35.463335,相鉄,横浜,139.621768,35.465852,相鉄,私鉄,急行,10.5,自由席
湘南台,139.467031,35.396642,相鉄,二俣川,139.532207,35.463335,相鉄,私鉄,各駅停車,11.3,自由席
横浜,139.621768,35.465852,相鉄,湘南台,139.467031,35.396642,相鉄,私鉄,快速,21.8,自由席
川崎,139.697485,35.531311,JR東日本,横浜,139.622704,35.466195,JR東日本,ＪＲ,普通,10.6,自由席
東京,139.766103,35.681391,JR東日本,川崎,139.697485,35.531311,JR東日本,ＪＲ,普通,18.2,自由席
栄,136.908031,35.16999,名古屋市交通局,名古屋,136.883925,35.171252,名古屋市交通局,地下鉄,普通,2.4,自由席
名古屋,136.883925,35.171252,名古屋市交通局,栄,136.908031,35.16999,名古屋市交通局,地下鉄,普通,2.4,自由席
河原田,136.598527,34.910684,JR東海,名古屋,136.881637,35.170694,JR東海,ＪＲ,快速,44.1,自由席
鈴鹿サーキット稲生,136.555154,34.841053,伊勢鉄道,河原田,136.599031,34.910952,伊勢鉄道,私鉄,普通,9.1,自由席
名古屋,136.881637,35.170694,JR東海,鈴鹿サーキット稲生,136.555154,34.841053,伊勢鉄道,ＪＲ,特急,53.2,指定席
荒子川公園,136.861148,35.104569,名臨高,名古屋,136.882417,35.168733,名臨高,私鉄,普通,8.2,自由席
名古屋,136.882417,35.168733,名臨高,荒子川公園,136.861148,35.104569,名臨高,私鉄,普通,8.2,自由席
品川,139.738999,35.62876,JR東日本,名古屋,136.881637,35.170694,JR東海,ＪＲ,新幹線,359.2,指定席
上野,139.777043,35.71379,JR東日本,品川,139.738999,35.62876,JR東日本,ＪＲ,普通,10.4,自由席
浅草,139.797592,35.710733,東京メトロ,上野,139.777122,35.711482,東京メトロ,地下鉄,普通,2.2,自由席
末広町,139.771713,35.702972,東京メトロ,浅草,139.797592,35.710733,東京メトロ,地下鉄,普通,3.3,自由席
新橋,139.758587,35.666195,JR東日本,秋葉原,139.773288,35.698619,JR東日本,ＪＲ,普通,3.9,自由席
川崎,139.697485,35.531311,JR東日本,新橋,139.758587,35.666195,JR東日本,ＪＲ,普通,16.3,自由席
蒲田,139.716032,35.562517,JR東日本,川崎,139.697485,35.531311,JR東日本,ＪＲ,快速,3.8,自由席
秋葉原,139.773288,35.698619,JR東日本,蒲田,139.716032,35.562517,JR東日本,ＪＲ,快速,16.4,自由席
代々木,139.702042,35.683061,JR東日本,秋葉原,139.773288,35.698619,JR東日本,ＪＲ,普通,7.9,自由席
渋谷,139.701238,35.658871,JR東日本,代々木,139.702042,35.683061,JR東日本,ＪＲ,普通,2.7,自由席
代々木,139.702042,35.683061,JR東日本,渋谷,139.701238,35.658871,JR東日本,ＪＲ,普通,2.7,自由席
新宿,139.700464,35.689729,JR東日本,代々木,139.702042,35.683061,JR東日本,ＪＲ,普通,0.7,自由席
代々木,139.702042,35.683061,JR東日本,新宿,139.700464,35.689729,JR東日本,ＪＲ,普通,0.7,自由席
渋谷,139.701238,35.658871,JR東日本,代々木,139.702042,35.683061,JR東日本,ＪＲ,普通,2.7,自由席
品川,139.738999,35.62876,JR東日本,渋谷,139.701238,35.658871,JR東日本,ＪＲ,普通,7.2,自由席
蒲田,139.716032,35.562517,JR東日本,品川,139.738999,35.62876,JR東日本,ＪＲ,普通,7.6,自由席
川崎,139.697485,35.531311,JR東日本,蒲田,139.716032,35.562517,JR東日本,ＪＲ,普通,3.8,自由席
品川,139.738999,35.62876,JR東日本,川崎,139.697485,35.531311,JR東日本,ＪＲ,普通,3.8,自由席
羽田空港国際線ターミナル,139.768968,35.544676,京急,品川,139.73809,35.628284,京急,私鉄,エアポート急行,12.5,自由席
旭橋,127.675515,26.21191,沖縄都市モノレール,那覇空港,127.652214,26.206515,沖縄都市モノレール,モノレール,普通,5.4,自由席
首里,127.725492,26.219191,沖縄都市モノレール,旭橋,127.675515,26.21191,沖縄都市モノレール,モノレール,普通,7.5,自由席
牧志,127.69255,26.217248,沖縄都市モノレール,儀保,127.719039,26.224663,沖縄都市モノレール,モノレール,普通,4.2,自由席
旭橋,127.675515,26.21191,沖縄都市モノレール,美栄橋,127.684328,26.219245,沖縄都市モノレール,モノレール,普通,1.3,自由席
那覇空港,127.652214,26.206515,沖縄都市モノレール,旭橋,127.675515,26.21191,沖縄都市モノレール,モノレール,普通,5.4,自由席
新大阪,135.501852,34.734136,JR西日本,関西空港,135.243419,34.436,JR西日本,ＪＲ,特急,60.8,自由席
なんば,135.500277,34.666316,大阪メトロ,新大阪,135.498558,34.732919,大阪メトロ,地下鉄,普通,7.6,自由席
新大阪,135.498558,34.732919,大阪メトロ,なんば,135.500277,34.666316,大阪メトロ,地下鉄,普通,7.6,自由席
京都,135.757748,34.985465,JR西日本,新大阪,135.501852,34.734136,JR西日本,ＪＲ,新快速,39,自由席
新大阪,135.501852,34.734136,JR西日本,京都,135.757748,34.985465,JR西日本,ＪＲ,新快速,39,自由席
品川,139.73809,35.628284,京急,羽田空港国内線ターミナル,139.785962,35.549809,京急,私鉄,エアポート急行,14.5,自由席
東京,139.766103,35.681391,JR東日本,品川,139.738999,35.62876,JR東日本,ＪＲ,普通,6.8,自由席
秋葉原,139.773288,35.698619,JR東日本,東京,139.766103,35.681391,JR東日本,ＪＲ,普通,2,自由席
池袋,139.711086,35.730256,JR東日本,秋葉原,139.773288,35.698619,JR東日本,ＪＲ,普通,10.3,自由席
東京,139.764708,35.681753,東京メトロ,池袋,139.711086,35.730256,東京メトロ,地下鉄,普通,8.7,自由席
出雲市,132.756518,35.360694,JR西日本,東京,139.766103,35.681391,JR東日本,ＪＲ,寝台特急,953.6,A寝台
松江,133.063871,35.463947,JR西日本,出雲市,132.756518,35.360694,JR西日本,ＪＲ,普通,32.7,自由席
川跡,132.776411,35.395127,ばたでん,松江しんじ湖温泉,133.046039,35.46731,ばたでん,私鉄,普通,29,自由席
雲州平田,132.823685,35.432312,ばたでん,川跡,132.776411,35.395127,ばたでん,私鉄,普通,6,自由席
川跡,132.776411,35.395127,ばたでん,雲州平田,132.823685,35.432312,ばたでん,私鉄,普通,6,自由席
出雲大社前,132.687531,35.393245,ばたでん,川跡,132.776411,35.395127,ばたでん,私鉄,普通,8.3,自由席
川跡,132.776411,35.395127,ばたでん,出雲大社前,132.687531,35.393245,ばたでん,私鉄,普通,8.3,自由席
電鉄出雲市,132.75777,35.36113,ばたでん,川跡,132.776411,35.395127,ばたでん,私鉄,普通,4.9,自由席
米子,133.33657,35.42327,JR西日本,出雲市,132.756518,35.360694,JR西日本,ＪＲ,特急,61.6,自由席
境港,133.222762,35.545002,JR西日本,米子,133.33657,35.42327,JR西日本,ＪＲ,普通,17.9,自由席
米子空港,133.247372,35.502321,JR西日本,境港,133.222762,35.545002,JR西日本,ＪＲ,普通,5.2,自由席
京急川崎,139.700893,35.53285,京急,羽田空港国内線ターミナル,139.785962,35.549809,京急,私鉄,エアポート急行,10.3,自由席
武蔵小杉,139.65963,35.57669,JR東日本,川崎,139.697485,35.531311,JR東日本,ＪＲ,普通,7.5,自由席
新宿,139.700464,35.689729,JR東日本,武蔵小杉,139.65963,35.57669,JR東日本,ＪＲ,特別快速,20.6,自由席
御茶ノ水,139.764955,35.699605,JR東日本,新宿,139.700464,35.689729,JR東日本,ＪＲ,快速,7.7,自由席
東京,139.766103,35.681391,JR東日本,秋葉原,139.773288,35.698619,JR東日本,ＪＲ,普通,2,自由席
川崎,139.697485,35.531311,JR東日本,東京,139.766103,35.681391,JR東日本,ＪＲ,普通,18.2,自由席
品川,139.738999,35.62876,JR東日本,川崎,139.697485,35.531311,JR東日本,ＪＲ,普通,11.4,自由席
成田空港（第１旅客ターミナル）,140.384644,35.763983,JR東日本,品川,139.738999,35.62876,JR東日本,ＪＲ,普通快速,86,自由席
浜松町,139.756747,35.655666,東京モノレール,羽田空港国際線ビル,139.768206,35.544169,東京モノレール,モノレール,普通,14,自由席
品川,139.738999,35.62876,JR東日本,浜松町,139.757135,35.655391,JR東日本,ＪＲ,普通,3.7,自由席
川崎,139.697485,35.531311,JR東日本,品川,139.738999,35.62876,JR東日本,ＪＲ,普通,11.4,グリーン車
東京,139.766103,35.681391,JR東日本,川崎,139.697485,35.531311,JR東日本,ＪＲ,普通,18.2,自由席
秋葉原,139.773288,35.698619,JR東日本,東京,139.766103,35.681391,JR東日本,ＪＲ,普通,2,自由席
御茶ノ水,139.764955,35.699605,JR東日本,秋葉原,139.773288,35.698619,JR東日本,ＪＲ,普通,0.9,自由席
新宿,139.700464,35.689729,JR東日本,御茶ノ水,139.764955,35.699605,JR東日本,ＪＲ,快速,7.7,自由席
池袋,139.711086,35.730256,JR東日本,新宿,139.700464,35.689729,JR東日本,ＪＲ,普通,4.8,自由席
上野,139.777043,35.71379,JR東日本,池袋,139.711086,35.730256,JR東日本,ＪＲ,普通,8.7,自由席
末広町,139.771713,35.702972,東京メトロ,上野,139.777122,35.711482,東京メトロ,地下鉄,普通,1.1,自由席
東京,139.766103,35.681391,JR東日本,秋葉原,139.773288,35.698619,JR東日本,ＪＲ,普通,2,自由席
川崎,139.697485,35.531311,JR東日本,東京,139.766103,35.681391,JR東日本,ＪＲ,普通,18.2,グリーン車
東京,139.766103,35.681391,JR東日本,川崎,139.697485,35.531311,JR東日本,ＪＲ,普通,18.2,グリーン車
新函館北斗,140.646525,41.9054,JR北海道,東京,139.766103,35.681391,JR東日本,ＪＲ,新幹線,862.5,グリーン車
東室蘭,141.026411,42.349374,JR北海道,新函館北斗,140.646525,41.9054,JR北海道,ＪＲ,特急,171.6,グリーン車
母恋,140.990018,42.317295,JR北海道,東室蘭,141.026411,42.349374,JR北海道,ＪＲ,普通,5.9,自由席
東室蘭,141.026411,42.349374,JR北海道,室蘭,140.97571,42.317864,JR北海道,ＪＲ,普通,7,自由席
札幌,141.350768,43.068612,JR北海道,東室蘭,141.026411,42.349374,JR北海道,ＪＲ,特急,129.2,グリーン車
石狩当別,141.513764,43.22208,JR北海道,札幌,141.350768,43.068612,JR北海道,ＪＲ,普通,27.5,自由席
新十津川,141.874172,43.545575,JR北海道,石狩当別,141.513764,43.22208,JR北海道,ＪＲ,普通,50.6,自由席
旭川,142.357803,43.763492,JR北海道,滝川,141.900807,43.555278,JR北海道,ＪＲ,特急,53.3,グリーン車
稚内,141.676999,45.416995,JR北海道,旭川,142.357803,43.763492,JR北海道,ＪＲ,特急,259.4,グリーン車
旭川,142.357803,43.763492,JR北海道,稚内,141.676999,45.416995,JR北海道,ＪＲ,特急,259.4,グリーン車
滝川,141.900807,43.555278,JR北海道,旭川,142.357803,43.763492,JR北海道,ＪＲ,特急,53.3,グリーン車
東鹿越,142.523472,43.164011,JR北海道,滝川,141.900807,43.555278,JR北海道,ＪＲ,普通,94.8,自由席
新得,142.832432,43.082501,JR北海道,東鹿越,142.523472,43.164011,JR北海道,ＪＲ,代行バス,41.5,自由席
釧路,144.381983,42.990584,JR北海道,新得,142.832432,43.082501,JR北海道,ＪＲ,特急,172.1,グリーン車
根室,145.582707,43.326923,JR北海道,釧路,144.381983,42.990584,JR北海道,ＪＲ,普通,135.4,自由席
釧路,144.381983,42.990584,JR北海道,根室,145.582707,43.326923,JR北海道,ＪＲ,普通,135.4,自由席
網走,144.254156,44.019873,JR北海道,釧路,144.381983,42.990584,JR北海道,ＪＲ,快速,169.1,自由席
女満別,144.170665,43.915886,JR北海道,網走,144.254156,44.019873,JR北海道,ＪＲ,普通,15.9,自由席
札幌,141.350768,43.068612,JR北海道,女満別,144.170665,43.915886,JR北海道,ＪＲ,特急,358.6,グリーン車
新千歳空港,141.680823,42.787546,JR北海道,札幌,141.350768,43.068612,JR北海道,ＪＲ,快速,46.6,指定席
京急蒲田,139.723681,35.560796,京急,羽田空港国内線ターミナル,139.785962,35.549809,京急,私鉄,エアポート急行,6.5,自由席
品川,139.73809,35.628284,京急,京急蒲田,139.723681,35.560796,京急,私鉄,快特,8,自由席
恵比寿,139.71007,35.646685,JR東日本,品川,139.738999,35.62876,JR東日本,ＪＲ,普通,5.6,自由席
中目黒,139.698621,35.643854,東京メトロ,恵比寿,139.708988,35.647332,東京メトロ,地下鉄,普通,1,自由席
武蔵小杉,139.659652,35.575752,東急,中目黒,139.698621,35.643854,東急,私鉄,急行,8.6,自由席
川崎,139.697485,35.531311,JR東日本,武蔵小杉,139.65963,35.57669,JR東日本,ＪＲ,普通,7.5,自由席
品川,139.738999,35.62876,JR東日本,川崎,139.697485,35.531311,JR東日本,ＪＲ,快速,11.4,グリーン車
成田空港（第１旅客ターミナル）,140.384644,35.763983,JR東日本,品川,139.738999,35.62876,JR東日本,ＪＲ,特急,86,グリーン車
京急蒲田,139.723681,35.560796,京急,羽田空港国際線ターミナル,139.768968,35.544676,京急,私鉄,エアポート急行,4.5,自由席
品川,139.73809,35.628284,京急,京急蒲田,139.723681,35.560796,京急,私鉄,快特,8,自由席
京急蒲田,139.723681,35.560796,京急,品川,139.73809,35.628284,京急,私鉄,快特,8,自由席
羽田空港国内線ターミナル,139.785962,35.549809,京急,京急蒲田,139.723681,35.560796,京急,私鉄,エアポート急行,6.5,自由席
博多,130.42085,33.590204,福岡市交通局,福岡空港,130.448501,33.59718,福岡市交通局,地下鉄,普通,3.3,自由席
久留米,130.501408,33.319778,JR九州,博多,130.420622,33.590002,JR西日本,ＪＲ,新幹線,35.7,指定席
博多,130.420622,33.590002,JR西日本,久留米,130.501408,33.319778,JR九州,ＪＲ,新幹線,35.7,指定席
大分,131.606595,33.232794,JR九州,博多,130.420622,33.590002,JR西日本,ＪＲ,特急,200.1,指定席
博多,130.420622,33.590002,JR九州,大分,131.606595,33.232794,JR九州,ＪＲ,特急,200.1,指定席
香椎,130.444063,33.659228,JR九州,博多,130.420622,33.590002,JR九州,ＪＲ,区間快速,8.4,自由席
博多,130.420622,33.590002,JR九州,香椎,130.444063,33.659228,JR九州,ＪＲ,特急,8.4,指定席
博多南,130.436997,33.517955,JR西日本,博多,130.420622,33.590002,JR西日本,ＪＲ,特急,8.5,自由席
博多,130.420622,33.590002,JR西日本,博多南,130.436997,33.517955,JR西日本,ＪＲ,特急,8.5,自由席
熊本,130.688499,32.789207,JR九州,博多,130.420622,33.590002,JR西日本,ＪＲ,新幹線,118.4,指定席
鹿児島中央,130.541789,31.583727,JR九州,熊本,130.688499,32.789207,JR九州,ＪＲ,新幹線,170.5,指定席
宮崎,131.431975,31.915742,JR九州,鹿児島中央,130.541789,31.583727,JR九州,ＪＲ,特急,125.9,指定席
鹿児島中央,130.541789,31.583727,JR九州,宮崎,131.431975,31.915742,JR九州,ＪＲ,特急,125.9,指定席
川内,130.31213,31.813726,JR九州,鹿児島中央,130.541789,31.583727,JR九州,ＪＲ,普通,46.1,自由席
出水,130.357803,32.089275,肥薩おれんじ鉄道,川内,130.31213,31.813726,肥薩おれんじ鉄道,私鉄,快速,51.3,指定席
新八代,130.634919,32.517888,JR九州,出水,130.357803,32.089275,肥薩おれんじ鉄道,私鉄,快速,68.4,指定席
熊本,130.688499,32.789207,JR九州,新八代,130.634919,32.517888,JR九州,ＪＲ,新幹線,32.9,自由席
鹿児島中央,130.541789,31.583727,JR九州,熊本,130.688499,32.789207,JR九州,ＪＲ,新幹線,170.5,指定席
吉松,130.738104,32.012026,JR九州,鹿児島中央,130.541789,31.583727,JR九州,ＪＲ,特急,68.5,指定席
人吉,130.753797,32.216142,JR九州,吉松,130.738104,32.012026,JR九州,ＪＲ,普通,35,指定席
熊本,130.688499,32.789207,JR九州,人吉,130.753797,32.216142,JR九州,ＪＲ,SL快速,87.5,指定席
鹿児島中央,130.541789,31.583727,JR九州,熊本,130.688499,32.789207,JR九州,ＪＲ,新幹線,170.5,指定席
京急蒲田,139.723681,35.560796,京急,羽田空港国内線ターミナル,139.785962,35.549809,京急,私鉄,エアポート急行,6.5,自由席
品川,139.73809,35.628284,京急,京急蒲田,139.723681,35.560796,京急,私鉄,快特,8,自由席
秋葉原,139.773288,35.698619,JR東日本,品川,139.738999,35.62876,JR東日本,ＪＲ,快速,8.8,自由席
品川,139.738999,35.62876,JR東日本,秋葉原,139.773288,35.698619,JR東日本,ＪＲ,普通,8.8,自由席
川崎,139.697485,35.531311,JR東日本,品川,139.738999,35.62876,JR東日本,ＪＲ,普通,11.4,自由席
品川,139.738999,35.62876,JR東日本,川崎,139.697485,35.531311,JR東日本,ＪＲ,普通,11.4,自由席
京成高砂,139.866875,35.750932,京成,品川,139.73809,35.628284,京急,私鉄,快特エアポート快特快特,19.5,自由席
成田空港（第１旅客ターミナル）,140.384644,35.763983,京成,京成高砂,139.866875,35.750932,京成,私鉄,特急,56.6,自由席
浜松町,139.756747,35.655666,東京モノレール,羽田空港国際線ビル,139.768206,35.544169,東京モノレール,モノレール,区間快速,14,自由席
秋葉原,139.773288,35.698619,JR東日本,浜松町,139.757135,35.655391,JR東日本,ＪＲ,普通,5.1,自由席
上野,139.777043,35.71379,JR東日本,秋葉原,139.773288,35.698619,JR東日本,ＪＲ,普通,1.6,自由席
大宮,139.62405,35.906439,JR東日本,上野,139.777043,35.71379,JR東日本,ＪＲ,特急,26.7,自由席
鉄道博物館,139.617796,35.920271,埼玉新都市交通,大宮,139.62254,35.90751,埼玉新都市交通,新交通,普通,1.5,自由席
大宮,139.62254,35.90751,埼玉新都市交通,鉄道博物館,139.617796,35.920271,埼玉新都市交通,新交通,普通,1.5,自由席
武蔵浦和,139.647974,35.846047,JR東日本,大宮,139.62405,35.906439,JR東日本,ＪＲ,普通,7.4,自由席
赤羽,139.720928,35.778026,JR東日本,武蔵浦和,139.647974,35.846047,JR東日本,ＪＲ,快速,10.6,自由席
秋葉原,139.773288,35.698619,JR東日本,赤羽,139.720928,35.778026,JR東日本,ＪＲ,快速,11.2,自由席
水道橋,139.754312,35.702039,JR東日本,秋葉原,139.773288,35.698619,JR東日本,ＪＲ,普通,1.7,自由席
御茶ノ水,139.764955,35.699605,JR東日本,水道橋,139.754312,35.702039,JR東日本,ＪＲ,普通,0.8,自由席
東京,139.766103,35.681391,JR東日本,御茶ノ水,139.764955,35.699605,JR東日本,ＪＲ,快速,2.6,自由席
錦糸町,139.814136,35.696802,JR東日本,東京,139.766103,35.681391,JR東日本,ＪＲ,快速,4.8,自由席
秋葉原,139.773288,35.698619,JR東日本,錦糸町,139.814136,35.696802,JR東日本,ＪＲ,普通,3.4,自由席
代々木,139.702042,35.683061,JR東日本,秋葉原,139.773288,35.698619,JR東日本,ＪＲ,普通,7.9,自由席
渋谷,139.701238,35.658871,JR東日本,代々木,139.702042,35.683061,JR東日本,ＪＲ,普通,2.7,自由席
元町・中華街,139.650446,35.44243,横浜高速鉄道,渋谷,139.702417,35.659545,東急,私鉄,特急,28.3,自由席
みなとみらい,139.632386,35.458028,横浜高速鉄道,元町・中華街,139.650446,35.44243,横浜高速鉄道,私鉄,特急,2.4,自由席
渋谷,139.702417,35.659545,東急,みなとみらい,139.632386,35.458028,横浜高速鉄道,私鉄,急行,25.9,自由席
新橋,139.758432,35.667434,東京メトロ,渋谷,139.701,35.659066,東京メトロ,地下鉄,普通,6.3,自由席
台場,139.771435,35.625908,ゆりかもめ,新橋,139.759644,35.665503,ゆりかもめ,新交通,普通,7.8,自由席
新橋,139.759644,35.665503,ゆりかもめ,台場,139.771435,35.625908,ゆりかもめ,新交通,普通,7.8,自由席
池袋,139.711086,35.730256,JR東日本,新橋,139.758587,35.666195,JR東日本,ＪＲ,普通,14.2,自由席
新木場,139.827402,35.646172,東京臨海高速鉄道,池袋,139.711086,35.730256,JR東日本,ＪＲ,快速普通,25.6,自由席
豊洲,139.79621,35.654908,東京メトロ,新木場,139.826254,35.645832,東京メトロ,地下鉄,普通,3.2,自由席
台場,139.771435,35.625908,ゆりかもめ,豊洲,139.795414,35.653792,ゆりかもめ,新交通,普通,6.9,自由席
新橋,139.759644,35.665503,ゆりかもめ,台場,139.771435,35.625908,ゆりかもめ,新交通,普通,7.8,自由席
我孫子,140.010466,35.87279,JR東日本,新橋,139.758587,35.666195,JR東日本,ＪＲ,快速,39,自由席
成田,140.313853,35.777796,JR東日本,我孫子,140.010466,35.87279,JR東日本,ＪＲ,普通,32.9,自由席
東成田,140.387225,35.770091,京成,京成成田,140.315473,35.776308,京成,私鉄,快速,7.1,自由席
芝山千代田,140.399215,35.754248,芝山鉄道,東成田,140.387225,35.770091,芝山鉄道,私鉄,普通,2.2,自由席
東成田,140.387225,35.770091,芝山鉄道,芝山千代田,140.399215,35.754248,芝山鉄道,私鉄,普通,2.2,自由席
新宿,139.700464,35.689729,JR東日本,空港第２ビル（第２旅客ターミナル）,140.387871,35.773327,JR東日本,ＪＲ,特急,95.6,指定席
四ツ谷,139.730644,35.686041,JR東日本,新宿,139.700464,35.689729,JR東日本,ＪＲ,青梅特快,3.7,自由席
吉祥寺,139.579765,35.703119,JR東日本,四ツ谷,139.730644,35.686041,JR東日本,ＪＲ,快速,15.9,自由席
三鷹,139.560325,35.702683,JR東日本,吉祥寺,139.579765,35.703119,JR東日本,ＪＲ,普通,1.6,自由席
立川,139.413704,35.698202,JR東日本,三鷹,139.560325,35.702683,JR東日本,ＪＲ,快速,13.4,自由席
八王子,139.338998,35.655555,JR東日本,立川,139.413704,35.698202,JR東日本,ＪＲ,中央特快,9.9,自由席
立川,139.413704,35.698202,JR東日本,八王子,139.338998,35.655555,JR東日本,ＪＲ,特急,9.9,自由席
八王子,139.338998,35.655555,JR東日本,立川,139.413704,35.698202,JR東日本,ＪＲ,特急,9.9,自由席
大月,138.942729,35.613222,JR東日本,八王子,139.338998,35.655555,JR東日本,ＪＲ,特急,40.4,指定席
河口湖,138.768852,35.498231,富士急,大月,138.942248,35.612938,富士急,私鉄,特急,26.6,自由席
下吉田,138.80366,35.497909,富士急,河口湖,138.768852,35.498231,富士急,私鉄,普通,5.5,自由席
河口湖,138.768852,35.498231,富士急,下吉田,138.80366,35.497909,富士急,私鉄,普通,5.5,自由席
大月,138.942248,35.612938,富士急,河口湖,138.768852,35.498231,富士急,私鉄,快速,26.6,自由席
甲府,138.569015,35.667054,JR東日本,大月,138.942729,35.613222,JR東日本,ＪＲ,特急,46.3,指定席
静岡,138.388579,34.971629,JR東海,甲府,138.569015,35.667054,JR東日本,ＪＲ,特急,122.4,指定席
新大阪,135.501852,34.734136,JR西日本,静岡,138.388579,34.971629,JR東海,ＪＲ,新幹線,372.4,指定席
福知山,135.118564,35.296143,JR西日本,新大阪,135.501852,34.734136,JR西日本,ＪＲ,特急,118,指定席
天橋立,135.182456,35.557729,丹鉄,福知山,135.117996,35.296931,丹鉄,私鉄,特急,34.8,自由席
福知山,135.117996,35.296931,丹鉄,天橋立,135.182456,35.557729,丹鉄,私鉄,特急,34.8,自由席
二条,135.741701,35.010978,JR西日本,福知山,135.118564,35.296143,JR西日本,ＪＲ,特急,84.3,自由席
嵯峨嵐山,135.68127,35.018698,JR西日本,二条,135.741701,35.010978,JR西日本,ＪＲ,普通,6.1,自由席
トロッコ亀岡,135.606751,35.01314,嵯峨野トロッコ,トロッコ嵐山,135.670252,35.017162,嵯峨野トロッコ,私鉄,嵯峨野,6.3,立席
トロッコ嵯峨,135.680704,35.018656,嵯峨野トロッコ,トロッコ亀岡,135.606751,35.01314,嵯峨野トロッコ,私鉄,嵯峨野,7.3,指定席
二条,135.741701,35.010978,JR西日本,嵯峨嵐山,135.68127,35.018698,JR西日本,ＪＲ,普通,6.1,自由席
京都市役所前,135.768829,35.011003,京都市交通局,二条,135.741668,35.012028,京都市交通局,地下鉄,普通,2.5,自由席
東福寺,135.769998,34.981351,京阪,三条,135.772274,35.009114,京阪,私鉄,準急,3.2,自由席
宇治,135.800629,34.890437,JR西日本,東福寺,135.769778,34.981371,JR西日本,ＪＲ,みやこ路快速,13.8,自由席
奈良,135.818935,34.680482,JR西日本,宇治,135.800629,34.890437,JR西日本,ＪＲ,みやこ路快速,26.8,自由席
京都,135.756442,34.984726,近鉄,西ノ京,135.783186,34.670652,近鉄,私鉄,普通,37.4,自由席
二条,135.741701,35.010978,JR西日本,京都,135.757748,34.985465,JR西日本,ＪＲ,快速,4.2,自由席
三条京阪,135.773773,35.009278,京都市交通局,二条,135.741668,35.012028,京都市交通局,地下鉄,普通,3,自由席
淀屋橋,135.501648,34.692456,京阪,三条,135.772274,35.009114,京阪,私鉄,特急,49.3,自由席
本町,135.498982,34.681936,大阪メトロ,淀屋橋,135.500972,34.692289,大阪メトロ,地下鉄,普通,0.9,自由席
なんば,135.500277,34.666316,大阪メトロ,本町,135.498982,34.681936,大阪メトロ,地下鉄,普通,1.9,自由席
天王寺,135.51374,34.646554,大阪メトロ,なんば,135.500277,34.666316,大阪メトロ,地下鉄,普通,3.4,自由席
新大阪,135.501852,34.734136,JR西日本,天王寺,135.514124,34.647243,JR西日本,ＪＲ,特急,14.8,指定席
本町,135.498982,34.681936,大阪メトロ,新大阪,135.498558,34.732919,大阪メトロ,地下鉄,普通,5.7,自由席
新大阪,135.498558,34.732919,大阪メトロ,本町,135.498982,34.681936,大阪メトロ,地下鉄,普通,5.7,自由席
東京,139.766103,35.681391,JR東日本,新大阪,135.501852,34.734136,JR西日本,ＪＲ,新幹線,552.6,指定席
新宿,139.700464,35.689729,JR東日本,東京,139.766103,35.681391,JR東日本,ＪＲ,快速,10.3,自由席
吉祥寺,139.579765,35.703119,JR東日本,新宿,139.700464,35.689729,JR東日本,ＪＲ,快速,12.2,自由席
新宿,139.700464,35.689729,JR東日本,吉祥寺,139.579765,35.703119,JR東日本,ＪＲ,普通,12.2,自由席
新宿,139.698812,35.68869,東京都交通局,都庁前,139.69257,35.690551,東京都交通局,地下鉄,普通,0.8,自由席
蘇我,140.130767,35.582065,JR東日本,新宿,139.700464,35.689729,JR東日本,ＪＲ,特急,50.2,指定席
東京,139.766103,35.681391,JR東日本,蘇我,140.130767,35.582065,JR東日本,ＪＲ,特急,43,指定席
新宿,139.700464,35.689729,JR東日本,東京,139.766103,35.681391,JR東日本,ＪＲ,快速,10.3,自由席
新宿西口,139.699155,35.693315,東京都交通局,都庁前,139.69257,35.690551,東京都交通局,地下鉄,普通,0.8,自由席
池袋,139.711086,35.730256,JR東日本,新宿,139.700464,35.689729,JR東日本,ＪＲ,普通,4.8,自由席
新宿,139.700464,35.689729,JR東日本,池袋,139.711086,35.730256,JR東日本,ＪＲ,快速,4.8,自由席
都庁前,139.69257,35.690551,東京都交通局,新宿,139.698812,35.68869,東京都交通局,地下鉄,普通,0.8,自由席
汐留,139.760642,35.663703,東京都交通局,都庁前,139.69257,35.690551,東京都交通局,地下鉄,普通,9.5,自由席
末広町,139.771713,35.702972,東京メトロ,新橋,139.758432,35.667434,東京メトロ,地下鉄,普通,4.7,自由席
森下,139.797042,35.68796,東京都交通局,岩本町,139.775866,35.695534,東京都交通局,地下鉄,各駅停車,2.2,自由席
汐留,139.760642,35.663703,東京都交通局,森下,139.797042,35.68796,東京都交通局,地下鉄,普通,6.4,自由席
川崎,139.697485,35.531311,JR東日本,新橋,139.758587,35.666195,JR東日本,ＪＲ,普通,16.3,自由席
新橋,139.758587,35.666195,JR東日本,川崎,139.697485,35.531311,JR東日本,ＪＲ,普通,16.3,自由席
秋葉原,139.773288,35.698619,JR東日本,新橋,139.758587,35.666195,JR東日本,ＪＲ,普通,3.9,自由席
東京,139.766103,35.681391,JR東日本,秋葉原,139.773288,35.698619,JR東日本,ＪＲ,普通,2,自由席
新橋,139.758587,35.666195,JR東日本,東京,139.766103,35.681391,JR東日本,ＪＲ,普通,1.9,自由席
渋谷,139.701238,35.658871,JR東日本,新橋,139.758587,35.666195,JR東日本,ＪＲ,普通,12.1,自由席
大塚,139.728584,35.731412,JR東日本,渋谷,139.701238,35.658871,JR東日本,ＪＲ,普通,10,自由席
御徒町,139.774727,35.707282,JR東日本,大塚,139.728584,35.731412,JR東日本,ＪＲ,普通,7,自由席
新橋,139.758587,35.666195,JR東日本,御徒町,139.774727,35.707282,JR東日本,ＪＲ,普通,4.9,自由席
羽田空港国際線ビル,139.768206,35.544169,東京モノレール,浜松町,139.756747,35.655666,東京モノレール,モノレール,空港快速,14,自由席
東京,139.766103,35.681391,JR東日本,成田空港（第１旅客ターミナル）,140.384644,35.763983,JR東日本,ＪＲ,特急,79.2,指定席
吉祥寺,139.579765,35.703119,JR東日本,東京,139.766103,35.681391,JR東日本,ＪＲ,快速,22.5,自由席
新宿,139.700464,35.689729,JR東日本,吉祥寺,139.579765,35.703119,JR東日本,ＪＲ,快速,12.2,自由席
吉祥寺,139.579765,35.703119,JR東日本,新宿,139.700464,35.689729,JR東日本,ＪＲ,普通,12.2,自由席
渋谷,139.700872,35.6587,京王,吉祥寺,139.580306,35.702291,京王,私鉄,急行,12.7,自由席
日吉,139.646944,35.5539,東急,渋谷,139.702417,35.659545,東急,私鉄,急行,13.6,自由席
武蔵小杉,139.659652,35.575752,東急,日吉,139.646944,35.5539,東急,私鉄,急行,2.8,自由席
成田空港（第１旅客ターミナル）,140.384644,35.763983,JR東日本,武蔵小杉,139.65963,35.57669,JR東日本,ＪＲ,特急,96,指定席
金山,136.9013,35.142871,名鉄,中部国際空港,136.816382,34.859262,名鉄,私鉄,特急,35.7,自由席
名古屋,136.881637,35.170694,JR東海,金山,136.900517,35.142928,JR東海,ＪＲ,特別快速,3.3,自由席
伊勢市,136.709661,34.49126,JR東海,名古屋,136.881637,35.170694,JR東海,ＪＲ,快速,108.4,自由席
名古屋,136.881637,35.170694,JR東海,鳥羽,136.84279,34.486516,JR東海,ＪＲ,快速,122.5,自由席
金山,136.900517,35.142928,JR東海,名古屋,136.881637,35.170694,JR東海,ＪＲ,普通,3.3,自由席
伝馬町,136.91038,35.120735,名古屋市交通局,金山,136.901611,35.14352,名古屋市交通局,地下鉄,普通,3,自由席
金山,136.900517,35.142928,JR東海,熱田,136.910502,35.130028,JR東海,ＪＲ,普通,1.9,自由席
名古屋,136.881637,35.170694,JR東海,金山,136.900517,35.142928,JR東海,ＪＲ,区間快速,3.3,自由席
金城ふ頭,136.849009,35.048775,名臨高,名古屋,136.882417,35.168733,名臨高,私鉄,普通,15.2,自由席
名古屋,136.882417,35.168733,名臨高,金城ふ頭,136.849009,35.048775,名臨高,私鉄,普通,15.2,自由席
金山,136.900517,35.142928,JR東海,名古屋,136.881637,35.170694,JR東海,ＪＲ,快速,3.3,自由席
中部国際空港,136.816382,34.859262,名鉄,金山,136.9013,35.142871,名鉄,私鉄,特急,35.7,指定席
東京,139.766103,35.681391,JR東日本,成田空港（第１旅客ターミナル）,140.384644,35.763983,JR東日本,ＪＲ,特急,79.2,指定席
水戸,140.47676,36.370911,JR東日本,東京,139.766103,35.681391,JR東日本,ＪＲ,特急,121.1,指定席
品川,139.738999,35.62876,JR東日本,水戸,140.47676,36.370911,JR東日本,ＪＲ,特急,127.9,指定席
渋谷,139.701238,35.658871,JR東日本,品川,139.738999,35.62876,JR東日本,ＪＲ,普通,7.2,自由席
原宿,139.702592,35.670646,JR東日本,渋谷,139.701238,35.658871,JR東日本,ＪＲ,普通,1.2,自由席
品川,139.738999,35.62876,JR東日本,原宿,139.702592,35.670646,JR東日本,ＪＲ,普通,8.4,自由席
東京,139.766103,35.681391,JR東日本,品川,139.738999,35.62876,JR東日本,ＪＲ,普通,6.8,自由席
大宮,139.62405,35.906439,JR東日本,東京,139.766103,35.681391,JR東日本,ＪＲ,新幹線,30.3,指定席
東京,139.766103,35.681391,JR東日本,大宮,139.62405,35.906439,JR東日本,ＪＲ,新幹線,30.3,指定席
品川,139.738999,35.62876,JR東日本,東京,139.766103,35.681391,JR東日本,ＪＲ,普通,6.8,自由席
河津,138.996179,34.747711,伊豆急,品川,139.738999,35.62876,JR東日本,ＪＲ,特急,150,指定席
熱海,139.077679,35.103573,JR東日本,河津,138.996179,34.747711,伊豆急,ＪＲ,特急,52.2,指定席
三島,138.911133,35.126253,JR東海,熱海,139.077679,35.103573,JR東日本,ＪＲ,普通,16.1,自由席
静岡,138.388579,34.971629,JR東海,三島,138.911133,35.126253,JR東海,ＪＲ,新幹線,59.5,自由席
金谷,138.125578,34.819049,JR東海,静岡,138.388579,34.971629,JR東海,ＪＲ,普通,32.7,自由席
新金谷,138.137645,34.825737,大鐵,金谷,138.12605,34.819568,大鐵,私鉄,普通,2.3,自由席
家山,138.077764,34.940071,大鐵,新金谷,138.137645,34.825737,大鐵,私鉄,SL急行,14.8,指定席
金谷,138.12605,34.819568,大鐵,家山,138.077764,34.940071,大鐵,私鉄,普通,17.1,自由席
島田,138.173436,34.830159,JR東海,金谷,138.125578,34.819049,JR東海,ＪＲ,普通,5.1,自由席
小田原,139.155772,35.256225,JR東日本,根府川,139.138504,35.202455,JR東日本,ＪＲ,普通,6.5,自由席
根府川,139.138504,35.202455,JR東日本,小田原,139.155772,35.256225,JR東日本,ＪＲ,普通,6.5,自由席
南千歳,141.675388,42.80804,JR北海道,新千歳空港,141.680823,42.787546,JR北海道,ＪＲ,快速,2.6,自由席
新千歳空港,141.680823,42.787546,JR北海道,南千歳,141.675388,42.80804,JR北海道,ＪＲ,快速,2.6,自由席
新夕張,142.03657,42.936611,JR北海道,夕張,141.967472,43.050926,JR北海道,ＪＲ,普通,16.1,自由席
南千歳,141.675388,42.80804,JR北海道,新夕張,142.03657,42.936611,JR北海道,ＪＲ,特急,43,自由席
新千歳空港,141.680823,42.787546,JR北海道,南千歳,141.675388,42.80804,JR北海道,ＪＲ,快速,2.6,自由席
難波,135.501949,34.66357,南海,関西空港,135.243601,34.435848,南海,私鉄,特急,42.8,指定席
北浜,135.506634,34.691588,大阪メトロ,日本橋,135.506635,34.667146,大阪メトロ,地下鉄,普通,2.8,自由席
丹波橋,135.765457,34.938879,京阪,北浜,135.50683,34.691799,京阪,私鉄,特急,40.8,自由席
東福寺,135.769998,34.981351,京阪,丹波橋,135.765457,34.938879,京阪,私鉄,準急,4.8,自由席
京都,135.757748,34.985465,JR西日本,東福寺,135.769778,34.981371,JR西日本,ＪＲ,普通,1.1,自由席
新大阪,135.501852,34.734136,JR西日本,京都,135.757748,34.985465,JR西日本,ＪＲ,新幹線,39,自由席
久宝寺,135.583988,34.622558,JR西日本,新大阪,135.501852,34.734136,JR西日本,ＪＲ,普通,20.2,自由席
ＪＲ難波,135.495265,34.666438,JR西日本,久宝寺,135.583988,34.622558,JR西日本,ＪＲ,普通,10.6,自由席
和歌山市,135.166538,34.236925,南海,難波,135.501949,34.66357,南海,私鉄,急行,64.2,自由席
和歌山港,135.146488,34.217321,南海,和歌山市,135.166538,34.236925,南海,私鉄,普通,2.8,自由席
阿波池田,133.804669,34.026891,JR四国,徳島,134.551391,34.074572,JR四国,ＪＲ,特急,74,自由席
宇多津,133.813686,34.306271,JR四国,阿波池田,133.804669,34.026891,JR四国,ＪＲ,特急,50.7,自由席
坂出,133.856819,34.313189,JR四国,宇多津,133.813686,34.306271,JR四国,ＪＲ,快速,4.6,自由席
宇多津,133.813686,34.306271,JR四国,坂出,133.856819,34.313189,JR四国,ＪＲ,快速,4.6,自由席
高知,133.543522,33.566758,JR四国,宇多津,133.813686,34.306271,JR四国,ＪＲ,特急,133.4,自由席
はりまや橋,133.542852,33.559617,土佐電,高知駅前,133.543606,33.56653,土佐電,路面電車,普通,0.8,自由席
桟橋通五丁目,133.552938,33.540286,土佐電,はりまや橋,133.542852,33.559617,土佐電,路面電車,普通,2.4,自由席
はりまや橋,133.542852,33.559617,土佐電,桟橋通五丁目,133.552938,33.540286,土佐電,路面電車,普通,2.4,自由席
高知駅前,133.543606,33.56653,土佐電,はりまや橋,133.542852,33.559617,土佐電,路面電車,普通,0.8,自由席
窪川,133.137285,33.212656,JR四国,高知,133.543522,33.566758,JR四国,ＪＲ,快速,72.1,指定席
宇和島,132.56746,33.225774,JR四国,窪川,133.137285,33.212656,JR四国,ＪＲ,普通,82.2,自由席
松山,132.751149,33.839954,JR四国,宇和島,132.56746,33.225774,JR四国,ＪＲ,特急,96.9,自由席
古町,132.754998,33.846978,伊予鉄,松山駅前,132.752326,33.840765,伊予鉄,路面電車,普通,0.8,自由席
松山市,132.762281,33.835656,伊予鉄,古町,132.754998,33.846978,伊予鉄,私鉄,普通,1.8,自由席
松山駅前,132.752326,33.840765,伊予鉄,松山市駅前,132.762587,33.836148,伊予鉄,路面電車,普通,1.3,自由席
古町,132.754998,33.846978,伊予鉄,松山駅前,132.752326,33.840765,伊予鉄,路面電車,普通,0.8,自由席
大街道,132.769861,33.841103,伊予鉄,古町,132.754998,33.846978,伊予鉄,路面電車,普通,2.7,自由席
松山駅前,132.752326,33.840765,伊予鉄,大街道,132.769861,33.841103,伊予鉄,路面電車,普通,4.6,自由席
伊予西条,133.188275,33.912584,JR四国,松山,132.751149,33.839954,JR四国,ＪＲ,特急,80.1,指定席
児島,133.807729,34.462817,JR西日本,伊予西条,133.188275,33.912584,JR四国,ＪＲ,特急,106.5,指定席
高松,134.046821,34.350754,JR四国,児島,133.807729,34.462817,JR西日本,ＪＲ,快速,44,自由席
志度,134.173144,34.321508,JR四国,高松,134.046821,34.350754,JR四国,ＪＲ,特急,16.3,自由席
瓦町,134.052529,34.338827,琴電,琴電志度,134.172528,34.32246,琴電,私鉄,普通,12.5,自由席
高松築港,134.049507,34.35079,琴電,瓦町,134.052529,34.338827,琴電,私鉄,普通,1.7,自由席
池谷,134.529097,34.152783,JR四国,高松,134.046821,34.350754,JR四国,ＪＲ,特急,64.2,自由席
鳴門,134.608355,34.179131,JR四国,池谷,134.529097,34.152783,JR四国,ＪＲ,普通,8.5,自由席
徳島,134.551391,34.074572,JR四国,鳴門,134.608355,34.179131,JR四国,ＪＲ,普通,18.8,自由席
高松,134.046821,34.350754,JR四国,徳島,134.551391,34.074572,JR四国,ＪＲ,特急,74.5,自由席
坂出,133.856819,34.313189,JR四国,高松,134.046821,34.350754,JR四国,ＪＲ,快速,21.3,自由席
丸亀,133.793887,34.292414,JR四国,坂出,133.856819,34.313189,JR四国,ＪＲ,普通,7.1,自由席
宇多津,133.813686,34.306271,JR四国,丸亀,133.793887,34.292414,JR四国,ＪＲ,特急,2.6,自由席
高松,134.046821,34.350754,JR四国,宇多津,133.813686,34.306271,JR四国,ＪＲ,特急,25.9,自由席
徳島,134.551391,34.074572,JR四国,高松,134.046821,34.350754,JR四国,ＪＲ,特急,74.5,自由席
南小松島,134.586994,34.005634,JR四国,徳島,134.551391,34.074572,JR四国,ＪＲ,特急,10.9,指定席
徳島,134.551391,34.074572,JR四国,南小松島,134.586994,34.005634,JR四国,ＪＲ,普通,10.9,自由席
横浜,139.623055,35.466066,京急,羽田空港国内線ターミナル,139.785962,35.549809,京急,私鉄,エアポート急行,20.7,自由席
日吉,139.646944,35.5539,東急,横浜,139.622299,35.466372,東急,私鉄,急行,10.6,自由席
武蔵小杉,139.659652,35.575752,東急,日吉,139.646944,35.5539,東急,私鉄,急行,2.8,自由席
中目黒,139.698621,35.643854,東急,武蔵小杉,139.659652,35.575752,東急,私鉄,急行,8.6,自由席
秋葉原,139.775459,35.698162,東京メトロ,中目黒,139.698621,35.643854,東京メトロ,地下鉄,普通,13.5,自由席
御茶ノ水,139.764955,35.699605,JR東日本,秋葉原,139.773288,35.698619,JR東日本,ＪＲ,普通,0.9,自由席
三鷹,139.560325,35.702683,JR東日本,御茶ノ水,139.764955,35.699605,JR東日本,ＪＲ,中央特快,21.5,自由席
新宿,139.700464,35.689729,JR東日本,三鷹,139.560325,35.702683,JR東日本,ＪＲ,快速,13.8,自由席
武蔵小杉,139.65963,35.57669,JR東日本,新宿,139.700464,35.689729,JR東日本,ＪＲ,快速,20.6,自由席
日吉,139.646944,35.5539,東急,武蔵小杉,139.659652,35.575752,東急,私鉄,各駅停車,2.8,自由席
武蔵小杉,139.659652,35.575752,東急,日吉,139.646944,35.5539,東急,私鉄,各駅停車,2.8,自由席
成田空港（第１旅客ターミナル）,140.384644,35.763983,JR東日本,武蔵小杉,139.65963,35.57669,JR東日本,ＪＲ,特急,96,指定席
